% program   : rnx2rtkp ver.EX 2.5.0
% inp file  : .\rnx_out\GPS_GAL_BDS\orion_gps_gal_bds.obs
% inp file  : .\rnx_out\GPS_GAL_BDS\orion_gps_gal_bds.nav
% obs start : 2024/01/10 00:00:30.0 GPST (week2296 259230.0s)
% obs end   : 2024/01/10 00:10:24.0 GPST (week2296 259824.0s)
%
% (x/y/z-ecef=WGS84,Q=1:fix,2:float,3:sbas,4:dgps,5:single,6:ppp,ns=# of satellites)
%  GPST              x-ecef(m)      y-ecef(m)      z-ecef(m)   Q  ns   sdx(m)   sdy(m)   sdz(m)  sdxy(m)  sdyz(m)  sdzx(m) age(s)  ratio
2296 259229.999  -1124783.7574  -7258596.1008  -2360300.1210   5  10   3.3559   6.4728   7.1945   2.5672   2.5983   3.0256   0.00    0.0
2296 259230.999  -1121977.8281  -7257017.1736  -2366488.5443   5  10   3.3554   6.4723   7.1942   2.5661   2.5995   3.0268   0.00    0.0
2296 259231.999  -1119171.6182  -7255428.4684  -2372675.9495   5  10   3.3548   6.4718   7.1938   2.5651   2.6006   3.0279   0.00    0.0
2296 259232.999  -1116363.4782  -7253836.4625  -2378856.3375   5  10   3.3543   6.4713   7.1935   2.5640   2.6018   3.0291   0.00    0.0
2296 259233.999  -1113555.1906  -7252236.3361  -2385037.9107   5  11   2.9099   6.4089   6.3891   2.8385   3.1184   1.9162   0.00    0.0
2296 259234.999  -1110744.5567  -7250633.5866  -2391216.1459   5  11   2.9090   6.4084   6.3880   2.8377   3.1196   1.9169   0.00    0.0
2296 259235.999  -1107933.0433  -7249022.2899  -2397397.6229   5  11   2.9080   6.4078   6.3869   2.8369   3.1209   1.9177   0.00    0.0
2296 259236.999  -1105120.1245  -7247406.3697  -2403573.6331   5  11   2.9071   6.4073   6.3859   2.8361   3.1221   1.9184   0.00    0.0
2296 259237.999  -1102306.8415  -7245783.5938  -2409745.8940   5  11   2.9061   6.4067   6.3848   2.8353   3.1234   1.9192   0.00    0.0
2296 259238.999  -1099492.2386  -7244157.4075  -2415918.3789   5  11   2.9052   6.4062   6.3838   2.8346   3.1246   1.9199   0.00    0.0
2296 259239.999  -1096676.6811  -7242524.5034  -2422090.0536   5  11   2.9043   6.4057   6.3827   2.8338   3.1259   1.9206   0.00    0.0
2296 259240.999  -1093859.0942  -7240882.4206  -2428254.7114   5  11   2.9033   6.4051   6.3817   2.8330   3.1271   1.9214   0.00    0.0
2296 259241.999  -1091041.6334  -7239238.7558  -2434422.4027   5  11   2.9024   6.4046   6.3806   2.8322   3.1284   1.9221   0.00    0.0
2296 259242.999  -1088221.1618  -7237587.9837  -2440583.1194   5  11   2.9015   6.4041   6.3796   2.8315   3.1296   1.9229   0.00    0.0
2296 259243.999  -1085401.4031  -7235930.8494  -2446746.5446   5  11   2.9006   6.4036   6.3785   2.8307   3.1309   1.9236   0.00    0.0
2296 259244.999  -1082577.8729  -7234265.2299  -2452901.3299   5  11   2.8996   6.4031   6.3775   2.8299   3.1321   1.9243   0.00    0.0
2296 259245.999  -1079756.1045  -7232600.2935  -2459058.6123   5  11   2.8987   6.4025   6.3765   2.8292   3.1333   1.9251   0.00    0.0
2296 259246.999  -1076931.2950  -7230923.7887  -2465214.1256   5  11   2.8978   6.4020   6.3754   2.8284   3.1346   1.9258   0.00    0.0
2296 259247.999  -1074106.6591  -7229242.3911  -2471367.3995   5  11   2.8969   6.4015   6.3744   2.8276   3.1358   1.9266   0.00    0.0
2296 259248.999  -1071278.9180  -7227558.0180  -2477517.8488   5  11   2.8960   6.4010   6.3734   2.8269   3.1371   1.9273   0.00    0.0
2296 259249.999  -1068450.8876  -7225866.3981  -2483664.6945   5  11   2.8950   6.4006   6.3723   2.8261   3.1383   1.9280   0.00    0.0
2296 259250.999  -1065623.0860  -7224168.9123  -2489811.5746   5  11   2.8941   6.4001   6.3713   2.8254   3.1395   1.9288   0.00    0.0
2296 259251.999  -1062792.0949  -7222464.5308  -2495955.4618   5  11   2.8932   6.3996   6.3703   2.8246   3.1408   1.9295   0.00    0.0
2296 259252.999  -1059959.6887  -7220755.5894  -2502094.2898   5  11   2.8923   6.3991   6.3693   2.8239   3.1420   1.9303   0.00    0.0
2296 259253.999  -1057127.8707  -7219038.0702  -2508236.5226   5  11   2.8914   6.3986   6.3683   2.8231   3.1433   1.9310   0.00    0.0
2296 259254.999  -1054294.0389  -7217317.0915  -2514372.0922   5  11   2.8905   6.3981   6.3673   2.8224   3.1445   1.9318   0.00    0.0
2296 259255.999  -1051458.6847  -7215587.9725  -2520508.0114   5  11   2.8896   6.3977   6.3663   2.8216   3.1457   1.9325   0.00    0.0
2296 259256.999  -1048624.3380  -7213859.2690  -2526642.8469   5  11   2.8887   6.3972   6.3653   2.8209   3.1470   1.9332   0.00    0.0
2296 259257.999  -1045787.0407  -7212120.6544  -2532773.1320   5  13   2.7103   5.9170   4.4380   2.5873   2.5776  -0.8172   0.00    0.0
2296 259258.999  -1042948.9493  -7210376.3212  -2538902.7418   5  13   2.7094   5.9173   4.4382   2.5869   2.5794  -0.8144   0.00    0.0
2296 259259.999  -1040109.1302  -7208626.6726  -2545028.7499   5  13   2.7086   5.9175   4.4383   2.5866   2.5813  -0.8116   0.00    0.0
2296 259260.999  -1037268.3146  -7206869.4936  -2551152.9771   5  13   2.7077   5.9178   4.4385   2.5862   2.5831  -0.8088   0.00    0.0
2296 259261.999  -1034426.5947  -7205105.7346  -2557274.2346   5  13   2.7068   5.9181   4.4386   2.5859   2.5850  -0.8060   0.00    0.0
2296 259262.999  -1031584.2691  -7203338.3840  -2563393.2366   5  13   2.7059   5.9184   4.4388   2.5855   2.5868  -0.8031   0.00    0.0
2296 259263.999  -1028739.5007  -7201566.6444  -2569512.1323   5  14   2.6048   5.8564   4.4375   2.4614   2.6070  -0.7479   0.00    0.0
2296 259264.999  -1025893.3012  -7199789.2871  -2575627.4447   5  14   2.6039   5.8566   4.4377   2.4609   2.6087  -0.7452   0.00    0.0
2296 259265.999  -1023048.9296  -7198001.0424  -2581738.7333   5  14   2.6030   5.8569   4.4379   2.4605   2.6104  -0.7426   0.00    0.0
2296 259266.999  -1020201.0125  -7196210.9120  -2587849.8974   5  14   2.6020   5.8571   4.4381   2.4601   2.6121  -0.7399   0.00    0.0
2296 259267.999  -1017352.7370  -7194415.5622  -2593958.2932   5  14   2.6011   5.8574   4.4383   2.4597   2.6138  -0.7372   0.00    0.0
2296 259268.999  -1014501.4539  -7192613.3702  -2600065.4992   5  14   2.6001   5.8577   4.4384   2.4593   2.6155  -0.7345   0.00    0.0
2296 259269.999  -1011651.7648  -7190803.3519  -2606168.5042   5  14   2.5992   5.8580   4.4386   2.4589   2.6172  -0.7318   0.00    0.0
2296 259270.999  -1008798.9739  -7188991.1573  -2612272.8716   5  14   2.5983   5.8583   4.4388   2.4584   2.6189  -0.7291   0.00    0.0
2296 259271.999  -1005946.3395  -7187172.6174  -2618371.4989   5  14   2.5973   5.8585   4.4390   2.4580   2.6206  -0.7264   0.00    0.0
2296 259272.999  -1003091.7678  -7185348.0253  -2624468.6733   5  14   2.5964   5.8588   4.4392   2.4576   2.6223  -0.7237   0.00    0.0
2296 259273.999  -1000236.0961  -7183515.6044  -2630564.0775   5  14   2.5955   5.8591   4.4393   2.4572   2.6239  -0.7209   0.00    0.0
2296 259274.999   -997379.8617  -7181677.4253  -2636656.4401   5  14   2.5945   5.8594   4.4395   2.4568   2.6256  -0.7182   0.00    0.0
2296 259275.999   -994522.0489  -7179835.7484  -2642747.0915   5  15   2.5080   5.7818   3.4867   2.3248   3.0855   1.1422   0.00    0.0
2296 259276.999   -991663.3890  -7177985.2777  -2648834.8210   5  15   2.5073   5.7824   3.4874   2.3248   3.0861   1.1426   0.00    0.0
2296 259277.999   -988803.6281  -7176133.2274  -2654920.6920   5  15   2.5066   5.7830   3.4881   2.3248   3.0866   1.1430   0.00    0.0
2296 259278.999   -985942.3085  -7174270.9812  -2661003.2618   5  15   2.5059   5.7836   3.4887   2.3249   3.0871   1.1434   0.00    0.0
2296 259279.999   -983080.0021  -7172407.3267  -2667085.8239   5  15   2.5052   5.7842   3.4894   2.3249   3.0877   1.1438   0.00    0.0
2296 259280.999   -980217.4352  -7170534.6352  -2673163.2347   5  15   2.5045   5.7849   3.4901   2.3249   3.0882   1.1442   0.00    0.0
2296 259281.999   -977353.2405  -7168658.1875  -2679241.4518   5  16   2.5037   5.5262   3.4897   2.3308   3.0654   1.1452   0.00    0.0
2296 259282.999   -974487.5008  -7166773.0060  -2685315.6730   5  16   2.5030   5.5266   3.4904   2.3307   3.0663   1.1456   0.00    0.0
2296 259283.999   -971620.9090  -7164884.1336  -2691387.1308   5  16   2.5023   5.5271   3.4911   2.3306   3.0671   1.1459   0.00    0.0
2296 259284.999   -968751.8340  -7162990.5325  -2697457.9247   5  16   2.5016   5.5275   3.4918   2.3304   3.0679   1.1463   0.00    0.0
2296 259285.999   -965883.1991  -7161089.8617  -2703524.9287   5  16   2.5009   5.5279   3.4925   2.3303   3.0687   1.1467   0.00    0.0
2296 259286.999   -963013.4507  -7159182.0727  -2709588.5258   5  16   2.5002   5.5283   3.4932   2.3301   3.0695   1.1470   0.00    0.0
2296 259287.999   -960142.2034  -7157271.3572  -2715651.4857   5  17   2.4982   5.5287   3.3278   2.3304   3.0747   1.1096   0.00    0.0
2296 259288.999   -957270.4693  -7155352.7740  -2721710.9332   5  17   2.4975   5.5292   3.3284   2.3303   3.0753   1.1098   0.00    0.0
2296 259289.999   -954396.8237  -7153429.5049  -2727769.5905   5  17   2.4968   5.5296   3.3290   2.3301   3.0759   1.1101   0.00    0.0
2296 259290.999   -951523.2392  -7151500.7723  -2733824.3645   5  17   2.4961   5.5301   3.3296   2.3300   3.0765   1.1104   0.00    0.0
2296 259291.999   -948646.7644  -7149566.4379  -2739877.3595   5  18   2.2307   5.2063   3.0219   1.8278   2.6187  -0.5761   0.00    0.0
2296 259292.999   -945770.7952  -7147626.9547  -2745929.9432   5  18   2.2302   5.2065   3.0221   1.8277   2.6188  -0.5757   0.00    0.0
2296 259293.999   -942891.6809  -7145677.0685  -2751976.0151   5  18   2.2297   5.2067   3.0223   1.8275   2.6190  -0.5754   0.00    0.0
2296 259294.999   -940014.8354  -7143724.3835  -2758021.0007   5  18   2.2293   5.2069   3.0225   1.8274   2.6191  -0.5750   0.00    0.0
2296 259295.999   -937133.5693  -7141769.9918  -2764066.1183   5  18   2.2288   5.2071   3.0227   1.8273   2.6193  -0.5746   0.00    0.0
2296 259296.999   -934253.0187  -7139805.6163  -2770108.5180   5  18   2.2284   5.2073   3.0230   1.8272   2.6194  -0.5742   0.00    0.0
2296 259297.999   -931370.3503  -7137835.8679  -2776146.2598   5  18   2.2279   5.2075   3.0232   1.8271   2.6196  -0.5739   0.00    0.0
2296 259298.999   -928487.4084  -7135858.4821  -2782181.3576   5  18   2.2275   5.2077   3.0234   1.8270   2.6197  -0.5735   0.00    0.0
2296 259299.999   -925603.1276  -7133878.0087  -2788215.9408   5  18   2.2270   5.2079   3.0236   1.8269   2.6199  -0.5731   0.00    0.0
2296 259300.999   -922717.5412  -7131891.7912  -2794248.2572   5  18   2.2266   5.2081   3.0238   1.8268   2.6200  -0.5728   0.00    0.0
2296 259301.999   -919831.8042  -7129900.6057  -2800277.5700   5  18   2.2261   5.2084   3.0241   1.8267   2.6202  -0.5724   0.00    0.0
2296 259302.999   -916944.2438  -7127902.0306  -2806304.6762   5  18   2.2257   5.2086   3.0243   1.8266   2.6204  -0.5720   0.00    0.0
2296 259303.999   -914055.9903  -7125897.5391  -2812327.3901   5  19   2.2251   4.6623   3.0097   1.8090   2.4843  -0.5788   0.00    0.0
2296 259304.999   -911165.0321  -7123887.2441  -2818348.9171   5  19   2.2246   4.6627   3.0099   1.8088   2.4846  -0.5784   0.00    0.0
2296 259305.999   -908274.7578  -7121871.2442  -2824368.5910   5  20   2.1282   4.6436   2.7472   1.8830   2.3774   0.6791   0.00    0.0
2296 259306.999   -905382.8993  -7119852.2593  -2830386.1605   5  20   2.1280   4.6439   2.7475   1.8828   2.3776   0.6785   0.00    0.0
2296 259307.999   -902490.0372  -7117823.8389  -2836399.9083   5  20   2.1277   4.6442   2.7479   1.8826   2.3778   0.6780   0.00    0.0
2296 259308.999   -899596.6156  -7115792.2102  -2842411.4651   5  20   2.1275   4.6445   2.7482   1.8824   2.3780   0.6775   0.00    0.0
2296 259309.999   -896700.8747  -7113753.2067  -2848420.6494   5  20   2.1273   4.6449   2.7486   1.8822   2.3782   0.6770   0.00    0.0
2296 259310.999   -893805.8308  -7111710.3699  -2854427.6084   5  20   2.1271   4.6452   2.7489   1.8820   2.3784   0.6764   0.00    0.0
2296 259311.999   -890907.6413  -7109660.6993  -2860431.0547   5  20   2.1269   4.6455   2.7493   1.8818   2.3786   0.6759   0.00    0.0
2296 259312.999   -888009.4437  -7107605.6920  -2866434.4909   5  20   2.1267   4.6458   2.7496   1.8817   2.3788   0.6754   0.00    0.0
2296 259313.999   -885109.2158  -7105543.5114  -2872434.9765   5  20   2.1265   4.6461   2.7500   1.8815   2.3790   0.6748   0.00    0.0
2296 259314.999   -882208.9857  -7103475.9564  -2878431.2095   5  20   2.1263   4.6465   2.7503   1.8813   2.3792   0.6743   0.00    0.0
2296 259315.999   -879308.1197  -7101404.1651  -2884425.7350   5  20   2.1260   4.6468   2.7507   1.8811   2.3795   0.6738   0.00    0.0
2296 259316.999   -876405.4478  -7099327.3520  -2890418.2021   5  20   2.1258   4.6471   2.7510   1.8809   2.3797   0.6733   0.00    0.0
2296 259317.999   -873501.4598  -7097242.2867  -2896408.3833   5  20   2.1256   4.6474   2.7514   1.8807   2.3799   0.6727   0.00    0.0
2296 259318.999   -870597.4087  -7095153.2249  -2902393.4011   5  20   2.1254   4.6478   2.7517   1.8805   2.3801   0.6722   0.00    0.0
2296 259319.999   -867690.9745  -7093055.2794  -2908377.6999   5  20   2.1252   4.6481   2.7521   1.8804   2.3803   0.6717   0.00    0.0
2296 259320.999   -864784.4836  -7090955.6117  -2914361.0873   5  20   2.1250   4.6484   2.7525   1.8802   2.3805   0.6711   0.00    0.0
2296 259321.999   -861876.1820  -7088852.0148  -2920340.8045   5  20   2.1248   4.6488   2.7528   1.8800   2.3807   0.6706   0.00    0.0
2296 259322.999   -858967.4955  -7086738.3085  -2926317.7786   5  20   2.1246   4.6491   2.7532   1.8798   2.3809   0.6701   0.00    0.0
2296 259323.999   -856058.2192  -7084619.2811  -2932292.1108   5  20   2.1244   4.6495   2.7536   1.8796   2.3812   0.6696   0.00    0.0
2296 259324.999   -853147.2111  -7082494.4246  -2938263.4537   5  20   2.1241   4.6498   2.7539   1.8795   2.3814   0.6690   0.00    0.0
2296 259325.999   -850234.9176  -7080366.3215  -2944232.1403   5  20   2.1239   4.6502   2.7543   1.8793   2.3816   0.6685   0.00    0.0
2296 259326.999   -847321.8500  -7078230.0689  -2950198.0929   5  20   2.1237   4.6505   2.7547   1.8791   2.3818   0.6680   0.00    0.0
2296 259327.999   -844407.9160  -7076089.8427  -2956163.4949   5  20   2.1235   4.6509   2.7551   1.8789   2.3820   0.6674   0.00    0.0
2296 259328.999   -841492.4057  -7073942.5682  -2962125.1076   5  20   2.1233   4.6512   2.7554   1.8787   2.3823   0.6669   0.00    0.0
2296 259329.999   -838576.3564  -7071791.3591  -2968084.5086   5  20   2.1231   4.6516   2.7558   1.8786   2.3825   0.6664   0.00    0.0
2296 259330.999   -835658.6698  -7069632.9054  -2974041.8348   5  20   2.1229   4.6520   2.7562   1.8784   2.3827   0.6659   0.00    0.0
2296 259331.999   -832739.7361  -7067469.7290  -2979994.6906   5  20   2.1227   4.6523   2.7566   1.8782   2.3829   0.6653   0.00    0.0
2296 259332.999   -829822.5302  -7065302.9801  -2985947.0110   5  20   2.1225   4.6527   2.7570   1.8780   2.3832   0.6648   0.00    0.0
2296 259333.999   -826901.0802  -7063125.6419  -2991893.7791   5  20   2.1223   4.6531   2.7574   1.8778   2.3834   0.6643   0.00    0.0
2296 259334.999   -823978.6806  -7060945.0108  -2997840.5630   5  20   2.1221   4.6534   2.7578   1.8777   2.3836   0.6638   0.00    0.0
2296 259335.999   -821057.4051  -7058760.1781  -3003784.3060   5  21   2.1141   4.5547   2.7383   1.8309   2.4492   0.7068   0.00    0.0
2296 259336.999   -818134.3137  -7056567.0223  -3009724.5723   5  21   2.1139   4.5551   2.7386   1.8307   2.4495   0.7065   0.00    0.0
2296 259337.999   -815209.3600  -7054371.3149  -3015663.5936   5  21   2.1137   4.5555   2.7389   1.8304   2.4499   0.7062   0.00    0.0
2296 259339.999   -809358.6543  -7049958.6228  -3027531.0145   5  21   2.1132   4.5564   2.7395   1.8299   2.4506   0.7055   0.00    0.0
2296 259340.999   -806429.4561  -7047745.0269  -3033463.0998   5  21   2.1130   4.5569   2.7398   1.8297   2.4510   0.7052   0.00    0.0
2296 259341.999   -803500.9937  -7045523.9617  -3039390.1877   5  21   2.1127   4.5573   2.7401   1.8294   2.4514   0.7049   0.00    0.0
2296 259342.999   -800572.7094  -7043299.6963  -3045316.6420   5  21   2.1125   4.5577   2.7405   1.8292   2.4517   0.7046   0.00    0.0
2296 259343.999   -797641.2273  -7041067.4583  -3051237.3213   5  21   2.1122   4.5582   2.7408   1.8289   2.4521   0.7043   0.00    0.0
2296 259344.999   -794710.1205  -7038829.1534  -3057158.4942   5  21   2.1120   4.5586   2.7411   1.8287   2.4525   0.7040   0.00    0.0
2296 259345.999   -791777.6617  -7036587.6659  -3063074.8868   5  21   2.1118   4.5591   2.7414   1.8284   2.4529   0.7036   0.00    0.0
2296 259346.999   -788844.7070  -7034339.2148  -3068988.9759   5  21   2.1115   4.5595   2.7417   1.8282   2.4532   0.7033   0.00    0.0
2296 259347.999   -785908.3725  -7032084.1811  -3074900.9818   5  21   2.1113   4.5600   2.7421   1.8279   2.4536   0.7030   0.00    0.0
2296 259348.999   -782973.5655  -7029825.8338  -3080810.2685   5  21   2.1111   4.5605   2.7424   1.8277   2.4540   0.7027   0.00    0.0
2296 259349.999   -780037.7248  -7027558.9315  -3086716.8931   5  21   2.1108   4.5609   2.7427   1.8274   2.4544   0.7024   0.00    0.0
2296 259350.999   -777098.7545  -7025288.0556  -3092620.8711   5  21   2.1106   4.5614   2.7430   1.8272   2.4548   0.7021   0.00    0.0
2296 259351.999   -774161.0510  -7023012.7909  -3098522.3435   5  21   2.1104   4.5618   2.7434   1.8269   2.4551   0.7018   0.00    0.0
2296 259352.999   -771220.9786  -7020732.4534  -3104421.6909   5  21   2.1101   4.5623   2.7437   1.8267   2.4555   0.7015   0.00    0.0
2296 259353.999   -768280.4789  -7018443.3169  -3110316.9464   5  21   2.1099   4.5628   2.7440   1.8264   2.4559   0.7011   0.00    0.0
2296 259354.999   -765339.2800  -7016148.8919  -3116210.3662   5  21   2.1097   4.5633   2.7444   1.8262   2.4563   0.7008   0.00    0.0
2296 259355.999   -762396.2045  -7013850.9604  -3122099.3540   5  21   2.1094   4.5637   2.7447   1.8259   2.4567   0.7005   0.00    0.0
2296 259356.999   -759453.2689  -7011546.5271  -3127987.0894   5  21   2.1092   4.5642   2.7450   1.8257   2.4571   0.7002   0.00    0.0
2296 259357.999   -756507.7464  -7009236.9576  -3133872.9299   5  21   2.1090   4.5647   2.7454   1.8255   2.4574   0.6999   0.00    0.0
2296 259358.999   -753561.7110  -7006918.7016  -3139754.9339   5  21   2.1088   4.5652   2.7457   1.8252   2.4578   0.6996   0.00    0.0
2296 259359.999   -750615.0317  -7004595.6646  -3145634.0110   5  21   2.1085   4.5657   2.7461   1.8250   2.4582   0.6993   0.00    0.0
2296 259360.999   -747668.4286  -7002270.9536  -3151510.8181   5  21   2.1083   4.5662   2.7464   1.8247   2.4586   0.6990   0.00    0.0
2296 259361.999   -744718.3390  -6999935.5712  -3157383.8671   5  21   2.1081   4.5666   2.7468   1.8245   2.4590   0.6987   0.00    0.0
2296 259362.999   -741769.3251  -6997599.2247  -3163255.7255   5  21   2.1078   4.5671   2.7471   1.8243   2.4594   0.6984   0.00    0.0
2296 259363.999   -738819.5253  -6995256.8337  -3169124.9243   5  21   2.1076   4.5676   2.7475   1.8240   2.4598   0.6981   0.00    0.0
2296 259364.999   -735867.3867  -6992907.8472  -3174991.0575   5  21   2.1074   4.5681   2.7478   1.8238   2.4602   0.6978   0.00    0.0
2296 259365.999   -732915.4270  -6990552.8967  -3180854.2956   5  21   2.1071   4.5686   2.7482   1.8236   2.4606   0.6975   0.00    0.0
2296 259366.999   -729960.9686  -6988190.9791  -3186715.1309   5  21   2.1069   4.5691   2.7485   1.8233   2.4610   0.6972   0.00    0.0
2296 259367.999   -727007.0285  -6985824.4883  -3192571.8980   5  21   2.1067   4.5697   2.7489   1.8231   2.4614   0.6969   0.00    0.0
2296 259368.999   -724051.6418  -6983452.8736  -3198426.6280   5  21   2.1065   4.5702   2.7492   1.8229   2.4618   0.6966   0.00    0.0
2296 259369.999   -721095.6598  -6981075.9407  -3204277.9942   5  21   2.1062   4.5707   2.7496   1.8226   2.4622   0.6963   0.00    0.0
2296 259370.999   -718138.6699  -6978693.6613  -3210127.1048   5  21   2.1060   4.5712   2.7500   1.8224   2.4626   0.6960   0.00    0.0
2296 259371.999   -715179.3445  -6976303.5651  -3215975.0970   5  21   2.1058   4.5717   2.7503   1.8222   2.4630   0.6957   0.00    0.0
2296 259372.999   -712220.5124  -6973907.5978  -3221817.3291   5  21   2.1055   4.5722   2.7507   1.8219   2.4634   0.6954   0.00    0.0
2296 259373.999   -709259.7849  -6971508.4561  -3227657.8220   5  21   2.1053   4.5728   2.7511   1.8217   2.4638   0.6951   0.00    0.0
2296 259374.999   -706298.2190  -6969103.3150  -3233497.1821   5  21   2.1051   4.5733   2.7514   1.8215   2.4642   0.6948   0.00    0.0
2296 259375.999   -703337.6812  -6966692.7431  -3239331.3951   5  21   2.1049   4.5738   2.7518   1.8212   2.4646   0.6945   0.00    0.0
2296 259376.999   -700374.2782  -6964276.9359  -3245164.5048   5  21   2.1046   4.5743   2.7522   1.8210   2.4650   0.6942   0.00    0.0
2296 259377.999   -697409.4545  -6961854.2685  -3250993.6953   5  21   2.1044   4.5749   2.7526   1.8208   2.4654   0.6939   0.00    0.0
2296 259378.999   -694446.0463  -6959425.7036  -3256820.0777   5  21   2.1042   4.5754   2.7529   1.8206   2.4658   0.6936   0.00    0.0
2296 259379.999   -691478.4496  -6956992.3176  -3262643.6532   5  21   2.1040   4.5760   2.7533   1.8203   2.4663   0.6933   0.00    0.0
2296 259380.999   -688511.6386  -6954552.2000  -3268465.4593   5  21   2.1037   4.5765   2.7537   1.8201   2.4667   0.6930   0.00    0.0
2296 259381.999   -685543.9929  -6952107.9543  -3274282.2902   5  21   2.1035   4.5770   2.7541   1.8199   2.4671   0.6927   0.00    0.0
2296 259382.999   -682574.4626  -6949659.3918  -3280100.1265   5  21   2.1033   4.5776   2.7544   1.8197   2.4675   0.6924   0.00    0.0
2296 259383.999   -679605.2467  -6947202.0468  -3285910.8341   5  21   2.1031   4.5781   2.7548   1.8194   2.4679   0.6921   0.00    0.0
2296 259384.999   -676634.2460  -6944742.1819  -3291721.2185   5  21   2.1028   4.5787   2.7552   1.8192   2.4683   0.6918   0.00    0.0
2296 259385.999   -673662.8457  -6942276.3571  -3297528.8652   5  21   2.1026   4.5792   2.7556   1.8190   2.4687   0.6915   0.00    0.0
2296 259386.999   -670690.6328  -6939802.4446  -3303332.3041   5  21   2.1024   4.5798   2.7560   1.8188   2.4692   0.6912   0.00    0.0
2296 259387.999   -667716.2366  -6937323.9707  -3309133.8224   5  21   2.1022   4.5804   2.7564   1.8186   2.4696   0.6909   0.00    0.0
2296 259388.999   -664741.9483  -6934840.7776  -3314931.1198   5  21   2.1019   4.5809   2.7568   1.8183   2.4700   0.6906   0.00    0.0
2296 259389.999   -661766.8984  -6932353.3977  -3320727.0510   5  21   2.1017   4.5815   2.7572   1.8181   2.4704   0.6904   0.00    0.0
2296 259390.999   -658790.6037  -6929860.5128  -3326519.7099   5  21   2.1015   4.5821   2.7576   1.8179   2.4708   0.6901   0.00    0.0
2296 259391.999   -655812.9732  -6927359.2859  -3332310.6553   5  21   2.1013   4.5826   2.7580   1.8177   2.4713   0.6898   0.00    0.0
2296 259392.999   -652835.0982  -6924854.6722  -3338096.5857   5  21   2.1010   4.5832   2.7584   1.8175   2.4717   0.6895   0.00    0.0
2296 259393.999   -649855.9124  -6922343.7853  -3343881.5143   5  21   2.1008   4.5838   2.7588   1.8173   2.4721   0.6892   0.00    0.0
2296 259394.999   -646875.4391  -6919824.3479  -3349660.7814   5  21   2.1006   4.5843   2.7592   1.8171   2.4725   0.6889   0.00    0.0
2296 259395.999   -643895.1619  -6917303.9113  -3355439.0804   5  21   2.1004   4.5849   2.7596   1.8168   2.4730   0.6886   0.00    0.0
2296 259396.999   -640912.5898  -6914775.6830  -3361214.5324   5  21   2.1002   4.5855   2.7600   1.8166   2.4734   0.6883   0.00    0.0
2296 259397.999   -637930.0158  -6912240.8181  -3366985.2551   5  21   2.0999   4.5861   2.7604   1.8164   2.4738   0.6881   0.00    0.0
2296 259398.999   -634945.9781  -6909702.0095  -3372754.4797   5  21   2.0997   4.5867   2.7608   1.8162   2.4743   0.6878   0.00    0.0
2296 259399.999   -631961.7862  -6907160.2690  -3378522.1479   5  21   2.0995   4.5873   2.7612   1.8160   2.4747   0.6875   0.00    0.0
2296 259400.999   -628975.8880  -6904610.1284  -3384285.3152   5  21   2.0993   4.5879   2.7616   1.8158   2.4751   0.6872   0.00    0.0
2296 259401.999   -625989.0043  -6902051.9514  -3390044.5728   5  21   2.0991   4.5885   2.7621   1.8156   2.4756   0.6869   0.00    0.0
2296 259402.999   -623002.2413  -6899493.5892  -3395802.6484   5  21   2.0988   4.5891   2.7625   1.8154   2.4760   0.6866   0.00    0.0
2296 259403.999   -620013.9507  -6896926.9007  -3401556.6244   5  21   2.0986   4.5897   2.7629   1.8152   2.4764   0.6864   0.00    0.0
2296 259404.999   -617024.6913  -6894354.8224  -3407309.0314   5  21   2.0984   4.5903   2.7633   1.8150   2.4769   0.6861   0.00    0.0
2296 259405.999   -614034.0770  -6891778.4424  -3413057.8761   5  21   2.0982   4.5909   2.7637   1.8148   2.4773   0.6858   0.00    0.0
2296 259406.999   -611043.8476  -6889195.9872  -3418804.1557   5  21   2.0980   4.5915   2.7642   1.8146   2.4777   0.6855   0.00    0.0
2296 259407.999   -608051.0674  -6886605.8955  -3424545.6943   5  22   2.0749   4.5525   2.5895   1.7624   2.3577   0.4133   0.00    0.0
2296 259408.999   -605058.4396  -6884012.7036  -3430285.3700   5  22   2.0747   4.5530   2.5899   1.7622   2.3579   0.4127   0.00    0.0
2296 259409.999   -602065.0107  -6881411.9627  -3436022.2200   5  22   2.0745   4.5535   2.5902   1.7619   2.3582   0.4122   0.00    0.0
2296 259410.999   -599070.2940  -6878808.0698  -3441756.0160   5  22   2.0743   4.5540   2.5906   1.7616   2.3585   0.4116   0.00    0.0
2296 259411.999   -596074.9982  -6876195.2248  -3447486.1795   5  22   2.0741   4.5545   2.5909   1.7613   2.3587   0.4110   0.00    0.0
2296 259412.999   -593078.1059  -6873582.0749  -3453215.8888   5  22   2.0738   4.5551   2.5912   1.7611   2.3590   0.4104   0.00    0.0
2296 259413.999   -590080.1553  -6870959.4669  -3458940.6037   5  22   2.0736   4.5556   2.5916   1.7608   2.3593   0.4098   0.00    0.0
2296 259414.999   -587082.3933  -6868333.5191  -3464660.3193   5  22   2.0734   4.5561   2.5919   1.7605   2.3595   0.4093   0.00    0.0
2296 259415.999   -584083.2959  -6865700.5205  -3470380.8582   5  21   2.0744   4.5572   2.7215   1.7617   2.3722   0.4765   0.00    0.0
2296 259416.999   -581083.6740  -6863063.2332  -3476096.7354   5  21   2.0742   4.5577   2.7218   1.7614   2.3725   0.4759   0.00    0.0
2296 259417.999   -578082.8818  -6860420.7730  -3481810.0197   5  21   2.0740   4.5583   2.7222   1.7612   2.3729   0.4754   0.00    0.0
2296 259418.999   -575080.8374  -6857772.3220  -3487519.6420   5  21   2.0738   4.5588   2.7225   1.7609   2.3733   0.4749   0.00    0.0
2296 259419.999   -572077.9480  -6855114.7855  -3493225.6560   5  21   2.0736   4.5594   2.7229   1.7607   2.3736   0.4744   0.00    0.0
2296 259420.999   -569074.7077  -6852455.6062  -3498929.1999   5  21   2.0734   4.5599   2.7232   1.7604   2.3740   0.4738   0.00    0.0
2296 259421.999   -566069.1799  -6849790.9576  -3504629.2542   5  21   2.0731   4.5605   2.7236   1.7602   2.3744   0.4733   0.00    0.0
2296 259422.999   -563064.4362  -6847121.7956  -3510329.0488   5  21   2.0729   4.5611   2.7239   1.7599   2.3747   0.4728   0.00    0.0
2296 259423.999   -560058.2165  -6844445.2407  -3516022.3101   5  21   2.0727   4.5616   2.7243   1.7597   2.3751   0.4722   0.00    0.0
2296 259424.999   -557051.1321  -6841762.1694  -3521713.3828   5  21   2.0725   4.5622   2.7246   1.7594   2.3755   0.4717   0.00    0.0
2296 259425.999   -554043.2547  -6839076.9103  -3527401.3105   5  21   2.0723   4.5627   2.7250   1.7591   2.3758   0.4712   0.00    0.0
2296 259426.999   -551034.4197  -6836383.8108  -3533087.7376   5  21   2.0721   4.5633   2.7253   1.7589   2.3762   0.4706   0.00    0.0
2296 259427.999   -548025.4399  -6833684.8373  -3538769.1256   5  21   2.0719   4.5639   2.7257   1.7586   2.3766   0.4701   0.00    0.0
2296 259428.999   -545014.4751  -6830980.4408  -3544448.9463   5  21   2.0716   4.5644   2.7260   1.7584   2.3769   0.4696   0.00    0.0
2296 259429.999   -542002.2220  -6828273.8434  -3550125.8748   5  21   2.0714   4.5650   2.7264   1.7581   2.3773   0.4690   0.00    0.0
2296 259430.999   -538990.8032  -6825559.1862  -3555799.1358   5  21   2.0712   4.5656   2.7267   1.7579   2.3777   0.4685   0.00    0.0
2296 259431.999   -535977.5949  -6822840.9122  -3561469.8872   5  21   2.0710   4.5662   2.7271   1.7576   2.3781   0.4680   0.00    0.0
2296 259432.999   -532962.7796  -6820111.4315  -3567136.1396   5  21   2.0708   4.5668   2.7275   1.7574   2.3784   0.4674   0.00    0.0
2296 259433.999   -529948.1643  -6817383.1654  -3572800.3861   5  21   2.0706   4.5673   2.7278   1.7572   2.3788   0.4669   0.00    0.0
2296 259434.999   -526932.0597  -6814645.7526  -3578459.6275   5  21   2.0704   4.5679   2.7282   1.7569   2.3792   0.4663   0.00    0.0
2296 259435.999   -523915.7113  -6811904.3747  -3584116.6628   5  21   2.0702   4.5685   2.7285   1.7567   2.3795   0.4658   0.00    0.0
2296 259436.999   -520899.0031  -6809158.1800  -3589772.4203   5  21   2.0699   4.5691   2.7289   1.7564   2.3799   0.4653   0.00    0.0
2296 259437.999   -517880.2116  -6806405.6925  -3595423.4264   5  21   2.0697   4.5697   2.7293   1.7562   2.3803   0.4647   0.00    0.0
2296 259438.999   -514861.0264  -6803647.2696  -3601071.5741   5  21   2.0695   4.5703   2.7297   1.7559   2.3807   0.4642   0.00    0.0
2296 259439.999   -511840.2898  -6800883.5438  -3606717.6629   5  21   2.0693   4.5709   2.7300   1.7557   2.3810   0.4636   0.00    0.0
2296 259440.999   -508820.8859  -6798117.3389  -3612360.7776   5  21   2.0691   4.5715   2.7304   1.7554   2.3814   0.4631   0.00    0.0
2296 259441.999   -505798.9179  -6795342.0579  -3617997.6962   5  21   2.0689   4.5721   2.7308   1.7552   2.3818   0.4625   0.00    0.0
2296 259442.999   -502776.1170  -6792560.2215  -3623632.7447   5  21   2.0687   4.5727   2.7311   1.7550   2.3822   0.4620   0.00    0.0
2296 259443.999   -499752.5451  -6789777.5953  -3629267.7193   5  21   2.0685   4.5733   2.7315   1.7547   2.3825   0.4614   0.00    0.0
2296 259444.999   -496728.9800  -6786985.1557  -3634895.9856   5  21   2.0683   4.5739   2.7319   1.7545   2.3829   0.4609   0.00    0.0
2296 259445.999   -493703.9191  -6784190.6920  -3640522.5705   5  21   2.0680   4.5745   2.7323   1.7543   2.3833   0.4603   0.00    0.0
2296 259446.999   -490678.7186  -6781389.6571  -3646146.4071   5  21   2.0678   4.5752   2.7326   1.7540   2.3837   0.4598   0.00    0.0
2296 259447.999   -487652.2202  -6778583.0967  -3651765.9159   5  21   2.0676   4.5758   2.7330   1.7538   2.3841   0.4592   0.00    0.0
2296 259448.999   -484623.9907  -6775770.6996  -3657382.2736   5  21   2.0674   4.5764   2.7334   1.7535   2.3844   0.4587   0.00    0.0
2296 259449.999   -481595.1237  -6772953.3196  -3662995.7960   5  21   2.0672   4.5770   2.7338   1.7533   2.3848   0.4581   0.00    0.0
2296 259450.999   -478566.4401  -6770129.8029  -3668608.0227   5  21   2.0670   4.5777   2.7342   1.7531   2.3852   0.4576   0.00    0.0
2296 259451.999   -475536.3804  -6767300.7483  -3674213.6989   5  21   2.0668   4.5783   2.7346   1.7528   2.3856   0.4570   0.00    0.0
2296 259452.999   -472505.2020  -6764466.7599  -3679817.5872   5  21   2.0666   4.5789   2.7350   1.7526   2.3859   0.4565   0.00    0.0
2296 259453.999   -469473.2588  -6761629.6077  -3685419.7231   5  21   2.0664   4.5795   2.7353   1.7524   2.3863   0.4559   0.00    0.0
2296 259454.999   -466441.8714  -6758783.9388  -3691014.0507   5  21   2.0662   4.5802   2.7357   1.7521   2.3867   0.4553   0.00    0.0
2296 259455.999   -463407.3234  -6755933.9735  -3696611.0626   5  22   1.9785   4.5756   2.6610   1.7886   2.3578   0.7653   0.00    0.0
2296 259456.999   -460374.9257  -6753079.2036  -3702201.8417   5  22   1.9784   4.5762   2.6613   1.7884   2.3581   0.7649   0.00    0.0
2296 259457.999   -457340.1956  -6750218.0113  -3707789.9593   5  22   1.9784   4.5768   2.6616   1.7883   2.3583   0.7646   0.00    0.0
2296 259458.999   -454304.1256  -6747350.9225  -3713374.9825   5  22   1.9783   4.5774   2.6618   1.7882   2.3586   0.7642   0.00    0.0
2296 259459.999   -451267.4288  -6744479.9655  -3718955.9468   5  22   1.9783   4.5781   2.6621   1.7880   2.3589   0.7638   0.00    0.0
2296 259460.999   -448228.9492  -6741602.7153  -3724534.8746   5  22   1.9782   4.5787   2.6624   1.7879   2.3591   0.7634   0.00    0.0
2296 259461.999   -445191.4145  -6738722.4366  -3730110.9852   5  22   1.9782   4.5793   2.6627   1.7878   2.3594   0.7630   0.00    0.0
2296 259462.999   -442153.2629  -6735834.1903  -3735682.5522   5  22   1.9782   4.5799   2.6630   1.7877   2.3596   0.7627   0.00    0.0
2296 259463.999   -439112.8286  -6732941.6887  -3741250.5882   5  22   1.9781   4.5805   2.6633   1.7875   2.3599   0.7623   0.00    0.0
2296 259464.999   -436072.7796  -6730045.6229  -3746816.6326   5  22   1.9781   4.5812   2.6636   1.7874   2.3602   0.7619   0.00    0.0
2296 259465.999   -433031.6312  -6727139.2799  -3752377.8343   5  22   1.9780   4.5818   2.6639   1.7873   2.3604   0.7615   0.00    0.0
2296 259466.999   -429989.1451  -6724229.0867  -3757935.1111   5  22   1.9780   4.5824   2.6642   1.7871   2.3607   0.7611   0.00    0.0
2296 259467.999   -426945.3582  -6721317.0479  -3763492.2165   5  22   1.9780   4.5830   2.6645   1.7870   2.3610   0.7607   0.00    0.0
2296 259468.999   -423902.0866  -6718397.2814  -3769045.8899   5  22   1.9779   4.5837   2.6648   1.7869   2.3612   0.7603   0.00    0.0
2296 259469.999   -420857.4301  -6715471.4946  -3774594.9577   5  22   1.9779   4.5843   2.6651   1.7867   2.3615   0.7599   0.00    0.0
2296 259470.999   -417812.1153  -6712543.1027  -3780140.4467   5  22   1.9778   4.5850   2.6654   1.7866   2.3618   0.7595   0.00    0.0
2296 259471.999   -414766.3319  -6709607.1540  -3785682.8262   5  22   1.9778   4.5856   2.6657   1.7865   2.3620   0.7591   0.00    0.0
2296 259472.999   -411719.4664  -6706664.5216  -3791221.8554   5  22   1.9778   4.5862   2.6660   1.7864   2.3623   0.7587   0.00    0.0
2296 259473.999   -408671.3926  -6703719.1412  -3796757.9888   5  22   1.9777   4.5869   2.6663   1.7862   2.3626   0.7583   0.00    0.0
2296 259474.999   -405622.1840  -6700766.0379  -3802290.7760   5  22   1.9777   4.5875   2.6667   1.7861   2.3629   0.7579   0.00    0.0
2296 259475.999   -402573.4810  -6697808.0931  -3807819.4146   5  22   1.9776   4.5882   2.6670   1.7860   2.3631   0.7575   0.00    0.0
2296 259476.999   -399524.8176  -6694846.6233  -3813346.3099   5  22   1.9776   4.5888   2.6673   1.7859   2.3634   0.7571   0.00    0.0
2296 259477.999   -396472.7910  -6691878.9884  -3818869.7743   5  22   1.9776   4.5895   2.6676   1.7857   2.3637   0.7567   0.00    0.0
2296 259478.999   -393421.9152  -6688905.3023  -3824388.3678   5  22   1.9775   4.5902   2.6679   1.7856   2.3639   0.7563   0.00    0.0
2296 259479.999   -390368.8123  -6685926.1929  -3829904.1819   5  22   1.9775   4.5908   2.6683   1.7855   2.3642   0.7559   0.00    0.0
2296 259480.999   -387315.8861  -6682944.3444  -3835417.3206   5  22   1.9775   4.5915   2.6686   1.7854   2.3645   0.7555   0.00    0.0
2296 259481.999   -384261.8838  -6679954.3686  -3840928.0774   5  22   1.9774   4.5922   2.6689   1.7852   2.3648   0.7551   0.00    0.0
2296 259482.999   -381207.8069  -6676960.0800  -3846433.9021   5  22   1.9774   4.5928   2.6692   1.7851   2.3650   0.7547   0.00    0.0
2296 259483.999   -378152.2996  -6673959.4817  -3851934.2388   5  22   1.9773   4.5935   2.6696   1.7850   2.3653   0.7543   0.00    0.0
2296 259484.999   -375094.8397  -6670955.6172  -3857436.5918   5  22   1.9773   4.5942   2.6699   1.7849   2.3656   0.7539   0.00    0.0
2296 259485.999   -372039.2101  -6667944.6397  -3862931.0646   5  22   1.9773   4.5948   2.6702   1.7847   2.3659   0.7535   0.00    0.0
2296 259486.999   -368980.9233  -6664929.3828  -3868424.2625   5  22   1.9772   4.5955   2.6706   1.7846   2.3661   0.7530   0.00    0.0
2296 259487.999   -365922.1763  -6661909.3265  -3873914.1876   5  22   1.9772   4.5962   2.6709   1.7845   2.3664   0.7526   0.00    0.0
2296 259488.999   -362864.3402  -6658881.9023  -3879399.1859   5  22   1.9772   4.5969   2.6712   1.7844   2.3667   0.7522   0.00    0.0
2296 259489.999   -359803.5760  -6655852.5718  -3884882.9089   5  22   1.9771   4.5976   2.6716   1.7843   2.3670   0.7518   0.00    0.0
2296 259490.999   -356743.1189  -6652815.6085  -3890361.6056   5  22   1.9771   4.5983   2.6719   1.7841   2.3673   0.7514   0.00    0.0
2296 259491.999   -353682.5178  -6649773.2738  -3895837.8611   5  22   1.9771   4.5989   2.6723   1.7840   2.3675   0.7510   0.00    0.0
2296 259492.999   -350618.4002  -6646724.4725  -3901309.8793   5  22   1.9770   4.5996   2.6726   1.7839   2.3678   0.7505   0.00    0.0
2296 259493.999   -347555.8745  -6643669.9403  -3906779.3343   5  22   1.9770   4.6003   2.6730   1.7838   2.3681   0.7501   0.00    0.0
2296 259494.999   -344491.8590  -6640613.1480  -3912244.8264   5  22   1.9770   4.6010   2.6733   1.7837   2.3684   0.7497   0.00    0.0
2296 259495.999   -341427.7732  -6637551.7284  -3917708.2478   5  22   1.9769   4.6017   2.6737   1.7835   2.3687   0.7493   0.00    0.0
2296 259496.999   -338362.4012  -6634481.7050  -3923165.9397   5  22   1.9769   4.6024   2.6740   1.7834   2.3690   0.7488   0.00    0.0
2296 259497.999   -335297.2286  -6631408.3473  -3928620.9058   5  22   1.9769   4.6031   2.6744   1.7833   2.3692   0.7484   0.00    0.0
2296 259498.999   -332230.4711  -6628328.7814  -3934073.7592   5  22   1.9768   4.6038   2.6747   1.7832   2.3695   0.7480   0.00    0.0
2296 259499.999   -329162.7489  -6625245.5117  -3939523.0040   5  22   1.9768   4.6046   2.6751   1.7831   2.3698   0.7475   0.00    0.0
2296 259500.999   -326095.1390  -6622155.9572  -3944967.6220   5  22   1.9768   4.6053   2.6754   1.7830   2.3701   0.7471   0.00    0.0
2296 259501.999   -323025.7218  -6619062.5927  -3950411.0190   5  22   1.9767   4.6060   2.6758   1.7828   2.3704   0.7467   0.00    0.0
2296 259502.999   -319956.0143  -6615960.7449  -3955849.3571   5  22   1.9767   4.6067   2.6762   1.7827   2.3707   0.7462   0.00    0.0
2296 259503.999   -316886.1521  -6612856.9601  -3961284.2535   5  22   1.9767   4.6074   2.6765   1.7826   2.3710   0.7458   0.00    0.0
2296 259504.999   -313814.7300  -6609746.2771  -3966715.4254   5  22   1.9766   4.6081   2.6769   1.7825   2.3712   0.7453   0.00    0.0
2296 259505.999   -310743.7623  -6606628.7458  -3972143.0620   5  22   1.9766   4.6089   2.6773   1.7824   2.3715   0.7449   0.00    0.0
2296 259506.999   -307671.3393  -6603508.4285  -3977568.7341   5  22   1.9766   4.6096   2.6776   1.7823   2.3718   0.7445   0.00    0.0
2296 259507.999   -304598.6375  -6600381.1707  -3982988.5386   5  22   1.9765   4.6103   2.6780   1.7821   2.3721   0.7440   0.00    0.0
2296 259508.999   -301523.2771  -6597248.8332  -3988406.5221   5  22   1.9765   4.6111   2.6784   1.7820   2.3724   0.7436   0.00    0.0
2296 259509.999   -298449.2007  -6594110.8543  -3993820.8475   5  22   1.9765   4.6118   2.6788   1.7819   2.3727   0.7431   0.00    0.0
2296 259510.999   -295373.4021  -6590970.4251  -3999232.7619   5  22   1.9765   4.6125   2.6791   1.7818   2.3730   0.7427   0.00    0.0
2296 259511.999   -292296.7940  -6587822.0311  -4004639.0623   5  22   1.9764   4.6133   2.6795   1.7817   2.3733   0.7422   0.00    0.0
2296 259512.999   -289220.8857  -6584671.7049  -4010044.2556   5  22   1.9764   4.6140   2.6799   1.7816   2.3736   0.7418   0.00    0.0
2296 259513.999   -286142.6484  -6581512.7527  -4015444.4702   5  22   1.9764   4.6148   2.6803   1.7815   2.3739   0.7413   0.00    0.0
2296 259514.999   -283064.5073  -6578348.8591  -4020841.3017   5  22   1.9763   4.6155   2.6807   1.7814   2.3742   0.7409   0.00    0.0
2296 259515.999   -279985.6092  -6575181.8271  -4026234.8126   5  22   1.9763   4.6163   2.6811   1.7813   2.3745   0.7404   0.00    0.0
2296 259516.999   -276905.8380  -6572007.8594  -4031623.7853   5  22   1.9763   4.6170   2.6814   1.7811   2.3748   0.7400   0.00    0.0
2296 259517.999   -273825.9274  -6568829.8619  -4037012.5428   5  22   1.9763   4.6178   2.6818   1.7810   2.3751   0.7395   0.00    0.0
2296 259518.999   -270745.8770  -6565646.4356  -4042394.7765   5  22   1.9762   4.6185   2.6822   1.7809   2.3754   0.7390   0.00    0.0
2296 259519.999   -267663.0829  -6562455.8867  -4047774.0644   5  22   1.9762   4.6193   2.6826   1.7808   2.3757   0.7386   0.00    0.0
2296 259520.999   -264580.9415  -6559260.2405  -4053147.2796   5  22   1.9762   4.6201   2.6830   1.7807   2.3760   0.7381   0.00    0.0
2296 259521.999   -261497.6996  -6556064.2605  -4058522.9612   5  22   1.9761   4.6208   2.6834   1.7806   2.3763   0.7377   0.00    0.0
2296 259522.999   -258414.4686  -6552856.7805  -4063890.6905   5  22   1.9761   4.6216   2.6838   1.7805   2.3766   0.7372   0.00    0.0
2296 259523.999   -255328.0134  -6549646.1106  -4069256.5843   5  22   1.9761   4.6224   2.6842   1.7804   2.3769   0.7367   0.00    0.0
2296 259524.999   -252244.0388  -6546431.6616  -4074617.3316   5  22   1.9761   4.6231   2.6846   1.7803   2.3772   0.7363   0.00    0.0
2296 259525.999   -249157.5241  -6543211.3540  -4079976.6052   5  22   1.9760   4.6239   2.6850   1.7802   2.3775   0.7358   0.00    0.0
2296 259526.999   -246072.5086  -6539985.3679  -4085330.6296   5  22   1.9760   4.6247   2.6855   1.7801   2.3778   0.7353   0.00    0.0
2296 259527.999   -242984.2205  -6536755.1920  -4090683.1688   5  22   1.9760   4.6255   2.6859   1.7800   2.3781   0.7348   0.00    0.0
2296 259528.999   -239896.2933  -6533517.7376  -4096028.3465   5  22   1.9760   4.6263   2.6863   1.7799   2.3784   0.7344   0.00    0.0
2296 259529.999   -236807.5421  -6530277.1564  -4101373.5526   5  22   1.9760   4.6270   2.6867   1.7797   2.3787   0.7339   0.00    0.0
2296 259530.999   -233718.8570  -6527030.0449  -4106712.5553   5  22   1.9759   4.6278   2.6871   1.7796   2.3791   0.7334   0.00    0.0
2296 259531.999   -230627.5631  -6523780.7920  -4112053.8748   5  22   1.9759   4.6286   2.6875   1.7795   2.3794   0.7329   0.00    0.0
2296 259532.999   -227537.4132  -6520522.6593  -4117385.3956   5  22   1.9759   4.6294   2.6880   1.7794   2.3797   0.7324   0.00    0.0
2296 259533.999   -224445.4708  -6517261.4401  -4122715.5752   5  22   1.9759   4.6302   2.6884   1.7793   2.3800   0.7320   0.00    0.0
2296 259534.999   -221354.0590  -6513993.8489  -4128039.7786   5  22   1.9758   4.6310   2.6888   1.7792   2.3803   0.7315   0.00    0.0
2296 259535.999   -218261.4006  -6510719.5673  -4133363.0791   5  22   1.9758   4.6318   2.6892   1.7791   2.3806   0.7310   0.00    0.0
2296 259536.999   -215168.5266  -6507446.2798  -4138684.3239   5  22   1.9758   4.6326   2.6897   1.7790   2.3809   0.7305   0.00    0.0
2296 259537.999   -212074.6984  -6504161.0943  -4143998.1895   5  22   1.9758   4.6334   2.6901   1.7789   2.3813   0.7300   0.00    0.0
2296 259538.999   -208980.1490  -6500874.0157  -4149309.4979   5  22   1.9758   4.6342   2.6906   1.7788   2.3816   0.7295   0.00    0.0
2296 259539.999   -205884.2684  -6497582.7475  -4154619.1946   5  22   1.9757   4.6351   2.6910   1.7787   2.3819   0.7290   0.00    0.0
2296 259540.999   -202788.3901  -6494283.7327  -4159923.8248   5  22   1.9757   4.6359   2.6914   1.7786   2.3822   0.7285   0.00    0.0
2296 259541.999   -199692.5551  -6490980.9173  -4165225.0880   5  22   1.9757   4.6367   2.6919   1.7785   2.3825   0.7280   0.00    0.0
2296 259542.999   -196594.6746  -6487671.7459  -4170520.9286   5  22   1.9757   4.6375   2.6923   1.7784   2.3829   0.7275   0.00    0.0
2296 259543.999   -193497.6004  -6484358.6347  -4175814.9311   5  22   1.9757   4.6383   2.6928   1.7783   2.3832   0.7270   0.00    0.0
2296 259544.999   -190398.2616  -6481040.3889  -4181106.4559   5  22   1.9756   4.6392   2.6932   1.7782   2.3835   0.7265   0.00    0.0
2296 259545.999   -187298.7603  -6477716.5110  -4186391.9131   5  22   1.9756   4.6400   2.6937   1.7781   2.3838   0.7260   0.00    0.0
2296 259546.999   -184199.0753  -6474387.6427  -4191675.5318   5  22   1.9756   4.6408   2.6941   1.7780   2.3842   0.7255   0.00    0.0
2296 259547.999   -181097.7280  -6471052.3337  -4196954.7645   5  22   1.9756   4.6417   2.6946   1.7779   2.3845   0.7250   0.00    0.0
2296 259548.999   -177997.5755  -6467714.0177  -4202228.6982   5  22   1.9756   4.6425   2.6950   1.7778   2.3848   0.7245   0.00    0.0
2296 259549.999   -174895.6722  -6464369.9784  -4207501.8504   5  22   1.9756   4.6433   2.6955   1.7777   2.3852   0.7240   0.00    0.0
2296 259550.999   -171793.7977  -6461020.0244  -4212770.1411   5  22   1.9755   4.6442   2.6960   1.7776   2.3855   0.7235   0.00    0.0
2296 259551.999   -168690.1580  -6457666.6836  -4218035.5755   5  22   1.9755   4.6450   2.6964   1.7775   2.3858   0.7229   0.00    0.0
2296 259552.999   -165587.2575  -6454306.9828  -4223296.7198   5  22   1.9755   4.6459   2.6969   1.7774   2.3862   0.7224   0.00    0.0
2296 259553.999   -162482.1183  -6450942.0848  -4228554.0757   5  22   1.9755   4.6467   2.6974   1.7773   2.3865   0.7219   0.00    0.0
2296 259554.999   -159376.3683  -6447573.0970  -4233807.6822   5  22   1.9755   4.6476   2.6979   1.7772   2.3868   0.7214   0.00    0.0
2296 259555.999   -156271.9311  -6444198.3771  -4239059.3475   5  22   1.9755   4.6484   2.6983   1.7772   2.3872   0.7208   0.00    0.0
2296 259556.999   -153165.5404  -6440815.8540  -4244304.3292   5  22   1.9755   4.6493   2.6988   1.7771   2.3875   0.7203   0.00    0.0
2296 259557.999   -150059.2251  -6437431.7718  -4249546.2224   5  22   1.9754   4.6501   2.6993   1.7770   2.3879   0.7198   0.00    0.0
2296 259558.999   -146950.4626  -6434041.4950  -4254786.7639   5  22   1.9754   4.6510   2.6998   1.7769   2.3882   0.7192   0.00    0.0
2296 259559.999   -143842.3063  -6430648.0259  -4260021.5135   5  22   1.9754   4.6519   2.7003   1.7768   2.3886   0.7187   0.00    0.0
2296 259560.999   -140733.0975  -6427244.4836  -4265251.2232   5  22   1.9754   4.6527   2.7008   1.7767   2.3889   0.7182   0.00    0.0
2296 259561.999   -137623.4030  -6423839.8914  -4270483.0195   5  22   1.9754   4.6536   2.7013   1.7766   2.3892   0.7176   0.00    0.0
2296 259562.999   -134514.8764  -6420428.2577  -4275704.6837   5  22   1.9754   4.6545   2.7018   1.7765   2.3896   0.7171   0.00    0.0
2296 259563.999   -131403.4417  -6417012.6465  -4280925.3908   5  22   1.9754   4.6554   2.7023   1.7764   2.3899   0.7165   0.00    0.0
2296 259564.999   -128292.8861  -6413593.7638  -4286142.9504   5  22   1.9754   4.6563   2.7028   1.7763   2.3903   0.7160   0.00    0.0
2296 259565.999   -125182.7778  -6410168.4725  -4291356.0903   5  22   1.9754   4.6571   2.7033   1.7762   2.3906   0.7155   0.00    0.0
2296 259566.999   -122069.6091  -6406735.9908  -4296564.1907   5  22   1.9754   4.6580   2.7038   1.7761   2.3910   0.7149   0.00    0.0
2296 259567.999   -118956.0011  -6403301.4258  -4301772.5750   5  22   1.9753   4.6589   2.7043   1.7760   2.3914   0.7143   0.00    0.0
2296 259568.999   -115841.9311  -6399858.8545  -4306972.4495   5  22   1.9753   4.6598   2.7048   1.7759   2.3917   0.7138   0.00    0.0
2296 259569.999   -112727.4851  -6396412.0336  -4312171.2726   5  22   1.9753   4.6607   2.7053   1.7758   2.3921   0.7132   0.00    0.0
2296 259570.999   -109612.5871  -6392960.1573  -4317365.2675   5  22   1.9753   4.6616   2.7058   1.7758   2.3924   0.7127   0.00    0.0
2296 259571.999   -106497.8887  -6389503.9862  -4322556.0989   5  22   1.9753   4.6625   2.7064   1.7757   2.3928   0.7121   0.00    0.0
2296 259572.999   -103381.8112  -6386044.2889  -4327742.0099   5  22   1.9753   4.6634   2.7069   1.7756   2.3932   0.7115   0.00    0.0
2296 259573.999   -100265.6094  -6382575.7704  -4332923.8712   5  22   1.9753   4.6643   2.7074   1.7755   2.3935   0.7110   0.00    0.0
2296 259574.999    -97147.7216  -6379104.9030  -4338105.6777   5  22   1.9753   4.6652   2.7079   1.7754   2.3939   0.7104   0.00    0.0
2296 259575.999    -94029.9167  -6375629.0822  -4343280.9517   5  22   1.9753   4.6661   2.7085   1.7753   2.3943   0.7098   0.00    0.0
2296 259576.999    -90910.5328  -6372146.9452  -4348452.1243   5  22   1.9753   4.6670   2.7090   1.7752   2.3946   0.7092   0.00    0.0
2296 259577.999    -87792.3995  -6368659.0966  -4353620.3006   5  22   1.9753   4.6680   2.7096   1.7751   2.3950   0.7087   0.00    0.0
2296 259578.999    -84673.6669  -6365169.7432  -4358784.2550   5  22   1.9753   4.6689   2.7101   1.7750   2.3954   0.7081   0.00    0.0
2296 259579.999    -81553.3726  -6361674.0905  -4363945.7815   5  22   1.9753   4.6698   2.7107   1.7749   2.3958   0.7075   0.00    0.0
2296 259580.999    -78432.3541  -6358170.4140  -4369101.1940   5  22   1.9753   4.6707   2.7112   1.7749   2.3962   0.7069   0.00    0.0
2296 259581.999    -75310.3000  -6354664.4092  -4374254.8409   5  22   1.9753   4.6717   2.7118   1.7748   2.3965   0.7063   0.00    0.0
2296 259582.999    -72189.6104  -6351151.8316  -4379403.9650   5  22   1.9753   4.6726   2.7123   1.7747   2.3969   0.7057   0.00    0.0
2296 259583.999    -69067.2169  -6347636.2457  -4384548.6013   5  22   1.9753   4.6735   2.7129   1.7746   2.3973   0.7051   0.00    0.0
2296 259584.999    -65943.8980  -6344114.7313  -4389691.0275   5  22   1.9753   4.6745   2.7135   1.7745   2.3977   0.7045   0.00    0.0
2296 259585.999    -62820.4171  -6340586.1531  -4394827.9185   5  22   1.9753   4.6754   2.7140   1.7744   2.3981   0.7039   0.00    0.0
2296 259586.999    -59695.8972  -6337053.8885  -4399962.0045   5  22   1.9753   4.6764   2.7146   1.7743   2.3985   0.7033   0.00    0.0
2296 259587.999    -56571.4579  -6333517.4030  -4405092.3137   5  22   1.9753   4.6773   2.7152   1.7742   2.3989   0.7027   0.00    0.0
2296 259588.999    -53447.3025  -6329976.5360  -4410218.5257   5  22   1.9753   4.6783   2.7158   1.7741   2.3993   0.7020   0.00    0.0
2296 259589.999    -50320.3206  -6326430.2665  -4415341.5148   5  22   1.9753   4.6792   2.7163   1.7741   2.3997   0.7014   0.00    0.0
2296 259590.999    -47193.4930  -6322878.9451  -4420460.1799   5  22   1.9753   4.6802   2.7169   1.7740   2.4001   0.7008   0.00    0.0
2296 259591.999    -44067.2923  -6319322.0519  -4425574.7479   5  22   1.9753   4.6811   2.7175   1.7739   2.4005   0.7002   0.00    0.0
2296 259592.999    -40938.6133  -6315758.5260  -4430686.2644   5  22   1.9753   4.6821   2.7181   1.7738   2.4009   0.6995   0.00    0.0
2296 259593.999    -37810.7470  -6312193.5696  -4435793.8567   5  22   1.9753   4.6831   2.7187   1.7737   2.4013   0.6989   0.00    0.0
2296 259594.999    -34682.6497  -6308620.4341  -4440895.0706   5  22   1.9754   4.6840   2.7193   1.7736   2.4017   0.6983   0.00    0.0
2296 259595.999    -31553.6808  -6305042.6456  -4445994.6201   5  22   1.9754   4.6850   2.7199   1.7735   2.4021   0.6976   0.00    0.0
2296 259596.999    -28424.5901  -6301461.8964  -4451090.5150   5  22   1.9754   4.6860   2.7206   1.7734   2.4025   0.6970   0.00    0.0
2296 259597.999    -25293.2737  -6297872.8811  -4456182.6803   5  22   1.9754   4.6870   2.7212   1.7733   2.4030   0.6963   0.00    0.0
2296 259598.999    -22162.1310  -6294283.2372  -4461270.0384   5  22   1.9754   4.6880   2.7218   1.7733   2.4034   0.6957   0.00    0.0
2296 259599.999    -19031.1782  -6290686.6962  -4466354.1126   5  22   1.9754   4.6890   2.7224   1.7732   2.4038   0.6950   0.00    0.0
2296 259600.999    -15899.0843  -6287083.6340  -4471433.7117   5  22   1.9754   4.6899   2.7231   1.7731   2.4042   0.6943   0.00    0.0
2296 259601.999    -12767.3474  -6283477.7162  -4476510.6171   5  22   1.9754   4.6909   2.7237   1.7730   2.4047   0.6937   0.00    0.0
2296 259602.999     -9634.2516  -6279866.9530  -4481583.4496   5  22   1.9755   4.6919   2.7243   1.7729   2.4051   0.6930   0.00    0.0
2296 259603.999     -6501.3982  -6276249.2834  -4486650.6511   5  22   1.9755   4.6929   2.7250   1.7728   2.4055   0.6923   0.00    0.0
2296 259604.999     -3365.8589  -6272629.2446  -4491715.7242   5  22   1.9755   4.6939   2.7256   1.7727   2.4060   0.6917   0.00    0.0
2296 259605.999      -232.2627  -6269001.6240  -4496775.8683   5  22   1.9755   4.6949   2.7261   1.7727   2.4063   0.6912   0.00    0.0
2296 259606.999      2903.2810  -6265370.5182  -4501832.8939   5  22   1.9755   4.6959   2.7265   1.7727   2.4066   0.6908   0.00    0.0
2296 259607.999      6038.2791  -6261732.6962  -4506884.1451   5  22   1.9754   4.6968   2.7270   1.7726   2.4069   0.6903   0.00    0.0
2296 259608.999      9175.5381  -6258092.3299  -4511933.3948   5  22   1.9754   4.6978   2.7275   1.7726   2.4072   0.6899   0.00    0.0
2296 259609.999     12311.7054  -6254445.1318  -4516978.2787   5  22   1.9754   4.6988   2.7280   1.7726   2.4075   0.6894   0.00    0.0
2296 259610.999     15449.2358  -6250795.5923  -4522021.4111   5  22   1.9754   4.6997   2.7285   1.7726   2.4078   0.6890   0.00    0.0
2296 259611.999     18586.2420  -6247139.1213  -4527057.1410   5  22   1.9754   4.7007   2.7290   1.7726   2.4081   0.6885   0.00    0.0
2296 259612.999     21724.5324  -6243477.6259  -4532089.9189   5  22   1.9754   4.7017   2.7294   1.7725   2.4084   0.6880   0.00    0.0
2296 259613.999     24863.3836  -6239811.0412  -4537118.8373   5  22   1.9754   4.7027   2.7299   1.7725   2.4087   0.6876   0.00    0.0
2296 259614.999     28003.1610  -6236139.6469  -4542144.3717   5  22   1.9754   4.7036   2.7304   1.7725   2.4090   0.6871   0.00    0.0
2296 259615.999     31142.7785  -6232463.3734  -4547166.0699   5  22   1.9754   4.7046   2.7309   1.7725   2.4093   0.6867   0.00    0.0
2296 259616.999     34282.9961  -6228783.0755  -4552182.8725   5  22   1.9754   4.7056   2.7314   1.7725   2.4097   0.6862   0.00    0.0
2296 259617.999     37423.7540  -6225097.0223  -4557196.9978   5  22   1.9754   4.7066   2.7319   1.7724   2.4100   0.6857   0.00    0.0
2296 259618.999     40565.6492  -6221407.5803  -4562206.2392   5  22   1.9754   4.7076   2.7324   1.7724   2.4103   0.6853   0.00    0.0
2296 259619.999     43707.5008  -6217710.1144  -4567211.8078   5  22   1.9754   4.7086   2.7329   1.7724   2.4106   0.6848   0.00    0.0
2296 259620.999     46849.5685  -6214010.6570  -4572212.7438   5  22   1.9754   4.7096   2.7334   1.7724   2.4109   0.6843   0.00    0.0
2296 259621.999     49992.4568  -6210304.3477  -4577210.3828   5  22   1.9754   4.7106   2.7340   1.7724   2.4113   0.6838   0.00    0.0
2296 259622.999     53135.4382  -6206594.9646  -4582203.8103   5  22   1.9754   4.7116   2.7345   1.7724   2.4116   0.6834   0.00    0.0
2296 259623.999     56279.6804  -6202880.2536  -4587193.8696   5  22   1.9754   4.7126   2.7350   1.7723   2.4119   0.6829   0.00    0.0
2296 259624.999     59422.9989  -6199159.4281  -4592177.7939   5  22   1.9754   4.7136   2.7355   1.7723   2.4122   0.6824   0.00    0.0
2296 259625.999     62568.1928  -6195436.1858  -4597161.8285   5  22   1.9754   4.7146   2.7360   1.7723   2.4126   0.6819   0.00    0.0
2296 259626.999     65713.5240  -6191707.4609  -4602139.4950   5  22   1.9754   4.7156   2.7366   1.7723   2.4129   0.6815   0.00    0.0
2296 259627.999     68859.5844  -6187971.8799  -4607113.9279   5  22   1.9754   4.7167   2.7371   1.7723   2.4132   0.6810   0.00    0.0
2296 259628.999     72005.8626  -6184230.0839  -4612082.8277   5  22   1.9754   4.7177   2.7376   1.7723   2.4136   0.6805   0.00    0.0
2296 259629.999     75152.2112  -6180487.7885  -4617048.9187   5  22   1.9754   4.7187   2.7382   1.7723   2.4139   0.6800   0.00    0.0
2296 259630.999     78298.7828  -6176738.3022  -4622008.7840   5  22   1.9754   4.7197   2.7387   1.7723   2.4142   0.6795   0.00    0.0
2296 259631.999     81447.8600  -6172983.3872  -4626967.8663   5  22   1.9754   4.7208   2.7392   1.7722   2.4146   0.6790   0.00    0.0
2296 259632.999     84596.1853  -6169224.2614  -4631920.8696   5  22   1.9754   4.7218   2.7398   1.7722   2.4149   0.6785   0.00    0.0
2296 259633.999     87744.0479  -6165457.0944  -4636868.7289   5  22   1.9754   4.7228   2.7403   1.7722   2.4152   0.6780   0.00    0.0
2296 259634.999     90894.1963  -6161690.8557  -4641816.0455   5  22   1.9754   4.7239   2.7409   1.7722   2.4156   0.6775   0.00    0.0
2296 259635.999     94042.6601  -6157917.5710  -4646757.9244   5  22   1.9754   4.7249   2.7414   1.7722   2.4159   0.6770   0.00    0.0
2296 259636.999     97192.0062  -6154138.9674  -4651695.0914   5  22   1.9754   4.7260   2.7420   1.7722   2.4163   0.6765   0.00    0.0
2296 259637.999    100343.8740  -6150355.0962  -4656629.3073   5  22   1.9754   4.7270   2.7426   1.7722   2.4166   0.6760   0.00    0.0
2296 259638.999    103494.3779  -6146566.5661  -4661556.4417   5  22   1.9754   4.7281   2.7431   1.7722   2.4170   0.6755   0.00    0.0
2296 259639.999    106646.1677  -6142776.1100  -4666484.7248   5  22   1.9754   4.7291   2.7437   1.7722   2.4173   0.6750   0.00    0.0
2296 259640.999    109797.6816  -6138978.0175  -4671405.7859   5  22   1.9754   4.7302   2.7443   1.7722   2.4177   0.6745   0.00    0.0
2296 259641.999    112951.2155  -6135177.0709  -4676324.6974   5  22   1.9754   4.7312   2.7448   1.7722   2.4180   0.6740   0.00    0.0
2296 259642.999    116103.3727  -6131367.4675  -4681236.0866   5  22   1.9755   4.7323   2.7454   1.7722   2.4184   0.6735   0.00    0.0
2296 259643.999    119256.3978  -6127553.4100  -4686144.0950   5  22   1.9755   4.7334   2.7460   1.7722   2.4188   0.6730   0.00    0.0
2296 259644.999    122410.1035  -6123738.0395  -4691050.6192   5  22   1.9755   4.7344   2.7466   1.7722   2.4191   0.6724   0.00    0.0
2296 259645.999    125565.0812  -6119913.0498  -4695950.8135   5  22   1.9755   4.7355   2.7472   1.7722   2.4195   0.6719   0.00    0.0
2296 259646.999    128719.7938  -6116088.4767  -4700848.1585   5  22   1.9755   4.7366   2.7478   1.7722   2.4198   0.6714   0.00    0.0
2296 259647.999    131874.9346  -6112255.0725  -4705739.4740   5  22   1.9755   4.7377   2.7483   1.7722   2.4202   0.6709   0.00    0.0
2296 259648.999    135029.2337  -6108418.8976  -4710629.0364   5  22   1.9755   4.7388   2.7489   1.7722   2.4206   0.6703   0.00    0.0
2296 259649.999    138185.5862  -6104579.2081  -4715514.3270   5  22   1.9756   4.7398   2.7495   1.7722   2.4210   0.6698   0.00    0.0
2296 259650.999    141342.6816  -6100732.2273  -4720395.1932   5  22   1.9756   4.7409   2.7502   1.7722   2.4213   0.6693   0.00    0.0
2296 259651.999    144499.5784  -6096882.7216  -4725272.4678   5  22   1.9756   4.7420   2.7508   1.7722   2.4217   0.6687   0.00    0.0
2296 259652.999    147656.3462  -6093025.3028  -4730144.6579   5  22   1.9756   4.7431   2.7514   1.7722   2.4221   0.6682   0.00    0.0
2296 259653.999    150813.9934  -6089166.1052  -4735011.6617   5  22   1.9756   4.7442   2.7520   1.7722   2.4225   0.6676   0.00    0.0
2296 259654.999    153972.4187  -6085299.2589  -4739877.3246   5  22   1.9757   4.7453   2.7526   1.7722   2.4229   0.6671   0.00    0.0
2296 259655.999    157130.5905  -6081431.0153  -4744736.8648   5  22   1.9757   4.7464   2.7532   1.7722   2.4233   0.6665   0.00    0.0
2296 259656.999    160289.9442  -6077554.7981  -4749592.4755   5  22   1.9757   4.7475   2.7539   1.7722   2.4236   0.6660   0.00    0.0
2296 259657.999    163450.1085  -6073676.5260  -4754444.3498   5  22   1.9757   4.7486   2.7545   1.7722   2.4240   0.6654   0.00    0.0
2296 259658.999    166609.1747  -6069792.0194  -4759292.8822   5  22   1.9757   4.7498   2.7551   1.7722   2.4244   0.6649   0.00    0.0
2296 259659.999    169769.4175  -6065902.1314  -4764137.1757   5  22   1.9758   4.7509   2.7558   1.7722   2.4248   0.6643   0.00    0.0
2296 259660.999    172930.6564  -6062008.7188  -4768974.8564   5  22   1.9758   4.7520   2.7564   1.7722   2.4252   0.6638   0.00    0.0
2296 259661.999    176090.7522  -6058108.8463  -4773810.0379   5  22   1.9758   4.7531   2.7571   1.7722   2.4256   0.6632   0.00    0.0
2296 259662.999    179252.8105  -6054206.4675  -4778641.1309   5  22   1.9759   4.7543   2.7577   1.7722   2.4260   0.6626   0.00    0.0
2296 259663.999    182414.9910  -6050299.3294  -4783469.0692   5  22   1.9759   4.7554   2.7584   1.7722   2.4265   0.6620   0.00    0.0
2296 259664.999    185577.4073  -6046385.4966  -4788293.2880   5  22   1.9759   4.7565   2.7591   1.7722   2.4269   0.6615   0.00    0.0
2296 259665.999    188740.2050  -6042468.7148  -4793112.2077   5  22   1.9759   4.7577   2.7597   1.7722   2.4273   0.6609   0.00    0.0
2296 259666.999    191903.7556  -6038543.9644  -4797926.1796   5  22   1.9760   4.7588   2.7604   1.7722   2.4277   0.6603   0.00    0.0
2296 259667.999    195066.9988  -6034616.0218  -4802734.1389   5  22   1.9760   4.7599   2.7611   1.7722   2.4281   0.6597   0.00    0.0
2296 259668.999    198231.4278  -6030684.1293  -4807540.7305   5  22   1.9760   4.7611   2.7618   1.7722   2.4285   0.6591   0.00    0.0
2296 259669.999    201396.5635  -6026745.9496  -4812342.9903   5  22   1.9761   4.7623   2.7625   1.7722   2.4290   0.6585   0.00    0.0
2296 259670.999    204560.4711  -6022809.5672  -4817142.1557   5  22   1.9761   4.7634   2.7632   1.7722   2.4294   0.6579   0.00    0.0
2296 259671.999    207725.4977  -6018861.5576  -4821935.4800   5  22   1.9761   4.7646   2.7639   1.7722   2.4298   0.6573   0.00    0.0
2296 259672.999    210891.5203  -6014908.2419  -4826724.9867   5  22   1.9762   4.7657   2.7646   1.7722   2.4303   0.6567   0.00    0.0
2296 259673.999    214057.8967  -6010955.1661  -4831510.1860   5  22   1.9762   4.7669   2.7653   1.7722   2.4307   0.6561   0.00    0.0
2296 259674.999    217223.7455  -6006994.4311  -4836290.5402   5  22   1.9763   4.7681   2.7660   1.7722   2.4312   0.6554   0.00    0.0
2296 259675.999    220390.8523  -6003028.6863  -4841068.1581   5  22   1.9763   4.7692   2.7667   1.7722   2.4316   0.6548   0.00    0.0
2296 259676.999    223557.5217  -5999057.4765  -4845839.7766   5  22   1.9763   4.7704   2.7675   1.7723   2.4321   0.6542   0.00    0.0
2296 259677.999    226725.1752  -5995085.8017  -4850609.7528   5  22   1.9764   4.7716   2.7682   1.7723   2.4325   0.6536   0.00    0.0
2296 259678.999    229893.4937  -5991104.4431  -4855373.8239   5  22   1.9764   4.7728   2.7689   1.7723   2.4330   0.6529   0.00    0.0
2296 259679.999    233061.5200  -5987121.1004  -4860133.2711   5  22   1.9765   4.7740   2.7697   1.7723   2.4335   0.6523   0.00    0.0
2296 259680.999    236230.7867  -5983130.5135  -4864888.2222   5  22   1.9765   4.7752   2.7704   1.7723   2.4339   0.6516   0.00    0.0
2296 259681.999    239399.2837  -5979140.7702  -4869642.8117   5  22   1.9766   4.7764   2.7712   1.7723   2.4344   0.6510   0.00    0.0
2296 259682.999    242568.7833  -5975143.5922  -4874390.4050   5  22   1.9766   4.7776   2.7720   1.7723   2.4349   0.6503   0.00    0.0
2296 259683.999    245738.1795  -5971137.3084  -4879132.1171   5  22   1.9767   4.7788   2.7727   1.7723   2.4354   0.6496   0.00    0.0
2296 259684.999    248908.6887  -5967132.5917  -4883871.2685   5  22   1.9767   4.7800   2.7735   1.7723   2.4359   0.6490   0.00    0.0
2296 259685.999    252079.3236  -5963116.7670  -4888605.3310   5  22   1.9768   4.7812   2.7743   1.7723   2.4364   0.6483   0.00    0.0
2296 259686.999    255249.9523  -5959102.8203  -4893335.2749   5  22   1.9768   4.7824   2.7751   1.7723   2.4369   0.6476   0.00    0.0
2296 259687.999    258422.3353  -5955080.6585  -4898062.1251   5  22   1.9769   4.7836   2.7759   1.7723   2.4374   0.6469   0.00    0.0
2296 259688.999    261593.9436  -5951053.2222  -4902783.6417   5  22   1.9769   4.7848   2.7766   1.7723   2.4378   0.6461   0.00    0.0
2296 259689.999    264766.2787  -5947022.5716  -4907501.4379   5  22   1.9769   4.7860   2.7773   1.7722   2.4382   0.6451   0.00    0.0
2296 259690.999    267938.0957  -5942986.2649  -4912214.9628   5  22   1.9770   4.7872   2.7780   1.7721   2.4386   0.6442   0.00    0.0
2296 259691.999    271110.3117  -5938947.4848  -4916924.5547   5  22   1.9770   4.7884   2.7787   1.7721   2.4390   0.6432   0.00    0.0
2296 259692.999    274284.0734  -5934901.8440  -4921629.5979   5  21   1.9925   4.8216   2.8896   1.7328   2.5277   0.4658   0.00    0.0
2296 259693.999    277457.5615  -5930853.5378  -4926331.7461   5  21   1.9924   4.8228   2.8900   1.7328   2.5280   0.4650   0.00    0.0
2296 259694.999    280632.1171  -5926798.5090  -4931027.1002   5  21   1.9924   4.8239   2.8905   1.7328   2.5282   0.4642   0.00    0.0
2296 259695.999    283805.4576  -5922741.6815  -4935719.9237   5  21   1.9924   4.8251   2.8910   1.7329   2.5285   0.4634   0.00    0.0
2296 259696.999    286980.0866  -5918676.4472  -4940405.4034   5  21   1.9924   4.8262   2.8914   1.7329   2.5287   0.4626   0.00    0.0
2296 259697.999    290155.7178  -5914607.6776  -4945090.3288   5  21   1.9924   4.8273   2.8919   1.7329   2.5289   0.4618   0.00    0.0
2296 259698.999    293330.3503  -5910536.0388  -4949769.3858   5  21   1.9924   4.8285   2.8924   1.7329   2.5292   0.4610   0.00    0.0
2296 259699.999    296506.6622  -5906457.3298  -4954444.0812   5  21   1.9924   4.8296   2.8929   1.7330   2.5294   0.4602   0.00    0.0
2296 259700.999    299681.3443  -5902375.0016  -4959113.9869   5  21   1.9923   4.8308   2.8934   1.7330   2.5297   0.4594   0.00    0.0
2296 259701.999    302858.3034  -5898289.9732  -4963782.6234   5  21   1.9923   4.8320   2.8938   1.7330   2.5299   0.4586   0.00    0.0
2296 259702.999    306034.6870  -5894199.5393  -4968444.3263   5  21   1.9923   4.8331   2.8943   1.7330   2.5302   0.4577   0.00    0.0
2296 259703.999    309211.9507  -5890101.8783  -4973099.7285   5  21   1.9923   4.8343   2.8948   1.7331   2.5304   0.4569   0.00    0.0
2296 259704.999    312388.9533  -5886002.4724  -4977754.4163   5  21   1.9923   4.8354   2.8953   1.7331   2.5307   0.4561   0.00    0.0
2296 259705.999    315565.6294  -5881896.1432  -4982403.2190   5  21   1.9923   4.8366   2.8958   1.7331   2.5309   0.4552   0.00    0.0
2296 259706.999    318744.7488  -5877786.0021  -4987047.2783   5  21   1.9923   4.8378   2.8963   1.7332   2.5312   0.4544   0.00    0.0
2296 259707.999    321922.4005  -5873671.9249  -4991688.3836   5  21   1.9923   4.8390   2.8968   1.7332   2.5314   0.4535   0.00    0.0
2296 259708.999    325101.2896  -5869556.8576  -4996324.6697   5  21   1.9923   4.8401   2.8973   1.7332   2.5317   0.4527   0.00    0.0
2296 259709.999    328280.1564  -5865430.1351  -5000956.0302   5  21   1.9923   4.8413   2.8978   1.7332   2.5319   0.4518   0.00    0.0
2296 259710.999    331459.6374  -5861301.0218  -5005583.2831   5  21   1.9923   4.8425   2.8983   1.7333   2.5322   0.4510   0.00    0.0
2296 259711.999    334637.7951  -5857167.4307  -5010205.9355   5  21   1.9923   4.8437   2.8988   1.7333   2.5325   0.4501   0.00    0.0
2296 259712.999    337818.4928  -5853032.8507  -5014825.4989   5  21   1.9923   4.8449   2.8993   1.7333   2.5327   0.4492   0.00    0.0
2296 259713.999    340998.5081  -5848889.1562  -5019437.9290   5  21   1.9923   4.8461   2.8998   1.7334   2.5330   0.4483   0.00    0.0
2296 259714.999    344179.2264  -5844743.7459  -5024050.0653   5  21   1.9923   4.8473   2.9004   1.7334   2.5332   0.4474   0.00    0.0
2296 259715.999    347359.6988  -5840591.5271  -5028656.3762   5  21   1.9923   4.8485   2.9009   1.7335   2.5335   0.4465   0.00    0.0
2296 259716.999    350541.2420  -5836435.1571  -5033254.5274   5  21   1.9923   4.8497   2.9014   1.7335   2.5338   0.4456   0.00    0.0
2296 259717.999    353722.2295  -5832278.5113  -5037853.8901   5  21   1.9923   4.8509   2.9019   1.7335   2.5340   0.4447   0.00    0.0
2296 259718.999    356904.4695  -5828112.9463  -5042446.8601   5  21   1.9923   4.8521   2.9025   1.7336   2.5343   0.4438   0.00    0.0
2296 259719.999    360085.7897  -5823943.3418  -5047034.9045   5  21   1.9923   4.8533   2.9030   1.7336   2.5346   0.4429   0.00    0.0
2296 259720.999    363268.2916  -5819766.7644  -5051616.7558   5  21   1.9923   4.8545   2.9035   1.7336   2.5349   0.4420   0.00    0.0
2296 259721.999    366451.6609  -5815590.4814  -5056197.7596   5  21   1.9923   4.8557   2.9041   1.7337   2.5351   0.4410   0.00    0.0
2296 259722.999    369633.3696  -5811406.8725  -5060773.4682   5  21   1.9923   4.8569   2.9046   1.7337   2.5354   0.4401   0.00    0.0
2296 259723.999    372816.6468  -5807221.1877  -5065343.6883   5  21   1.9923   4.8581   2.9051   1.7338   2.5357   0.4391   0.00    0.0
2296 259724.999    376000.1900  -5803024.9831  -5069908.1296   5  21   1.9923   4.8594   2.9057   1.7338   2.5360   0.4382   0.00    0.0
2296 259725.999    379183.5801  -5798831.1939  -5074472.0310   5  21   1.9923   4.8606   2.9062   1.7338   2.5362   0.4372   0.00    0.0
2296 259726.999    382368.1664  -5794629.5488  -5079027.9399   5  21   1.9924   4.8618   2.9068   1.7339   2.5365   0.4363   0.00    0.0
2296 259727.999    385552.4402  -5790423.4808  -5083582.3351   5  21   1.9924   4.8630   2.9074   1.7339   2.5368   0.4353   0.00    0.0
2296 259728.999    388737.1692  -5786212.9602  -5088129.1313   5  21   1.9924   4.8643   2.9079   1.7340   2.5371   0.4343   0.00    0.0
2296 259729.999    391921.0332  -5781999.4995  -5092674.4153   5  21   1.9924   4.8655   2.9085   1.7340   2.5374   0.4333   0.00    0.0
2296 259730.999    395106.4233  -5777778.8413  -5097212.9190   5  21   1.9924   4.8668   2.9090   1.7340   2.5377   0.4323   0.00    0.0
2296 259731.999    398292.0466  -5773557.2538  -5101749.9378   5  21   1.9924   4.8680   2.9096   1.7341   2.5380   0.4313   0.00    0.0
2296 259732.999    401477.2618  -5769327.6869  -5106280.0633   5  21   1.9925   4.8692   2.9102   1.7341   2.5383   0.4303   0.00    0.0
2296 259733.999    404662.6768  -5765095.1218  -5110806.5354   5  21   1.9925   4.8705   2.9108   1.7342   2.5386   0.4293   0.00    0.0
2296 259734.999    407849.8062  -5760857.6691  -5115329.6865   5  21   1.9925   4.8718   2.9114   1.7342   2.5389   0.4282   0.00    0.0
2296 259735.999    411035.9774  -5756616.9434  -5119846.3364   5  21   1.9925   4.8730   2.9119   1.7343   2.5392   0.4272   0.00    0.0
2296 259736.999    414222.8536  -5752369.1216  -5124359.5714   5  21   1.9925   4.8743   2.9125   1.7343   2.5395   0.4261   0.00    0.0
2296 259737.999    417409.6597  -5748117.8536  -5128868.1691   5  21   1.9926   4.8755   2.9131   1.7344   2.5398   0.4251   0.00    0.0
2296 259738.999    420597.1175  -5743863.7495  -5133372.1345   5  21   1.9926   4.8768   2.9137   1.7344   2.5401   0.4240   0.00    0.0
2296 259739.999    423785.2017  -5739602.0970  -5137870.3887   5  21   1.9926   4.8781   2.9143   1.7344   2.5404   0.4229   0.00    0.0
2296 259740.999    426972.6943  -5735336.9751  -5142366.8662   5  21   1.9927   4.8793   2.9149   1.7345   2.5407   0.4218   0.00    0.0
2296 259741.999    430160.0407  -5731072.3128  -5146858.9723   5  21   1.9927   4.8806   2.9155   1.7345   2.5410   0.4207   0.00    0.0
2296 259742.999    433349.4022  -5726795.1768  -5151345.6366   5  21   1.9927   4.8819   2.9161   1.7346   2.5413   0.4196   0.00    0.0
2296 259743.999    436537.2913  -5722520.9841  -5155828.4436   5  21   1.9928   4.8832   2.9168   1.7346   2.5416   0.4185   0.00    0.0
2296 259744.999    439725.9140  -5718235.4532  -5160302.8794   5  21   1.9928   4.8845   2.9174   1.7347   2.5420   0.4174   0.00    0.0
2296 259745.999    442915.5673  -5713951.2050  -5164775.9770   5  21   1.9928   4.8858   2.9180   1.7347   2.5423   0.4162   0.00    0.0
2296 259746.999    446103.9449  -5709657.4297  -5169245.2131   5  21   1.9929   4.8870   2.9186   1.7348   2.5426   0.4151   0.00    0.0
2296 259747.999    449294.1577  -5705361.4094  -5173709.0541   5  21   1.9929   4.8883   2.9193   1.7348   2.5429   0.4139   0.00    0.0
2296 259748.999    452483.8848  -5701064.6101  -5178170.7503   5  21   1.9929   4.8896   2.9199   1.7349   2.5433   0.4127   0.00    0.0
2296 259749.999    455673.9510  -5696758.4003  -5182625.1482   5  21   1.9930   4.8909   2.9205   1.7349   2.5436   0.4115   0.00    0.0
2296 259750.999    458864.0311  -5692450.0138  -5187073.9796   5  21   1.9930   4.8923   2.9212   1.7350   2.5439   0.4103   0.00    0.0
2296 259751.999    462055.7363  -5688134.6581  -5191520.6216   5  21   1.9931   4.8936   2.9218   1.7350   2.5443   0.4091   0.00    0.0
2296 259752.999    465245.1161  -5683818.2271  -5195961.8222   5  21   1.9931   4.8949   2.9225   1.7350   2.5446   0.4079   0.00    0.0
2296 259753.999    468435.4677  -5679497.9483  -5200402.0774   5  21   1.9932   4.8962   2.9232   1.7351   2.5450   0.4066   0.00    0.0
2296 259754.999    471626.1402  -5675167.4290  -5204830.2351   5  21   1.9932   4.8975   2.9238   1.7351   2.5453   0.4054   0.00    0.0
2296 259755.999    474818.3089  -5670836.6165  -5209259.6978   5  21   1.9932   4.8988   2.9244   1.7352   2.5456   0.4043   0.00    0.0
2296 259756.999    478010.6701  -5666501.6640  -5213684.6446   5  21   1.9932   4.9001   2.9250   1.7353   2.5459   0.4037   0.00    0.0
2296 259757.999    481202.2363  -5662161.3404  -5218101.4027   5  21   1.9932   4.9014   2.9255   1.7355   2.5461   0.4031   0.00    0.0
2296 259758.999    484394.2645  -5657820.8905  -5222516.9632   5  21   1.9932   4.9027   2.9260   1.7356   2.5464   0.4025   0.00    0.0
2296 259759.999    487586.0255  -5653468.2423  -5226926.0603   5  21   1.9932   4.9040   2.9265   1.7358   2.5466   0.4018   0.00    0.0
2296 259760.999    490778.6371  -5649115.0099  -5231331.5118   5  21   1.9931   4.9053   2.9270   1.7359   2.5469   0.4012   0.00    0.0
2296 259761.999    493971.6539  -5644758.2205  -5235733.3543   5  21   1.9931   4.9066   2.9275   1.7360   2.5471   0.4006   0.00    0.0
2296 259762.999    497164.2592  -5640397.4879  -5240130.5533   5  21   1.9931   4.9080   2.9281   1.7362   2.5474   0.4000   0.00    0.0
2296 259763.999    500356.7658  -5636030.4171  -5244520.7652   5  21   1.9931   4.9093   2.9286   1.7363   2.5476   0.3993   0.00    0.0
2296 259764.999    503549.6538  -5631657.9397  -5248907.3710   5  21   1.9931   4.9106   2.9291   1.7365   2.5479   0.3987   0.00    0.0
2296 259765.999    506743.4674  -5627282.3480  -5253289.6532   5  21   1.9931   4.9119   2.9296   1.7366   2.5481   0.3981   0.00    0.0
2296 259766.999    509937.6820  -5622903.1691  -5257667.0417   5  21   1.9931   4.9132   2.9302   1.7367   2.5484   0.3974   0.00    0.0
2296 259767.999    513130.4464  -5618517.2086  -5262040.8841   5  21   1.9930   4.9146   2.9307   1.7369   2.5487   0.3968   0.00    0.0
2296 259768.999    516326.5609  -5614131.0745  -5266411.2900   5  21   1.9930   4.9159   2.9312   1.7370   2.5489   0.3961   0.00    0.0
2296 259769.999    519519.4750  -5609738.4443  -5270775.0056   5  21   1.9930   4.9172   2.9318   1.7372   2.5492   0.3955   0.00    0.0
2296 259770.999    522713.6952  -5605340.1718  -5275133.6616   5  21   1.9930   4.9186   2.9323   1.7373   2.5494   0.3948   0.00    0.0
2296 259771.999    525909.4344  -5600937.1991  -5279488.3442   5  21   1.9930   4.9199   2.9329   1.7375   2.5497   0.3942   0.00    0.0
2296 259772.999    529104.0524  -5596533.0990  -5283839.8264   5  21   1.9930   4.9213   2.9334   1.7376   2.5500   0.3935   0.00    0.0
2296 259773.999    532298.8913  -5592125.6223  -5288187.3706   5  21   1.9930   4.9226   2.9340   1.7378   2.5503   0.3928   0.00    0.0
2296 259774.999    535493.9850  -5587709.5462  -5292527.9329   5  21   1.9930   4.9240   2.9345   1.7379   2.5505   0.3921   0.00    0.0
2296 259775.999    538689.9895  -5583285.9269  -5296864.7583   5  21   1.9930   4.9253   2.9351   1.7381   2.5508   0.3915   0.00    0.0
2296 259776.999    541885.4138  -5578865.3451  -5301196.3148   5  21   1.9930   4.9267   2.9357   1.7382   2.5511   0.3908   0.00    0.0
2296 259777.999    545081.4285  -5574436.3198  -5305523.4818   5  21   1.9930   4.9280   2.9362   1.7384   2.5514   0.3901   0.00    0.0
2296 259778.999    548276.6737  -5570007.4173  -5309847.2650   5  21   1.9930   4.9294   2.9368   1.7386   2.5516   0.3894   0.00    0.0
2296 259779.999    551473.5193  -5565569.2115  -5314165.9050   5  21   1.9930   4.9308   2.9374   1.7387   2.5519   0.3887   0.00    0.0
2296 259780.999    554668.8649  -5561129.6344  -5318479.4493   5  21   1.9930   4.9321   2.9380   1.7389   2.5522   0.3880   0.00    0.0
2296 259781.999    557865.8299  -5556682.7046  -5322788.5675   5  21   1.9930   4.9335   2.9385   1.7390   2.5525   0.3873   0.00    0.0
2296 259782.999    561049.1778  -5552249.8689  -5327069.3773   5  14   2.4292   5.4992   3.9127   1.8396   2.2794  -0.8214   0.00    0.0
2296 259783.999    564229.4641  -5547784.1388  -5331364.6072   5  10   3.2001   6.4352   4.6235   2.9889   2.5546   1.5248   0.00    0.0
2296 259784.999    567404.4478  -5543318.2247  -5335671.9794   5   9   3.2004   6.4365   4.6239   2.9889   2.5548   1.5266   0.00    0.0
2296 259785.999    570600.0631  -5538911.4635  -5339944.6639   5   9   3.2007   6.4378   4.6243   2.9888   2.5551   1.5284   0.00    0.0
2296 259786.999    573795.7491  -5534396.9436  -5344279.6754   5   9   3.2010   6.4391   4.6246   2.9888   2.5554   1.5302   0.00    0.0
2296 259787.999    576991.0738  -5529888.9709  -5348622.0300   5   9   3.2013   6.4405   4.6250   2.9888   2.5557   1.5320   0.00    0.0
2296 259788.999    580190.3523  -5525354.2977  -5352971.4293   5   9   3.2017   6.4418   4.6254   2.9887   2.5560   1.5339   0.00    0.0
2296 259789.999    583348.7068  -5520867.1601  -5357314.9240   5   9   3.2020   6.4431   4.6258   2.9887   2.5564   1.5358   0.00    0.0
2296 259790.999    586503.1714  -5516374.0339  -5361639.1920   5   9   3.2023   6.4445   4.6262   2.9887   2.5567   1.5376   0.00    0.0
2296 259791.999    589685.3661  -5511882.6140  -5366033.5711   5   9   3.2027   6.4458   4.6266   2.9887   2.5570   1.5395   0.00    0.0
2296 259792.999    592913.0053  -5507356.7510  -5370406.2716   5   9   3.2030   6.4472   4.6270   2.9887   2.5574   1.5413   0.00    0.0
2296 259793.999    596071.1441  -5502847.8038  -5374778.7274   5   9   3.2034   6.4485   4.6275   2.9887   2.5577   1.5432   0.00    0.0
2296 259794.999    599212.5275  -5498395.4301  -5379093.1714   5   9   3.2037   6.4499   4.6279   2.9888   2.5580   1.5451   0.00    0.0
2296 259795.999    602373.8869  -5493974.2532  -5383468.5505   5   9   3.2040   6.4512   4.6283   2.9888   2.5584   1.5470   0.00    0.0
2296 259796.999    605561.6177  -5489513.0895  -5387810.4000   5  10   3.2044   6.4526   4.6288   2.9888   2.5587   1.5489   0.00    0.0
2296 259797.999    608737.9274  -5485063.9456  -5392150.6434   5   9   3.2047   6.4539   4.6292   2.9888   2.5591   1.5507   0.00    0.0
2296 259798.999    611962.8918  -5480539.7065  -5396542.5123   5   9   3.2051   6.4553   4.6296   2.9888   2.5594   1.5526   0.00    0.0
2296 259799.999    615123.3538  -5476041.6664  -5400859.2725   5   9   3.2055   6.4567   4.6301   2.9888   2.5598   1.5545   0.00    0.0
2296 259800.999    618325.3986  -5471565.9617  -5405247.8171   5  10   3.2058   6.4580   4.6305   2.9888   2.5602   1.5564   0.00    0.0
2296 259801.999    621458.7855  -5467132.4067  -5409612.2621   5   9   3.2062   6.4594   4.6310   2.9889   2.5605   1.5583   0.00    0.0
2296 259802.999    624652.3318  -5462609.8299  -5413981.9443   5   9   3.2066   6.4608   4.6315   2.9889   2.5609   1.5602   0.00    0.0
2296 259803.999    627843.8251  -5458028.4569  -5418382.8433   5   9   3.2070   6.4622   4.6320   2.9890   2.5613   1.5622   0.00    0.0
2296 259804.999    631013.5595  -5453537.2815  -5422711.5864   5   9   3.2073   6.4636   4.6324   2.9890   2.5617   1.5641   0.00    0.0
2296 259805.999    634145.9344  -5449045.4262  -5427030.9153   5   9   3.2077   6.4650   4.6329   2.9891   2.5621   1.5660   0.00    0.0
2296 259806.999    637277.5066  -5444593.4529  -5431366.9102   5   9   3.2081   6.4664   4.6334   2.9891   2.5625   1.5679   0.00    0.0
2296 259807.999    640467.5650  -5440075.4842  -5435734.0210   5   9   3.2085   6.4679   4.6339   2.9892   2.5629   1.5699   0.00    0.0
2296 259808.999    643652.2547  -5435551.5449  -5440061.6839   5   9   3.2089   6.4693   4.6344   2.9892   2.5633   1.5718   0.00    0.0
2296 259809.999    646820.1546  -5431099.1465  -5444431.6868   5  10   3.2093   6.4707   4.6349   2.9893   2.5637   1.5737   0.00    0.0
2296 259810.999    650021.0479  -5426589.9082  -5448797.3488   5   9   3.2097   6.4721   4.6354   2.9893   2.5641   1.5756   0.00    0.0
2296 259811.999    653194.0431  -5422124.9031  -5453139.6322   5   9   3.2101   6.4735   4.6360   2.9894   2.5645   1.5776   0.00    0.0
2296 259812.999    656358.3088  -5417652.9990  -5457474.0448   5   9   3.2105   6.4750   4.6365   2.9895   2.5649   1.5795   0.00    0.0
2296 259813.999    659508.7014  -5413188.6276  -5461855.9381   5   9   3.2109   6.4764   4.6370   2.9896   2.5653   1.5815   0.00    0.0
2296 259814.999    662677.3889  -5408668.5818  -5466191.0822   5   9   3.2113   6.4779   4.6376   2.9896   2.5658   1.5834   0.00    0.0
2296 259815.999    665824.2182  -5404141.4112  -5470528.5727   5   9   3.2117   6.4793   4.6381   2.9897   2.5662   1.5854   0.00    0.0
2296 259816.999    668972.6028  -5399612.9334  -5474870.0096   5   9   3.2121   6.4808   4.6387   2.9898   2.5666   1.5874   0.00    0.0
2296 259817.999    672106.1128  -5395087.3496  -5479234.6303   5   9   3.2125   6.4822   4.6392   2.9900   2.5671   1.5894   0.00    0.0
2296 259818.999    675233.8884  -5390537.5231  -5483595.5656   5   9   3.2130   6.4837   4.6398   2.9901   2.5676   1.5914   0.00    0.0
2296 259819.999    678377.5846  -5385993.1699  -5487962.5769   5   9   3.2134   6.4852   4.6404   2.9902   2.5681   1.5934   0.00    0.0
2296 259820.999    681531.3127  -5381483.6780  -5492326.1162   5   9   3.2138   6.4867   4.6410   2.9903   2.5685   1.5955   0.00    0.0
2296 259821.999    684661.3930  -5377020.0961  -5496667.6604   5   9   3.2143   6.4882   4.6416   2.9904   2.5690   1.5975   0.00    0.0
2296 259822.999    687849.9353  -5372380.6561  -5501060.7262   5   9   3.2147   6.4897   4.6422   2.9906   2.5695   1.5995   0.00    0.0
2296 259823.999    690957.0287  -5367849.2481  -5505413.0294   5   9   3.2152   6.4912   4.6428   2.9907   2.5700   1.6015   0.00    0.0
