% program   : RTKLIB ver.EX 2.5.0
% inp file  : .\Products\Orbit_Simulation\rnx_out\GPS_GAL_BDS\orion_gps_gal_bds.obs
% inp file  : .\Products\Orbit_Simulation\rnx_out\GPS_GAL_BDS\orion_gps_gal_bds.nav
% obs start : 2024/01/10 00:00:30.0 GPST (week2296 259230.0s)
% obs end   : 2024/01/10 00:10:24.0 GPST (week2296 259824.0s)
%
% (x/y/z-ecef=WGS84,Q=1:fix,2:float,3:sbas,4:dgps,5:single,6:ppp,ns=# of satellites)
%  GPST                      x-ecef(m)      y-ecef(m)      z-ecef(m)   Q  ns   sdx(m)   sdy(m)   sdz(m)  sdxy(m)  sdyz(m)  sdzx(m) age(s)  ratio
2024/01/10 00:00:29.999  -1124785.1383  -7258602.9339  -2360303.5745   5  10   4.6944   9.3300  10.4352   2.1645  -3.3003   4.6551   0.00    0.0
2024/01/10 00:00:30.999  -1121978.9360  -7257025.1147  -2366492.0847   5  10   4.6949   9.3300  10.4372   2.1639  -3.3012   4.6574   0.00    0.0
2024/01/10 00:00:31.999  -1119172.6535  -7255436.6275  -2372679.5888   5  10   4.6954   9.3301  10.4393   2.1633  -3.3020   4.6597   0.00    0.0
2024/01/10 00:00:32.999  -1116364.7484  -7253844.0199  -2378859.8584   5  10   4.6958   9.3302  10.4414   2.1626  -3.3029   4.6619   0.00    0.0
2024/01/10 00:00:33.999  -1113556.2980  -7252243.4882  -2385040.7674   5  11   3.9473   8.8974   8.7756   3.4382   2.2337   2.7110   0.00    0.0
2024/01/10 00:00:34.999  -1110745.5751  -7250641.1761  -2391219.4037   5  11   3.9473   8.8975   8.7762   3.4382   2.2343   2.7126   0.00    0.0
2024/01/10 00:00:35.999  -1107934.0651  -7249030.0422  -2397400.3943   5  11   3.9472   8.8976   8.7768   3.4382   2.2349   2.7141   0.00    0.0
2024/01/10 00:00:36.999  -1105121.1394  -7247414.4051  -2403576.8393   5  11   3.9472   8.8977   8.7774   3.4382   2.2355   2.7157   0.00    0.0
2024/01/10 00:00:37.999  -1102307.8736  -7245791.5219  -2409749.4391   5  11   3.9471   8.8978   8.7780   3.4383   2.2361   2.7172   0.00    0.0
2024/01/10 00:00:38.999  -1099493.2041  -7244164.9073  -2415921.6701   5  11   3.9471   8.8979   8.7786   3.4383   2.2367   2.7188   0.00    0.0
2024/01/10 00:00:39.999  -1096677.6778  -7242532.2963  -2422093.5071   5  11   3.9470   8.8981   8.7792   3.4383   2.2373   2.7203   0.00    0.0
2024/01/10 00:00:40.999  -1093860.1375  -7240890.3785  -2428257.5471   5  11   3.9470   8.8982   8.7799   3.4383   2.2379   2.7219   0.00    0.0
2024/01/10 00:00:41.999  -1091042.6401  -7239246.1912  -2434425.6703   5  11   3.9469   8.8983   8.7805   3.4383   2.2385   2.7234   0.00    0.0
2024/01/10 00:00:42.999  -1088222.1250  -7237595.7258  -2440586.6578   5  11   3.9469   8.8984   8.7811   3.4384   2.2391   2.7250   0.00    0.0
2024/01/10 00:00:43.999  -1085402.3717  -7235938.6470  -2446750.1052   5  11   3.9468   8.8986   8.7817   3.4384   2.2397   2.7265   0.00    0.0
2024/01/10 00:00:44.999  -1082578.9434  -7234273.2639  -2452904.5680   5  11   3.9468   8.8987   8.7824   3.4384   2.2403   2.7281   0.00    0.0
2024/01/10 00:00:45.999  -1079756.9437  -7232608.0189  -2459062.3349   5  11   3.9467   8.8988   8.7830   3.4384   2.2409   2.7296   0.00    0.0
2024/01/10 00:00:46.999  -1076932.3746  -7230931.0313  -2465217.1547   5  11   3.9467   8.8990   8.7836   3.4385   2.2415   2.7312   0.00    0.0
2024/01/10 00:00:47.999  -1074107.6358  -7229250.0891  -2471370.9648   5  11   3.9466   8.8991   8.7843   3.4385   2.2421   2.7327   0.00    0.0
2024/01/10 00:00:48.999  -1071279.8532  -7227566.4131  -2477521.6892   5  11   3.9466   8.8993   8.7849   3.4385   2.2427   2.7343   0.00    0.0
2024/01/10 00:00:49.999  -1068451.8769  -7225874.0687  -2483667.8639   5  11   3.9465   8.8994   8.7856   3.4386   2.2433   2.7358   0.00    0.0
2024/01/10 00:00:50.999  -1065623.9929  -7224176.5223  -2489814.9636   5  11   3.9465   8.8996   8.7862   3.4386   2.2439   2.7374   0.00    0.0
2024/01/10 00:00:51.999  -1062793.0462  -7222472.5020  -2495958.8047   5  11   3.9465   8.8998   8.7868   3.4387   2.2446   2.7390   0.00    0.0
2024/01/10 00:00:52.999  -1059960.6829  -7220763.2284  -2502097.1727   5  11   3.9464   8.8999   8.7875   3.4387   2.2452   2.7405   0.00    0.0
2024/01/10 00:00:53.999  -1057128.8072  -7219045.5016  -2508239.6503   5  11   3.9464   8.9001   8.7882   3.4388   2.2458   2.7421   0.00    0.0
2024/01/10 00:00:54.999  -1054295.0191  -7217324.6141  -2514375.3312   5  11   3.9464   8.9003   8.7888   3.4388   2.2464   2.7436   0.00    0.0
2024/01/10 00:00:55.999  -1051459.7878  -7215595.8091  -2520510.8807   5  11   3.9463   8.9004   8.7895   3.4389   2.2471   2.7452   0.00    0.0
2024/01/10 00:00:56.999  -1048625.3879  -7213867.0156  -2526646.1754   5  11   3.9463   8.9006   8.7901   3.4389   2.2477   2.7468   0.00    0.0
2024/01/10 00:00:57.999  -1045787.7701  -7212128.7724  -2532776.7680   5  13   3.6785   8.6280   5.6404   3.6098   2.8236  -1.3768   0.00    0.0
2024/01/10 00:00:58.999  -1042949.8685  -7210384.6505  -2538906.2130   5  13   3.6782   8.6285   5.6408   3.6099   2.8235  -1.3759   0.00    0.0
2024/01/10 00:00:59.999  -1040109.9891  -7208634.6645  -2545032.1703   5  13   3.6779   8.6290   5.6411   3.6099   2.8235  -1.3749   0.00    0.0
2024/01/10 00:01:00.999  -1037269.1466  -7206877.1463  -2551156.1116   5  13   3.6776   8.6294   5.6415   3.6099   2.8235  -1.3739   0.00    0.0
2024/01/10 00:01:01.999  -1034427.3603  -7205112.7700  -2557277.2736   5  13   3.6772   8.6299   5.6419   3.6099   2.8234  -1.3730   0.00    0.0
2024/01/10 00:01:02.999  -1031584.9946  -7203345.7185  -2563396.5382   5  13   3.6769   8.6304   5.6423   3.6099   2.8234  -1.3720   0.00    0.0
2024/01/10 00:01:03.999  -1028740.4347  -7201574.2018  -2569515.0332   5  14   3.5229   8.5517   5.6405   3.4357   2.8552  -1.3103   0.00    0.0
2024/01/10 00:01:04.999  -1025894.2943  -7199796.9473  -2575630.5258   5  14   3.5226   8.5522   5.6409   3.4358   2.8551  -1.3095   0.00    0.0
2024/01/10 00:01:05.999  -1023049.7854  -7198008.7375  -2581741.7452   5  14   3.5222   8.5527   5.6413   3.4358   2.8549  -1.3088   0.00    0.0
2024/01/10 00:01:06.999  -1020201.8643  -7196218.7252  -2587852.9885   5  14   3.5219   8.5532   5.6417   3.4358   2.8548  -1.3080   0.00    0.0
2024/01/10 00:01:07.999  -1017353.5908  -7194423.1287  -2593961.4765   5  14   3.5216   8.5537   5.6421   3.4359   2.8546  -1.3072   0.00    0.0
2024/01/10 00:01:08.999  -1014502.4275  -7192620.7630  -2600068.8444   5  14   3.5212   8.5542   5.6425   3.4359   2.8545  -1.3064   0.00    0.0
2024/01/10 00:01:09.999  -1011652.7621  -7190809.9718  -2606171.1941   5  14   3.5209   8.5548   5.6430   3.4359   2.8543  -1.3056   0.00    0.0
2024/01/10 00:01:10.999  -1008799.7506  -7188998.9222  -2612276.1315   5  14   3.5206   8.5553   5.6434   3.4360   2.8542  -1.3049   0.00    0.0
2024/01/10 00:01:11.999  -1005947.1042  -7187180.6029  -2618374.8420   5  14   3.5202   8.5558   5.6438   3.4360   2.8541  -1.3041   0.00    0.0
2024/01/10 00:01:12.999  -1003092.5962  -7185356.2513  -2624472.3153   5  14   3.5199   8.5563   5.6442   3.4361   2.8539  -1.3033   0.00    0.0
2024/01/10 00:01:13.999  -1000236.9078  -7183523.9158  -2630567.5916   5  14   3.5196   8.5569   5.6446   3.4361   2.8538  -1.3025   0.00    0.0
2024/01/10 00:01:14.999   -997380.7120  -7181684.3936  -2636659.3249   5  14   3.5193   8.5574   5.6450   3.4361   2.8536  -1.3017   0.00    0.0
2024/01/10 00:01:15.999   -994522.9911  -7179843.6654  -2642750.1500   5  15   3.3849   8.2625   4.5631   3.1085   3.9437   1.2270   0.00    0.0
2024/01/10 00:01:16.999   -991664.2227  -7177993.4150  -2648837.9977   5  15   3.3846   8.2632   4.5633   3.1087   3.9435   1.2275   0.00    0.0
2024/01/10 00:01:17.999   -988804.4650  -7176141.1721  -2654923.8613   5  15   3.3844   8.2639   4.5635   3.1090   3.9434   1.2280   0.00    0.0
2024/01/10 00:01:18.999   -985943.2199  -7174278.3675  -2661006.2642   5  15   3.3842   8.2646   4.5637   3.1093   3.9432   1.2285   0.00    0.0
2024/01/10 00:01:19.999   -983080.8515  -7172415.7554  -2667089.2267   5  15   3.3839   8.2653   4.5640   3.1095   3.9430   1.2290   0.00    0.0
2024/01/10 00:01:20.999   -980218.3238  -7170542.7030  -2673166.6280   5  15   3.3837   8.2660   4.5642   3.1098   3.9428   1.2295   0.00    0.0
2024/01/10 00:01:21.999   -977354.1449  -7168666.0831  -2679244.7031   5  16   3.3834   7.9130   4.5639   3.1179   3.9225   1.2306   0.00    0.0
2024/01/10 00:01:22.999   -974488.4635  -7166780.0853  -2685318.5295   5  16   3.3832   7.9136   4.5642   3.1181   3.9224   1.2311   0.00    0.0
2024/01/10 00:01:23.999   -971621.8324  -7164892.1592  -2691390.4250   5  16   3.3829   7.9142   4.5644   3.1183   3.9223   1.2316   0.00    0.0
2024/01/10 00:01:24.999   -968752.6564  -7162998.3358  -2697461.1586   5  16   3.3827   7.9149   4.5647   3.1185   3.9223   1.2322   0.00    0.0
2024/01/10 00:01:25.999   -965884.0080  -7161097.4790  -2703528.1172   5  16   3.3825   7.9155   4.5649   3.1187   3.9222   1.2327   0.00    0.0
2024/01/10 00:01:26.999   -963014.3264  -7159189.1385  -2709591.5126   5  16   3.3823   7.9161   4.5651   3.1189   3.9221   1.2332   0.00    0.0
2024/01/10 00:01:27.999   -960142.9652  -7157279.3556  -2715654.7618   5  17   3.3712   7.8358   4.4433   3.0697   4.0702   1.3439   0.00    0.0
2024/01/10 00:01:28.999   -957271.2524  -7155360.6885  -2721714.2204   5  17   3.3710   7.8367   4.4434   3.0700   4.0700   1.3443   0.00    0.0
2024/01/10 00:01:29.999   -954397.6197  -7153437.5815  -2727772.8365   5  17   3.3708   7.8375   4.4434   3.0703   4.0699   1.3448   0.00    0.0
2024/01/10 00:01:30.999   -951524.1715  -7151508.5106  -2733827.4458   5  17   3.3706   7.8384   4.4435   3.0706   4.0697   1.3452   0.00    0.0
2024/01/10 00:01:31.999   -948647.5927  -7149574.9935  -2739880.7567   5  18   2.9167   7.5104   4.0567   2.3741   3.5337  -1.1190   0.00    0.0
2024/01/10 00:01:32.999   -945771.5026  -7147635.0408  -2745933.1166   5  18   2.9166   7.5110   4.0564   2.3743   3.5330  -1.1189   0.00    0.0
2024/01/10 00:01:33.999   -942892.3772  -7145684.7253  -2751979.0475   5  18   2.9164   7.5116   4.0562   2.3744   3.5324  -1.1189   0.00    0.0
2024/01/10 00:01:34.999   -940015.6519  -7143732.1602  -2758024.1507   5  18   2.9163   7.5122   4.0560   2.3746   3.5317  -1.1188   0.00    0.0
2024/01/10 00:01:35.999   -937134.6117  -7141777.9154  -2764069.3459   5  18   2.9162   7.5128   4.0558   2.3748   3.5311  -1.1187   0.00    0.0
2024/01/10 00:01:36.999   -934253.7311  -7139813.9436  -2770111.7521   5  18   2.9160   7.5135   4.0556   2.3749   3.5305  -1.1186   0.00    0.0
2024/01/10 00:01:37.999   -931371.2871  -7137843.8156  -2776149.3779   5  18   2.9159   7.5141   4.0553   2.3751   3.5298  -1.1186   0.00    0.0
2024/01/10 00:01:38.999   -928488.3603  -7135865.6863  -2782184.2775   5  18   2.9158   7.5147   4.0551   2.3753   3.5292  -1.1185   0.00    0.0
2024/01/10 00:01:39.999   -925604.0045  -7133885.1096  -2788218.7241   5  18   2.9156   7.5153   4.0549   2.3754   3.5285  -1.1184   0.00    0.0
2024/01/10 00:01:40.999   -922718.4277  -7131899.7231  -2794251.3469   5  18   2.9155   7.5160   4.0547   2.3756   3.5279  -1.1183   0.00    0.0
2024/01/10 00:01:41.999   -919832.7886  -7129908.4483  -2800280.7418   5  18   2.9154   7.5166   4.0545   2.3758   3.5273  -1.1183   0.00    0.0
2024/01/10 00:01:42.999   -916944.9863  -7127910.2581  -2806307.9400   5  18   2.9152   7.5172   4.0543   2.3759   3.5266  -1.1182   0.00    0.0
2024/01/10 00:01:43.999   -914056.8689  -7125904.5812  -2812330.2929   5  19   2.9149   6.7249   4.0110   2.3519   3.2329  -1.1270   0.00    0.0
2024/01/10 00:01:44.999   -911165.9629  -7123894.6644  -2818352.0629   5  19   2.9148   6.7255   4.0108   2.3521   3.2324  -1.1270   0.00    0.0
2024/01/10 00:01:45.999   -908275.5148  -7121878.6019  -2824371.7869   5  20   2.7652   6.7107   3.6069   2.4396   3.1060   0.5880   0.00    0.0
2024/01/10 00:01:46.999   -905383.6247  -7119859.5953  -2830389.4443   5  20   2.7652   6.7113   3.6066   2.4399   3.1051   0.5877   0.00    0.0
2024/01/10 00:01:47.999   -902490.6006  -7117831.1199  -2836403.1506   5  20   2.7652   6.7118   3.6063   2.4402   3.1043   0.5874   0.00    0.0
2024/01/10 00:01:48.999   -899597.3864  -7115799.9858  -2842414.9483   5  20   2.7652   6.7124   3.6060   2.4404   3.1035   0.5871   0.00    0.0
2024/01/10 00:01:49.999   -896701.6568  -7113760.3038  -2848423.8771   5  20   2.7652   6.7129   3.6058   2.4407   3.1026   0.5868   0.00    0.0
2024/01/10 00:01:50.999   -893806.7042  -7111717.2174  -2854430.6146   5  20   2.7652   6.7135   3.6055   2.4409   3.1018   0.5865   0.00    0.0
2024/01/10 00:01:51.999   -890908.4718  -7109668.4601  -2860434.3087   5  20   2.7652   6.7141   3.6052   2.4412   3.1009   0.5862   0.00    0.0
2024/01/10 00:01:52.999   -888010.0188  -7107613.1994  -2866437.7915   5  20   2.7652   6.7146   3.6049   2.4415   3.1001   0.5859   0.00    0.0
2024/01/10 00:01:53.999   -885109.8759  -7105551.0103  -2872438.2912   5  20   2.7652   6.7152   3.6047   2.4418   3.0993   0.5856   0.00    0.0
2024/01/10 00:01:54.999   -882209.7086  -7103483.8660  -2878434.5828   5  20   2.7651   6.7158   3.6044   2.4420   3.0984   0.5854   0.00    0.0
2024/01/10 00:01:55.999   -879308.8148  -7101411.8591  -2884429.1515   5  20   2.7651   6.7164   3.6041   2.4423   3.0976   0.5851   0.00    0.0
2024/01/10 00:01:56.999   -876406.1785  -7099335.4042  -2890421.6361   5  20   2.7651   6.7170   3.6039   2.4426   3.0967   0.5848   0.00    0.0
2024/01/10 00:01:57.999   -873502.1283  -7097250.1487  -2896411.7452   5  20   2.7651   6.7175   3.6036   2.4428   3.0959   0.5845   0.00    0.0
2024/01/10 00:01:58.999   -870598.3155  -7095160.5076  -2902396.5873   5  20   2.7651   6.7181   3.6034   2.4431   3.0951   0.5842   0.00    0.0
2024/01/10 00:01:59.999   -867691.7568  -7093062.0579  -2908380.5990   5  20   2.7651   6.7187   3.6031   2.4434   3.0942   0.5839   0.00    0.0
2024/01/10 00:02:00.999   -864785.1841  -7090962.7577  -2914364.3893   5  20   2.7651   6.7193   3.6028   2.4437   3.0934   0.5836   0.00    0.0
2024/01/10 00:02:01.999   -861876.9623  -7088859.6262  -2920344.2529   5  20   2.7651   6.7199   3.6026   2.4439   3.0926   0.5833   0.00    0.0
2024/01/10 00:02:02.999   -858968.2147  -7086745.5829  -2926321.2321   5  20   2.7651   6.7205   3.6023   2.4442   3.0917   0.5830   0.00    0.0
2024/01/10 00:02:03.999   -856058.9047  -7084626.6474  -2932295.3839   5  20   2.7651   6.7211   3.6021   2.4445   3.0909   0.5827   0.00    0.0
2024/01/10 00:02:04.999   -853148.2085  -7082501.6218  -2938266.7187   5  20   2.7651   6.7217   3.6018   2.4448   3.0901   0.5824   0.00    0.0
2024/01/10 00:02:05.999   -850235.5733  -7080373.5153  -2944235.4899   5  20   2.7651   6.7223   3.6016   2.4451   3.0893   0.5821   0.00    0.0
2024/01/10 00:02:06.999   -847322.6019  -7078236.8706  -2950201.2411   5  20   2.7652   6.7229   3.6013   2.4453   3.0884   0.5818   0.00    0.0
2024/01/10 00:02:07.999   -844408.5922  -7076097.2525  -2956166.7859   5  20   2.7652   6.7235   3.6011   2.4456   3.0876   0.5815   0.00    0.0
2024/01/10 00:02:08.999   -841493.1921  -7073949.9336  -2962128.4056   5  20   2.7652   6.7241   3.6008   2.4459   3.0868   0.5812   0.00    0.0
2024/01/10 00:02:09.999   -838576.8808  -7071798.8613  -2968088.0715   5  20   2.7652   6.7248   3.6006   2.4462   3.0859   0.5809   0.00    0.0
2024/01/10 00:02:10.999   -835659.3684  -7069640.3784  -2974045.2030   5  20   2.7652   6.7254   3.6004   2.4465   3.0851   0.5806   0.00    0.0
2024/01/10 00:02:11.999   -832740.5295  -7067477.1876  -2979998.0400   5  20   2.7652   6.7260   3.6001   2.4468   3.0843   0.5803   0.00    0.0
2024/01/10 00:02:12.999   -829823.4282  -7065310.4176  -2985950.4264   5  20   2.7652   6.7266   3.5999   2.4471   3.0835   0.5800   0.00    0.0
2024/01/10 00:02:13.999   -826901.8951  -7063132.9539  -2991897.0414   5  20   2.7652   6.7272   3.5996   2.4473   3.0826   0.5797   0.00    0.0
2024/01/10 00:02:14.999   -823979.1901  -7060952.3480  -2997844.0160   5  20   2.7652   6.7279   3.5994   2.4476   3.0818   0.5794   0.00    0.0
2024/01/10 00:02:15.999   -821058.2463  -7058767.9428  -3003787.9102   5  21   2.7606   6.5526   3.5896   2.3974   3.1453   0.6142   0.00    0.0
2024/01/10 00:02:16.999   -818135.0205  -7056574.1054  -3009727.8679   5  21   2.7606   6.5532   3.5894   2.3977   3.1445   0.6140   0.00    0.0
2024/01/10 00:02:17.999   -815210.1083  -7054378.4511  -3015666.9761   5  21   2.7606   6.5538   3.5891   2.3979   3.1438   0.6138   0.00    0.0
2024/01/10 00:02:19.999   -809359.4312  -7049966.0691  -3027534.4931   5  21   2.7606   6.5549   3.5886   2.3983   3.1423   0.6134   0.00    0.0
2024/01/10 00:02:20.999   -806430.0984  -7047752.1617  -3033466.6999   5  21   2.7606   6.5555   3.5884   2.3986   3.1416   0.6131   0.00    0.0
2024/01/10 00:02:21.999   -803501.7078  -7045530.9137  -3039393.7010   5  21   2.7606   6.5560   3.5882   2.3988   3.1408   0.6129   0.00    0.0
2024/01/10 00:02:22.999   -800573.6617  -7043307.4750  -3045320.2158   5  21   2.7606   6.5566   3.5879   2.3991   3.1401   0.6127   0.00    0.0
2024/01/10 00:02:23.999   -797642.0204  -7041074.7923  -3051240.7872   5  21   2.7606   6.5572   3.5877   2.3993   3.1394   0.6125   0.00    0.0
2024/01/10 00:02:24.999   -794710.8629  -7038836.7915  -3057161.8798   5  21   2.7606   6.5578   3.5874   2.3995   3.1386   0.6122   0.00    0.0
2024/01/10 00:02:25.999   -791778.4156  -7036594.5467  -3063078.2929   5  21   2.7607   6.5584   3.5872   2.3998   3.1379   0.6120   0.00    0.0
2024/01/10 00:02:26.999   -788845.6990  -7034346.4152  -3068992.2217   5  21   2.7607   6.5589   3.5870   2.4000   3.1372   0.6118   0.00    0.0
2024/01/10 00:02:27.999   -785908.9311  -7032091.8094  -3074904.5069   5  21   2.7607   6.5595   3.5867   2.4002   3.1364   0.6116   0.00    0.0
2024/01/10 00:02:28.999   -782974.1705  -7029833.0793  -3080813.8138   5  21   2.7607   6.5601   3.5865   2.4005   3.1357   0.6114   0.00    0.0
2024/01/10 00:02:29.999   -780038.4521  -7027566.0689  -3086720.2652   5  21   2.7607   6.5607   3.5863   2.4007   3.1350   0.6111   0.00    0.0
2024/01/10 00:02:30.999   -777099.3050  -7025295.0234  -3092624.3472   5  21   2.7607   6.5613   3.5860   2.4010   3.1343   0.6109   0.00    0.0
2024/01/10 00:02:31.999   -774161.8414  -7023020.1119  -3098525.9939   5  21   2.7607   6.5619   3.5858   2.4012   3.1335   0.6107   0.00    0.0
2024/01/10 00:02:32.999   -771221.7337  -7020739.3633  -3104425.4329   5  21   2.7607   6.5625   3.5856   2.4015   3.1328   0.6105   0.00    0.0
2024/01/10 00:02:33.999   -768281.0306  -7018451.3129  -3110320.8251   5  21   2.7608   6.5631   3.5854   2.4017   3.1321   0.6102   0.00    0.0
2024/01/10 00:02:34.999   -765339.9772  -7016155.6363  -3116213.8447   5  21   2.7608   6.5637   3.5852   2.4020   3.1314   0.6100   0.00    0.0
2024/01/10 00:02:35.999   -762396.7844  -7013859.2315  -3122103.2304   5  21   2.7608   6.5643   3.5849   2.4022   3.1306   0.6098   0.00    0.0
2024/01/10 00:02:36.999   -759454.0653  -7011554.3123  -3127990.7047   5  21   2.7608   6.5649   3.5847   2.4025   3.1299   0.6096   0.00    0.0
2024/01/10 00:02:37.999   -756508.4759  -7009244.1764  -3133876.6089   5  21   2.7608   6.5655   3.5845   2.4027   3.1292   0.6093   0.00    0.0
2024/01/10 00:02:38.999   -753562.3745  -7006926.0396  -3139758.5187   5  21   2.7608   6.5662   3.5843   2.4030   3.1285   0.6091   0.00    0.0
2024/01/10 00:02:39.999   -750615.6820  -7004602.3303  -3145637.6192   5  21   2.7609   6.5668   3.5841   2.4032   3.1277   0.6089   0.00    0.0
2024/01/10 00:02:40.999   -747668.9609  -7002277.6875  -3151514.3629   5  21   2.7609   6.5674   3.5838   2.4035   3.1270   0.6087   0.00    0.0
2024/01/10 00:02:41.999   -744718.9903  -6999942.3276  -3157387.3307   5  21   2.7609   6.5680   3.5836   2.4037   3.1263   0.6084   0.00    0.0
2024/01/10 00:02:42.999   -741769.8837  -6997606.9378  -3163259.4482   5  21   2.7609   6.5687   3.5834   2.4040   3.1256   0.6082   0.00    0.0
2024/01/10 00:02:43.999   -738820.0884  -6995264.3245  -3169128.7690   5  21   2.7610   6.5693   3.5832   2.4042   3.1249   0.6080   0.00    0.0
2024/01/10 00:02:44.999   -735868.0859  -6992915.0731  -3174994.6161   5  21   2.7610   6.5699   3.5830   2.4045   3.1241   0.6078   0.00    0.0
2024/01/10 00:02:45.999   -732915.7778  -6990560.6779  -3180858.1631   5  21   2.7610   6.5705   3.5828   2.4047   3.1234   0.6075   0.00    0.0
2024/01/10 00:02:46.999   -729961.5644  -6988198.2904  -3186718.8082   5  21   2.7610   6.5712   3.5826   2.4050   3.1227   0.6073   0.00    0.0
2024/01/10 00:02:47.999   -727007.4475  -6985831.8501  -3192575.5162   5  21   2.7611   6.5718   3.5824   2.4053   3.1220   0.6071   0.00    0.0
2024/01/10 00:02:48.999   -724052.1948  -6983460.3689  -3198430.2557   5  21   2.7611   6.5725   3.5822   2.4055   3.1213   0.6068   0.00    0.0
2024/01/10 00:02:49.999   -721096.3541  -6981083.3487  -3204281.6715   5  21   2.7611   6.5731   3.5820   2.4058   3.1206   0.6066   0.00    0.0
2024/01/10 00:02:50.999   -718139.4336  -6978701.8279  -3210131.2261   5  21   2.7611   6.5738   3.5818   2.4060   3.1199   0.6064   0.00    0.0
2024/01/10 00:02:51.999   -715179.9528  -6976311.3933  -3215978.9630   5  21   2.7612   6.5744   3.5816   2.4063   3.1191   0.6062   0.00    0.0
2024/01/10 00:02:52.999   -712220.9731  -6973914.8998  -3221821.0270   5  21   2.7612   6.5751   3.5814   2.4066   3.1184   0.6059   0.00    0.0
2024/01/10 00:02:53.999   -709260.2536  -6971515.6899  -3227661.5313   5  21   2.7612   6.5757   3.5812   2.4068   3.1177   0.6057   0.00    0.0
2024/01/10 00:02:54.999   -706298.7319  -6969110.7608  -3233501.0827   5  21   2.7613   6.5764   3.5810   2.4071   3.1170   0.6055   0.00    0.0
2024/01/10 00:02:55.999   -703338.2259  -6966700.0392  -3239335.1981   5  21   2.7613   6.5770   3.5808   2.4074   3.1163   0.6052   0.00    0.0
2024/01/10 00:02:56.999   -700374.8645  -6964284.3121  -3245168.2811   5  21   2.7613   6.5777   3.5807   2.4076   3.1156   0.6050   0.00    0.0
2024/01/10 00:02:57.999   -697409.9994  -6961861.5761  -3250997.5898   5  21   2.7614   6.5783   3.5805   2.4079   3.1149   0.6048   0.00    0.0
2024/01/10 00:02:58.999   -694446.6245  -6959433.1052  -3256823.7524   5  21   2.7614   6.5790   3.5803   2.4082   3.1142   0.6045   0.00    0.0
2024/01/10 00:02:59.999   -691479.2095  -6956999.5039  -3262647.4558   5  21   2.7614   6.5797   3.5801   2.4084   3.1135   0.6043   0.00    0.0
2024/01/10 00:03:00.999   -688512.2217  -6954559.5538  -3268469.2043   5  21   2.7615   6.5804   3.5799   2.4087   3.1128   0.6041   0.00    0.0
2024/01/10 00:03:01.999   -685544.3509  -6952115.5953  -3274286.2167   5  21   2.7615   6.5810   3.5797   2.4090   3.1121   0.6038   0.00    0.0
2024/01/10 00:03:02.999   -682574.8846  -6949666.7868  -3280104.0621   5  21   2.7616   6.5817   3.5796   2.4093   3.1114   0.6036   0.00    0.0
2024/01/10 00:03:03.999   -679606.0558  -6947209.2793  -3285914.5448   5  21   2.7616   6.5824   3.5794   2.4095   3.1107   0.6034   0.00    0.0
2024/01/10 00:03:04.999   -676634.8650  -6944749.6074  -3291725.1474   5  21   2.7616   6.5831   3.5792   2.4098   3.1100   0.6031   0.00    0.0
2024/01/10 00:03:05.999   -673663.4284  -6942283.6241  -3297532.6978   5  21   2.7617   6.5838   3.5790   2.4101   3.1093   0.6029   0.00    0.0
2024/01/10 00:03:06.999   -670691.3183  -6939809.7161  -3303336.0639   5  21   2.7617   6.5844   3.5789   2.4104   3.1086   0.6027   0.00    0.0
2024/01/10 00:03:07.999   -667716.6610  -6937331.1040  -3309137.6921   5  21   2.7618   6.5851   3.5787   2.4106   3.1079   0.6024   0.00    0.0
2024/01/10 00:03:08.999   -664742.5239  -6934847.9197  -3314934.8751   5  21   2.7618   6.5858   3.5785   2.4109   3.1072   0.6022   0.00    0.0
2024/01/10 00:03:09.999   -661767.5125  -6932360.7284  -3320731.1389   5  21   2.7618   6.5865   3.5784   2.4112   3.1065   0.6020   0.00    0.0
2024/01/10 00:03:10.999   -658791.2280  -6929867.8261  -3326523.6365   5  21   2.7619   6.5872   3.5782   2.4115   3.1058   0.6017   0.00    0.0
2024/01/10 00:03:11.999   -655813.4611  -6927365.8287  -3332314.4302   5  21   2.7619   6.5879   3.5780   2.4118   3.1051   0.6015   0.00    0.0
2024/01/10 00:03:12.999   -652835.3860  -6924862.5984  -3338100.8348   5  21   2.7620   6.5886   3.5779   2.4120   3.1044   0.6013   0.00    0.0
2024/01/10 00:03:13.999   -649856.4858  -6922351.3144  -3343885.5699   5  21   2.7620   6.5893   3.5777   2.4123   3.1037   0.6010   0.00    0.0
2024/01/10 00:03:14.999   -646875.9039  -6919831.2177  -3349664.5024   5  21   2.7621   6.5900   3.5775   2.4126   3.1030   0.6008   0.00    0.0
2024/01/10 00:03:15.999   -643895.6184  -6917311.0351  -3355443.1409   5  21   2.7621   6.5907   3.5774   2.4129   3.1023   0.6005   0.00    0.0
2024/01/10 00:03:16.999   -640912.9484  -6914783.0448  -3361218.8168   5  21   2.7622   6.5915   3.5772   2.4132   3.1016   0.6003   0.00    0.0
2024/01/10 00:03:17.999   -637930.5012  -6912248.1866  -3366989.1643   5  21   2.7622   6.5922   3.5771   2.4135   3.1009   0.6001   0.00    0.0
2024/01/10 00:03:18.999   -634946.4830  -6909709.2286  -3372758.1450   5  21   2.7623   6.5929   3.5769   2.4138   3.1002   0.5998   0.00    0.0
2024/01/10 00:03:19.999   -631962.3152  -6907167.4977  -3378526.1070   5  21   2.7623   6.5936   3.5768   2.4140   3.0995   0.5996   0.00    0.0
2024/01/10 00:03:20.999   -628976.4129  -6904617.4081  -3384289.3620   5  21   2.7624   6.5943   3.5766   2.4143   3.0989   0.5993   0.00    0.0
2024/01/10 00:03:21.999   -625989.2851  -6902059.3339  -3390048.7636   5  21   2.7624   6.5951   3.5765   2.4146   3.0982   0.5991   0.00    0.0
2024/01/10 00:03:22.999   -623002.6432  -6899500.9201  -3395806.7119   5  21   2.7625   6.5958   3.5763   2.4149   3.0975   0.5989   0.00    0.0
2024/01/10 00:03:23.999   -620014.6101  -6896933.9873  -3401560.5368   5  21   2.7626   6.5965   3.5762   2.4152   3.0968   0.5986   0.00    0.0
2024/01/10 00:03:24.999   -617025.1731  -6894361.6268  -3407312.9907   5  21   2.7626   6.5972   3.5760   2.4155   3.0961   0.5984   0.00    0.0
2024/01/10 00:03:25.999   -614034.4098  -6891785.7355  -3413061.9256   5  21   2.7627   6.5980   3.5759   2.4158   3.0954   0.5981   0.00    0.0
2024/01/10 00:03:26.999   -611044.5620  -6889203.4801  -3418808.3797   5  21   2.7627   6.5987   3.5758   2.4161   3.0948   0.5979   0.00    0.0
2024/01/10 00:03:27.999   -608051.3792  -6886613.0996  -3424549.8771   5  22   2.7240   6.5480   3.3653   2.3366   2.9291  -0.4473   0.00    0.0
2024/01/10 00:03:28.999   -605059.0104  -6884020.4154  -3430289.2691   5  22   2.7241   6.5488   3.3651   2.3369   2.9284  -0.4477   0.00    0.0
2024/01/10 00:03:29.999   -602065.6383  -6881419.1314  -3436026.1059   5  22   2.7241   6.5495   3.3649   2.3372   2.9276  -0.4480   0.00    0.0
2024/01/10 00:03:30.999   -599070.6847  -6878815.0041  -3441760.1242   5  22   2.7242   6.5503   3.3648   2.3375   2.9269  -0.4484   0.00    0.0
2024/01/10 00:03:31.999   -596075.5248  -6876202.3529  -3447490.0547   5  22   2.7243   6.5510   3.3646   2.3378   2.9262  -0.4488   0.00    0.0
2024/01/10 00:03:32.999   -593078.5010  -6873589.3867  -3453220.0471   5  22   2.7243   6.5518   3.3644   2.3382   2.9255  -0.4491   0.00    0.0
2024/01/10 00:03:33.999   -590080.7029  -6870966.9304  -3458944.8184   5  22   2.7244   6.5526   3.3643   2.3385   2.9247  -0.4495   0.00    0.0
2024/01/10 00:03:34.999   -587083.1449  -6868341.2189  -3464664.4999   5  22   2.7245   6.5533   3.3641   2.3388   2.9240  -0.4498   0.00    0.0
2024/01/10 00:03:35.999   -584083.7367  -6865708.0850  -3470385.0520   5  21   2.7286   6.5899   3.4834   2.3609   2.8152  -0.5813   0.00    0.0
2024/01/10 00:03:36.999   -581084.0724  -6863070.1372  -3476100.7444   5  21   2.7287   6.5906   3.4833   2.3612   2.8145  -0.5816   0.00    0.0
2024/01/10 00:03:37.999   -578083.1664  -6860427.9834  -3481814.1149   5  21   2.7288   6.5913   3.4833   2.3615   2.8138  -0.5818   0.00    0.0
2024/01/10 00:03:38.999   -575081.3676  -6857779.3067  -3487523.7877   5  21   2.7288   6.5921   3.4832   2.3618   2.8131  -0.5821   0.00    0.0
2024/01/10 00:03:39.999   -572078.4478  -6855122.1084  -3493229.6878   5  21   2.7289   6.5928   3.4831   2.3621   2.8124  -0.5823   0.00    0.0
2024/01/10 00:03:40.999   -569075.3110  -6852462.4791  -3498933.0590   5  21   2.7290   6.5935   3.4831   2.3624   2.8117  -0.5826   0.00    0.0
2024/01/10 00:03:41.999   -566069.2763  -6849798.4269  -3504633.6510   5  21   2.7290   6.5942   3.4830   2.3626   2.8110  -0.5828   0.00    0.0
2024/01/10 00:03:42.999   -563064.6750  -6847129.0893  -3510333.5137   5  21   2.7291   6.5949   3.4829   2.3629   2.8104  -0.5831   0.00    0.0
2024/01/10 00:03:43.999   -560058.9360  -6844452.1305  -3516026.2855   5  21   2.7292   6.5957   3.4829   2.3632   2.8097  -0.5834   0.00    0.0
2024/01/10 00:03:44.999   -557051.3933  -6841769.9397  -3521717.7403   5  21   2.7293   6.5964   3.4828   2.3635   2.8090  -0.5836   0.00    0.0
2024/01/10 00:03:45.999   -554043.6141  -6839084.5606  -3527405.7200   5  21   2.7293   6.5971   3.4828   2.3638   2.8083  -0.5839   0.00    0.0
2024/01/10 00:03:46.999   -551034.9071  -6836391.4072  -3533091.9820   5  21   2.7294   6.5978   3.4827   2.3641   2.8076  -0.5842   0.00    0.0
2024/01/10 00:03:47.999   -548026.1365  -6833692.1956  -3538773.0866   5  21   2.7295   6.5986   3.4827   2.3644   2.8069  -0.5844   0.00    0.0
2024/01/10 00:03:48.999   -545014.8540  -6830987.6202  -3544453.2857   5  21   2.7295   6.5993   3.4826   2.3647   2.8063  -0.5847   0.00    0.0
2024/01/10 00:03:49.999   -542002.6326  -6828281.4494  -3550130.1728   5  21   2.7296   6.6000   3.4826   2.3650   2.8056  -0.5850   0.00    0.0
2024/01/10 00:03:50.999   -538991.2550  -6825566.4643  -3555803.4750   5  21   2.7297   6.6008   3.4825   2.3653   2.8049  -0.5852   0.00    0.0
2024/01/10 00:03:51.999   -535977.9338  -6822848.2807  -3561474.4233   5  21   2.7298   6.6015   3.4825   2.3656   2.8042  -0.5855   0.00    0.0
2024/01/10 00:03:52.999   -532963.0673  -6820118.3554  -3567140.3480   5  21   2.7299   6.6023   3.4825   2.3659   2.8036  -0.5858   0.00    0.0
2024/01/10 00:03:53.999   -529948.3226  -6817390.4420  -3572804.9091   5  21   2.7299   6.6030   3.4824   2.3662   2.8029  -0.5860   0.00    0.0
2024/01/10 00:03:54.999   -526932.3215  -6814652.5782  -3578463.9346   5  21   2.7300   6.6038   3.4824   2.3665   2.8022  -0.5863   0.00    0.0
2024/01/10 00:03:55.999   -523916.2119  -6811911.7035  -3584120.9905   5  21   2.7301   6.6045   3.4823   2.3668   2.8015  -0.5866   0.00    0.0
2024/01/10 00:03:56.999   -520899.6274  -6809165.3727  -3589776.7662   5  21   2.7302   6.6053   3.4823   2.3671   2.8009  -0.5869   0.00    0.0
2024/01/10 00:03:57.999   -517880.5711  -6806412.9376  -3595427.9771   5  21   2.7303   6.6061   3.4823   2.3674   2.8002  -0.5871   0.00    0.0
2024/01/10 00:03:58.999   -514861.4918  -6803654.5794  -3601075.8982   5  21   2.7303   6.6068   3.4823   2.3677   2.7995  -0.5874   0.00    0.0
2024/01/10 00:03:59.999   -511840.5770  -6800891.1355  -3606722.1478   5  21   2.7304   6.6076   3.4822   2.3680   2.7989  -0.5877   0.00    0.0
2024/01/10 00:04:00.999   -508821.3373  -6798124.4178  -3612365.1091   5  21   2.7305   6.6084   3.4822   2.3683   2.7982  -0.5880   0.00    0.0
2024/01/10 00:04:01.999   -505799.1874  -6795349.7711  -3618002.0931   5  21   2.7306   6.6091   3.4822   2.3686   2.7975  -0.5883   0.00    0.0
2024/01/10 00:04:02.999   -502776.3119  -6792568.5654  -3623637.2054   5  21   2.7307   6.6099   3.4822   2.3689   2.7969  -0.5885   0.00    0.0
2024/01/10 00:04:03.999   -499752.6160  -6789784.6369  -3629272.3490   5  21   2.7308   6.6107   3.4821   2.3692   2.7962  -0.5888   0.00    0.0
2024/01/10 00:04:04.999   -496729.2380  -6786992.7047  -3634900.4033   5  21   2.7309   6.6115   3.4821   2.3695   2.7955  -0.5891   0.00    0.0
2024/01/10 00:04:05.999   -493704.0453  -6784197.9189  -3640527.1919   5  21   2.7310   6.6123   3.4821   2.3698   2.7949  -0.5894   0.00    0.0
2024/01/10 00:04:06.999   -490678.9413  -6781396.8688  -3646150.8387   5  21   2.7310   6.6130   3.4821   2.3701   2.7942  -0.5897   0.00    0.0
2024/01/10 00:04:07.999   -487652.6472  -6778590.4332  -3651770.4841   5  21   2.7311   6.6138   3.4821   2.3704   2.7935  -0.5900   0.00    0.0
2024/01/10 00:04:08.999   -484624.3613  -6775778.7120  -3657386.8179   5  21   2.7312   6.6146   3.4821   2.3707   2.7929  -0.5903   0.00    0.0
2024/01/10 00:04:09.999   -481595.5385  -6772960.4935  -3663000.2642   5  21   2.7313   6.6154   3.4821   2.3711   2.7922  -0.5905   0.00    0.0
2024/01/10 00:04:10.999   -478566.6185  -6770136.3304  -3668612.5397   5  21   2.7314   6.6162   3.4820   2.3714   2.7916  -0.5908   0.00    0.0
2024/01/10 00:04:11.999   -475536.7808  -6767307.7882  -3674218.1716   5  21   2.7315   6.6170   3.4820   2.3717   2.7909  -0.5911   0.00    0.0
2024/01/10 00:04:12.999   -472505.3103  -6764473.6111  -3679822.1502   5  21   2.7316   6.6178   3.4820   2.3720   2.7903  -0.5914   0.00    0.0
2024/01/10 00:04:13.999   -469473.5513  -6761636.8482  -3685424.5036   5  21   2.7317   6.6186   3.4820   2.3723   2.7896  -0.5917   0.00    0.0
2024/01/10 00:04:14.999   -466442.3305  -6758790.6631  -3691018.0081   5  21   2.7318   6.6194   3.4820   2.3726   2.7889  -0.5920   0.00    0.0
2024/01/10 00:04:15.999   -463407.6274  -6755941.0508  -3696615.4069   5  22   2.6073   6.6194   3.3954   2.3909   2.7737   0.5280   0.00    0.0
2024/01/10 00:04:16.999   -460375.2596  -6753086.4877  -3702206.4473   5  22   2.6075   6.6202   3.3953   2.3914   2.7730   0.5279   0.00    0.0
2024/01/10 00:04:17.999   -457340.7427  -6750225.2929  -3707794.3379   5  22   2.6076   6.6210   3.3952   2.3918   2.7722   0.5277   0.00    0.0
2024/01/10 00:04:18.999   -454304.4267  -6747357.7773  -3713379.3716   5  22   2.6078   6.6218   3.3951   2.3922   2.7714   0.5275   0.00    0.0
2024/01/10 00:04:19.999   -451268.0244  -6744487.0463  -3718960.4367   5  22   2.6080   6.6227   3.3951   2.3927   2.7707   0.5274   0.00    0.0
2024/01/10 00:04:20.999   -448229.3429  -6741609.2279  -3724539.0846   5  22   2.6081   6.6235   3.3950   2.3931   2.7699   0.5272   0.00    0.0
2024/01/10 00:04:21.999   -445191.5070  -6738729.3099  -3730115.6113   5  22   2.6083   6.6243   3.3949   2.3936   2.7691   0.5270   0.00    0.0
2024/01/10 00:04:22.999   -442153.5833  -6735841.0764  -3735687.1355   5  22   2.6085   6.6251   3.3948   2.3940   2.7684   0.5269   0.00    0.0
2024/01/10 00:04:23.999   -439112.8879  -6732949.1456  -3741255.2898   5  22   2.6086   6.6259   3.3948   2.3945   2.7676   0.5267   0.00    0.0
2024/01/10 00:04:24.999   -436073.0055  -6730052.8886  -3746821.0951   5  22   2.6088   6.6268   3.3947   2.3949   2.7668   0.5265   0.00    0.0
2024/01/10 00:04:25.999   -433032.1412  -6727145.9834  -3752382.2067   5  22   2.6090   6.6276   3.3946   2.3954   2.7661   0.5264   0.00    0.0
2024/01/10 00:04:26.999   -429989.7350  -6724236.2157  -3757939.3183   5  22   2.6092   6.6284   3.3945   2.3958   2.7653   0.5262   0.00    0.0
2024/01/10 00:04:27.999   -426945.5395  -6721324.4479  -3763496.7109   5  22   2.6093   6.6292   3.3945   2.3963   2.7646   0.5260   0.00    0.0
2024/01/10 00:04:28.999   -423902.3183  -6718404.2075  -3769050.4074   5  22   2.6095   6.6301   3.3944   2.3967   2.7638   0.5258   0.00    0.0
2024/01/10 00:04:29.999   -420857.6005  -6715478.6822  -3774599.6456   5  22   2.6097   6.6309   3.3944   2.3972   2.7631   0.5256   0.00    0.0
2024/01/10 00:04:30.999   -417812.1552  -6712550.7041  -3780145.1064   5  22   2.6099   6.6318   3.3943   2.3976   2.7623   0.5255   0.00    0.0
2024/01/10 00:04:31.999   -414766.7168  -6709614.6082  -3785687.3819   5  22   2.6100   6.6326   3.3942   2.3981   2.7615   0.5253   0.00    0.0
2024/01/10 00:04:32.999   -411719.7246  -6706671.6179  -3791226.3487   5  22   2.6102   6.6335   3.3942   2.3985   2.7608   0.5251   0.00    0.0
2024/01/10 00:04:33.999   -408671.5175  -6703726.8058  -3796762.5967   5  22   2.6104   6.6343   3.3941   2.3990   2.7600   0.5249   0.00    0.0
2024/01/10 00:04:34.999   -405622.1622  -6700773.3576  -3802295.6253   5  22   2.6106   6.6352   3.3941   2.3994   2.7593   0.5247   0.00    0.0
2024/01/10 00:04:35.999   -402573.6940  -6697815.0105  -3807824.0257   5  22   2.6107   6.6360   3.3940   2.3999   2.7585   0.5245   0.00    0.0
2024/01/10 00:04:36.999   -399525.3697  -6694853.2495  -3813350.7335   5  22   2.6109   6.6369   3.3940   2.4003   2.7578   0.5243   0.00    0.0
2024/01/10 00:04:37.999   -396472.8711  -6691886.5241  -3818874.5875   5  22   2.6111   6.6377   3.3939   2.4008   2.7570   0.5242   0.00    0.0
2024/01/10 00:04:38.999   -393422.0630  -6688912.0330  -3824393.0100   5  22   2.6113   6.6386   3.3939   2.4013   2.7563   0.5240   0.00    0.0
2024/01/10 00:04:39.999   -390369.0726  -6685933.2951  -3829908.4886   5  22   2.6115   6.6395   3.3939   2.4017   2.7555   0.5238   0.00    0.0
2024/01/10 00:04:40.999   -387316.0525  -6682951.7730  -3835422.0256   5  22   2.6117   6.6403   3.3938   2.4022   2.7548   0.5236   0.00    0.0
2024/01/10 00:04:41.999   -384262.1172  -6679961.2280  -3840932.6511   5  22   2.6118   6.6412   3.3938   2.4026   2.7540   0.5234   0.00    0.0
2024/01/10 00:04:42.999   -381207.9134  -6676967.0507  -3846438.7449   5  22   2.6120   6.6421   3.3937   2.4031   2.7533   0.5232   0.00    0.0
2024/01/10 00:04:43.999   -378152.6377  -6673966.4117  -3851938.6735   5  22   2.6122   6.6430   3.3937   2.4036   2.7526   0.5230   0.00    0.0
2024/01/10 00:04:44.999   -375095.0663  -6670962.8136  -3857441.6798   5  22   2.6124   6.6438   3.3937   2.4040   2.7518   0.5228   0.00    0.0
2024/01/10 00:04:45.999   -372039.5054  -6667951.4539  -3862935.7962   5  22   2.6126   6.6447   3.3937   2.4045   2.7511   0.5226   0.00    0.0
2024/01/10 00:04:46.999   -368980.9706  -6664936.4212  -3868429.2086   5  22   2.6128   6.6456   3.3936   2.4050   2.7503   0.5224   0.00    0.0
2024/01/10 00:04:47.999   -365922.2644  -6661916.1298  -3873918.9060   5  22   2.6130   6.6465   3.3936   2.4054   2.7496   0.5221   0.00    0.0
2024/01/10 00:04:48.999   -362864.4763  -6658888.4313  -3879403.5736   5  22   2.6132   6.6474   3.3936   2.4059   2.7489   0.5219   0.00    0.0
2024/01/10 00:04:49.999   -359803.7962  -6655859.8981  -3884887.7655   5  22   2.6134   6.6483   3.3936   2.4064   2.7481   0.5217   0.00    0.0
2024/01/10 00:04:50.999   -356743.1649  -6652823.5567  -3890366.5960   5  22   2.6136   6.6492   3.3935   2.4068   2.7474   0.5215   0.00    0.0
2024/01/10 00:04:51.999   -353682.7998  -6649779.9439  -3895842.3697   5  22   2.6138   6.6501   3.3935   2.4073   2.7466   0.5213   0.00    0.0
2024/01/10 00:04:52.999   -350618.3055  -6646731.4538  -3901314.9065   5  22   2.6140   6.6510   3.3935   2.4078   2.7459   0.5211   0.00    0.0
2024/01/10 00:04:53.999   -347555.9791  -6643675.9332  -3906784.0556   5  22   2.6142   6.6519   3.3935   2.4082   2.7452   0.5209   0.00    0.0
2024/01/10 00:04:54.999   -344491.9801  -6640620.0733  -3912249.4700   5  22   2.6144   6.6528   3.3935   2.4087   2.7444   0.5206   0.00    0.0
2024/01/10 00:04:55.999   -341427.6610  -6637558.9535  -3917713.4888   5  22   2.6146   6.6537   3.3935   2.4092   2.7437   0.5204   0.00    0.0
2024/01/10 00:04:56.999   -338362.2851  -6634489.1657  -3923170.7801   5  22   2.6148   6.6546   3.3935   2.4097   2.7430   0.5202   0.00    0.0
2024/01/10 00:04:57.999   -335297.5088  -6631416.2060  -3928625.9662   5  22   2.6150   6.6555   3.3935   2.4101   2.7423   0.5200   0.00    0.0
2024/01/10 00:04:58.999   -332230.5461  -6628335.9852  -3934078.6419   5  22   2.6152   6.6565   3.3935   2.4106   2.7415   0.5197   0.00    0.0
2024/01/10 00:04:59.999   -329162.7722  -6625252.7560  -3939527.8129   5  22   2.6154   6.6574   3.3935   2.4111   2.7408   0.5195   0.00    0.0
2024/01/10 00:05:00.999   -326095.0977  -6622162.6064  -3944972.1293   5  22   2.6156   6.6583   3.3935   2.4116   2.7401   0.5193   0.00    0.0
2024/01/10 00:05:01.999   -323025.6232  -6619069.6347  -3950416.3024   5  22   2.6158   6.6592   3.3935   2.4120   2.7394   0.5190   0.00    0.0
2024/01/10 00:05:02.999   -319956.2268  -6615967.6829  -3955854.2889   5  22   2.6160   6.6602   3.3935   2.4125   2.7386   0.5188   0.00    0.0
2024/01/10 00:05:03.999   -316885.9561  -6612864.4089  -3961288.7840   5  21   2.6852   6.7414   3.7476   2.5396   3.0241   1.1092   0.00    0.0
2024/01/10 00:05:04.999   -313814.5173  -6609754.3076  -3966720.5356   5  21   2.6853   6.7422   3.7474   2.5400   3.0232   1.1089   0.00    0.0
2024/01/10 00:05:05.999   -310743.8384  -6606636.0306  -3972147.6612   5  21   2.6855   6.7430   3.7472   2.5403   3.0223   1.1086   0.00    0.0
2024/01/10 00:05:06.999   -307671.5223  -6603515.7625  -3977573.4915   5  21   2.6857   6.7438   3.7470   2.5407   3.0214   1.1083   0.00    0.0
2024/01/10 00:05:07.999   -304599.0718  -6600387.5339  -3982992.9627   5  21   2.6859   6.7447   3.7468   2.5410   3.0205   1.1080   0.00    0.0
2024/01/10 00:05:08.999   -301523.2579  -6597255.2249  -3988410.7771   5  21   2.6861   6.7455   3.7466   2.5414   3.0195   1.1076   0.00    0.0
2024/01/10 00:05:09.999   -298448.9408  -6594117.5658  -3993825.4334   5  21   2.6863   6.7463   3.7464   2.5418   3.0186   1.1073   0.00    0.0
2024/01/10 00:05:10.999   -295373.2620  -6590977.8833  -3999237.8662   5  21   2.6864   6.7472   3.7463   2.5421   3.0177   1.1070   0.00    0.0
2024/01/10 00:05:11.999   -292296.8803  -6587828.9805  -4004643.4123   5  21   2.6866   6.7480   3.7461   2.5425   3.0168   1.1067   0.00    0.0
2024/01/10 00:05:12.999   -289220.9761  -6584679.3027  -4010049.2698   5  21   2.6868   6.7489   3.7459   2.5428   3.0159   1.1063   0.00    0.0
2024/01/10 00:05:13.999   -286142.6756  -6581519.8417  -4015449.3586   5  21   2.6870   6.7497   3.7457   2.5432   3.0150   1.1060   0.00    0.0
2024/01/10 00:05:14.999   -283064.1170  -6578356.0798  -4020846.2534   5  21   2.6872   6.7506   3.7456   2.5436   3.0141   1.1057   0.00    0.0
2024/01/10 00:05:15.999   -279985.4871  -6575188.5628  -4026239.5195   5  21   2.6874   6.7514   3.7454   2.5439   3.0132   1.1054   0.00    0.0
2024/01/10 00:05:16.999   -276905.8651  -6572015.6841  -4031628.7059   5  21   2.6876   6.7523   3.7452   2.5443   3.0123   1.1050   0.00    0.0
2024/01/10 00:05:17.999   -273825.9786  -6568836.5062  -4037017.5994   5  21   2.6878   6.7531   3.7451   2.5446   3.0114   1.1047   0.00    0.0
2024/01/10 00:05:18.999   -270745.9381  -6565653.9276  -4042399.8640   5  21   2.6880   6.7540   3.7449   2.5450   3.0105   1.1044   0.00    0.0
2024/01/10 00:05:19.999   -267663.3191  -6562462.0459  -4047778.0244   5  20   2.7275   6.8105   4.0405   2.4653   3.2211   0.7200   0.00    0.0
2024/01/10 00:05:20.999   -264580.7070  -6559267.7924  -4053152.6249   5  20   2.7277   6.8114   4.0402   2.4657   3.2203   0.7199   0.00    0.0
2024/01/10 00:05:21.999   -261497.6925  -6556071.7993  -4058528.4255   5  20   2.7278   6.8123   4.0400   2.4661   3.2196   0.7197   0.00    0.0
2024/01/10 00:05:22.999   -258414.2814  -6552864.6736  -4063896.3008   5  20   2.7280   6.8132   4.0397   2.4665   3.2188   0.7196   0.00    0.0
2024/01/10 00:05:23.999   -255328.0635  -6549652.6124  -4069260.9234   5  20   2.7281   6.8142   4.0395   2.4669   3.2180   0.7195   0.00    0.0
2024/01/10 00:05:24.999   -252243.9817  -6546438.8372  -4074622.1764   5  20   2.7283   6.8151   4.0393   2.4673   3.2172   0.7193   0.00    0.0
2024/01/10 00:05:25.999   -249157.6628  -6543217.6155  -4079981.0815   5  20   2.7284   6.8160   4.0390   2.4677   3.2164   0.7192   0.00    0.0
2024/01/10 00:05:26.999   -246072.5927  -6539993.5626  -4085336.6768   5  20   2.7286   6.8169   4.0388   2.4681   3.2157   0.7190   0.00    0.0
2024/01/10 00:05:27.999   -242984.9206  -6536762.2454  -4090687.6397   5  20   2.7287   6.8179   4.0386   2.4685   3.2149   0.7189   0.00    0.0
2024/01/10 00:05:28.999   -239896.0985  -6533524.7834  -4096033.3692   5  20   2.7289   6.8188   4.0383   2.4689   3.2141   0.7188   0.00    0.0
2024/01/10 00:05:29.999   -236807.5510  -6530284.2959  -4101378.3134   5  20   2.7290   6.8198   4.0381   2.4693   3.2133   0.7186   0.00    0.0
2024/01/10 00:05:30.999   -233718.4394  -6527037.6043  -4106718.8115   5  20   2.7292   6.8207   4.0379   2.4697   3.2126   0.7185   0.00    0.0
2024/01/10 00:05:31.999   -230627.8835  -6523786.5950  -4112057.5920   5  20   2.7293   6.8216   4.0377   2.4701   3.2118   0.7183   0.00    0.0
2024/01/10 00:05:32.999   -227537.4914  -6520529.3593  -4117390.3738   5  20   2.7295   6.8226   4.0374   2.4705   3.2110   0.7182   0.00    0.0
2024/01/10 00:05:33.999   -224445.3672  -6517268.8024  -4122720.2047   5  20   2.7297   6.8235   4.0372   2.4709   3.2103   0.7180   0.00    0.0
2024/01/10 00:05:34.999   -221353.9097  -6514000.6814  -4128044.2602   5  20   2.7298   6.8245   4.0370   2.4713   3.2095   0.7179   0.00    0.0
2024/01/10 00:05:35.999   -218261.1374  -6510725.3935  -4133366.9790   5  20   2.7300   6.8254   4.0368   2.4717   3.2087   0.7177   0.00    0.0
2024/01/10 00:05:36.999   -215168.2892  -6507453.8602  -4138689.9223   5  20   2.7301   6.8264   4.0366   2.4721   3.2079   0.7176   0.00    0.0
2024/01/10 00:05:37.999   -212074.6243  -6504167.9978  -4144003.0041   5  20   2.7303   6.8274   4.0364   2.4725   3.2072   0.7175   0.00    0.0
2024/01/10 00:05:38.999   -208979.7890  -6500881.3358  -4149315.2655   5  20   2.7305   6.8283   4.0362   2.4729   3.2064   0.7173   0.00    0.0
2024/01/10 00:05:39.999   -205883.7758  -6497590.2347  -4154624.6533   5  20   2.7306   6.8293   4.0359   2.4733   3.2056   0.7172   0.00    0.0
2024/01/10 00:05:40.999   -202787.9436  -6494291.5701  -4159929.8700   5  20   2.7308   6.8303   4.0357   2.4737   3.2049   0.7170   0.00    0.0
2024/01/10 00:05:41.999   -199692.8261  -6490987.6635  -4165229.8791   5  20   2.7310   6.8312   4.0355   2.4742   3.2041   0.7169   0.00    0.0
2024/01/10 00:05:42.999   -196594.2293  -6487678.7066  -4170526.2434   5  20   2.7311   6.8322   4.0353   2.4746   3.2033   0.7167   0.00    0.0
2024/01/10 00:05:43.999   -193497.2231  -6484365.4700  -4175820.1624   5  20   2.7313   6.8332   4.0351   2.4750   3.2026   0.7166   0.00    0.0
2024/01/10 00:05:44.999   -190398.5173  -6481046.9222  -4181111.3731   5  20   2.7315   6.8342   4.0349   2.4754   3.2018   0.7164   0.00    0.0
2024/01/10 00:05:45.999   -187298.4509  -6477724.2525  -4186397.0422   5  20   2.7316   6.8352   4.0347   2.4758   3.2011   0.7162   0.00    0.0
2024/01/10 00:05:46.999   -184199.2500  -6474394.2163  -4191680.2602   5  20   2.7318   6.8361   4.0345   2.4762   3.2003   0.7161   0.00    0.0
2024/01/10 00:05:47.999   -181097.3288  -6471058.9779  -4196959.3107   5  20   2.7320   6.8371   4.0344   2.4766   3.1995   0.7159   0.00    0.0
2024/01/10 00:05:48.999   -177997.3004  -6467721.1603  -4202233.6978   5  20   2.7322   6.8381   4.0342   2.4771   3.1988   0.7158   0.00    0.0
2024/01/10 00:05:49.999   -174895.4936  -6464377.2395  -4207506.9448   5  20   2.7323   6.8391   4.0340   2.4775   3.1980   0.7156   0.00    0.0
2024/01/10 00:05:50.999   -171793.5803  -6461027.3707  -4212775.4633   5  20   2.7325   6.8401   4.0338   2.4779   3.1973   0.7155   0.00    0.0
2024/01/10 00:05:51.999   -168689.9557  -6457674.0063  -4218041.4337   5  20   2.7327   6.8411   4.0336   2.4783   3.1965   0.7153   0.00    0.0
2024/01/10 00:05:52.999   -165587.6072  -6454313.5198  -4223301.5218   5  20   2.7329   6.8421   4.0334   2.4787   3.1957   0.7152   0.00    0.0
2024/01/10 00:05:53.999   -162482.3474  -6450948.1800  -4228558.7207   5  20   2.7330   6.8431   4.0332   2.4792   3.1950   0.7150   0.00    0.0
2024/01/10 00:05:54.999   -159376.1013  -6447580.0115  -4233812.2392   5  20   2.7332   6.8442   4.0331   2.4796   3.1942   0.7148   0.00    0.0
2024/01/10 00:05:55.999   -156272.5826  -6444204.7538  -4239063.5749   5  20   2.7334   6.8452   4.0329   2.4800   3.1935   0.7147   0.00    0.0
2024/01/10 00:05:56.999   -153165.5251  -6440822.9760  -4244310.1644   5  20   2.7336   6.8462   4.0327   2.4805   3.1927   0.7145   0.00    0.0
2024/01/10 00:05:57.999   -150058.9389  -6437438.6936  -4249551.1301   5  20   2.7338   6.8472   4.0325   2.4809   3.1920   0.7144   0.00    0.0
2024/01/10 00:05:58.999   -146950.4060  -6434048.4120  -4254791.6188   5  20   2.7339   6.8482   4.0324   2.4813   3.1912   0.7142   0.00    0.0
2024/01/10 00:05:59.999   -143842.2280  -6430655.5458  -4260026.6098   5  20   2.7341   6.8493   4.0322   2.4817   3.1905   0.7140   0.00    0.0
2024/01/10 00:06:00.999   -140732.7314  -6427251.6093  -4265256.0527   5  20   2.7343   6.8503   4.0320   2.4822   3.1897   0.7139   0.00    0.0
2024/01/10 00:06:01.999   -137623.2903  -6423846.9328  -4270488.1472   5  20   2.7345   6.8513   4.0318   2.4826   3.1890   0.7137   0.00    0.0
2024/01/10 00:06:02.999   -134514.6625  -6420434.2794  -4275709.4783   5  20   2.7347   6.8524   4.0317   2.4830   3.1882   0.7136   0.00    0.0
2024/01/10 00:06:03.999   -131402.9800  -6417019.8102  -4280931.1843   5  20   2.7349   6.8534   4.0315   2.4835   3.1875   0.7134   0.00    0.0
2024/01/10 00:06:04.999   -128292.6754  -6413601.0061  -4286147.8903   5  20   2.7350   6.8544   4.0314   2.4839   3.1867   0.7132   0.00    0.0
2024/01/10 00:06:05.999   -125183.1750  -6410174.8123  -4291360.0296   5  20   2.7352   6.8555   4.0312   2.4843   3.1860   0.7131   0.00    0.0
2024/01/10 00:06:06.999   -122069.0294  -6406742.6266  -4296569.5036   5  20   2.7354   6.8565   4.0310   2.4848   3.1852   0.7129   0.00    0.0
2024/01/10 00:06:07.999   -118955.9877  -6403309.1903  -4301778.4208   5  20   2.7356   6.8576   4.0309   2.4852   3.1845   0.7127   0.00    0.0
2024/01/10 00:06:08.999   -115842.0225  -6399865.5333  -4306976.6997   5  20   2.7358   6.8586   4.0307   2.4857   3.1837   0.7126   0.00    0.0
2024/01/10 00:06:09.999   -112727.2544  -6396418.7226  -4312176.5641   5  20   2.7360   6.8597   4.0306   2.4861   3.1830   0.7124   0.00    0.0
2024/01/10 00:06:10.999   -109612.5620  -6392966.3341  -4317370.0832   5  20   2.7362   6.8607   4.0304   2.4865   3.1823   0.7122   0.00    0.0
2024/01/10 00:06:11.999   -106497.9337  -6389511.3615  -4322561.7115   5  20   2.7364   6.8618   4.0303   2.4870   3.1815   0.7120   0.00    0.0
2024/01/10 00:06:12.999   -103381.8875  -6386050.6029  -4327746.8079   5  20   2.7366   6.8629   4.0301   2.4874   3.1808   0.7119   0.00    0.0
2024/01/10 00:06:13.999   -100265.9912  -6382581.6571  -4332928.4137   5  20   2.7368   6.8639   4.0300   2.4879   3.1800   0.7117   0.00    0.0
2024/01/10 00:06:14.999    -97147.8030  -6379111.1792  -4338110.4867   5  20   2.7370   6.8650   4.0299   2.4883   3.1793   0.7115   0.00    0.0
2024/01/10 00:06:15.999    -94030.0119  -6375635.9636  -4343285.9655   5  20   2.7372   6.8661   4.0297   2.4888   3.1786   0.7113   0.00    0.0
2024/01/10 00:06:16.999    -90910.1366  -6372154.4128  -4348457.9963   5  20   2.7374   6.8672   4.0296   2.4892   3.1778   0.7112   0.00    0.0
2024/01/10 00:06:17.999    -87792.4510  -6368665.1776  -4353624.9512   5  20   2.7376   6.8682   4.0295   2.4897   3.1771   0.7110   0.00    0.0
2024/01/10 00:06:18.999    -84673.1104  -6365176.9584  -4358790.5561   5  20   2.7378   6.8693   4.0293   2.4901   3.1764   0.7108   0.00    0.0
2024/01/10 00:06:19.999    -81553.4889  -6361680.9872  -4363950.8232   5  20   2.7380   6.8704   4.0292   2.4906   3.1756   0.7106   0.00    0.0
2024/01/10 00:06:20.999    -78432.0436  -6358177.9762  -4369106.8238   5  20   2.7382   6.8715   4.0291   2.4910   3.1749   0.7104   0.00    0.0
2024/01/10 00:06:21.999    -75310.2902  -6354671.4180  -4374259.5170   5  20   2.7384   6.8726   4.0289   2.4915   3.1742   0.7103   0.00    0.0
2024/01/10 00:06:22.999    -72189.9023  -6351157.2760  -4379408.4580   5  20   2.7386   6.8737   4.0288   2.4919   3.1734   0.7101   0.00    0.0
2024/01/10 00:06:23.999    -69066.8402  -6347643.2479  -4384554.0955   5  20   2.7388   6.8748   4.0287   2.4924   3.1727   0.7099   0.00    0.0
2024/01/10 00:06:24.999    -65944.2925  -6344120.7916  -4389695.7836   5  20   2.7390   6.8759   4.0286   2.4928   3.1720   0.7097   0.00    0.0
2024/01/10 00:06:25.999    -62819.8998  -6340593.7883  -4394834.1466   5  20   2.7392   6.8770   4.0284   2.4933   3.1712   0.7095   0.00    0.0
2024/01/10 00:06:26.999    -59695.3522  -6337061.3375  -4399967.4272   5  20   2.7394   6.8781   4.0283   2.4938   3.1705   0.7093   0.00    0.0
2024/01/10 00:06:27.999    -56571.4947  -6333524.6644  -4405097.8973   5  20   2.7396   6.8792   4.0282   2.4942   3.1698   0.7092   0.00    0.0
2024/01/10 00:06:28.999    -53447.1151  -6329983.5927  -4410224.1472   5  20   2.7398   6.8803   4.0281   2.4947   3.1691   0.7090   0.00    0.0
2024/01/10 00:06:29.999    -50320.3891  -6326436.3614  -4415346.3398   5  20   2.7401   6.8814   4.0280   2.4951   3.1683   0.7088   0.00    0.0
2024/01/10 00:06:30.999    -47193.1214  -6322885.7012  -4420465.1938   5  20   2.7403   6.8826   4.0279   2.4956   3.1676   0.7086   0.00    0.0
2024/01/10 00:06:31.999    -44067.4901  -6319329.4556  -4425579.1705   5  20   2.7405   6.8837   4.0278   2.4961   3.1669   0.7084   0.00    0.0
2024/01/10 00:06:32.999    -40938.3189  -6315765.3112  -4430691.4463   5  20   2.7407   6.8848   4.0277   2.4965   3.1662   0.7082   0.00    0.0
2024/01/10 00:06:33.999    -37810.7834  -6312200.8594  -4435799.4522   5  20   2.7409   6.8859   4.0276   2.4970   3.1654   0.7080   0.00    0.0
2024/01/10 00:06:34.999    -34682.6339  -6308626.6111  -4440899.1151   5  20   2.7411   6.8871   4.0275   2.4975   3.1647   0.7078   0.00    0.0
2024/01/10 00:06:35.999    -31553.4322  -6305049.3220  -4445999.7825   5  20   2.7413   6.8882   4.0274   2.4979   3.1640   0.7076   0.00    0.0
2024/01/10 00:06:36.999    -28424.6754  -6301468.0301  -4451094.6720   5  20   2.7416   6.8894   4.0273   2.4984   3.1633   0.7074   0.00    0.0
2024/01/10 00:06:37.999    -25292.7014  -6297880.2302  -4456188.8422   5  20   2.7418   6.8905   4.0272   2.4989   3.1626   0.7072   0.00    0.0
2024/01/10 00:06:38.999    -22162.0552  -6294290.2817  -4461274.7353   5  20   2.7420   6.8916   4.0271   2.4993   3.1619   0.7070   0.00    0.0
2024/01/10 00:06:39.999    -19030.8924  -6290693.5916  -4466359.3281   5  20   2.7422   6.8928   4.0270   2.4998   3.1611   0.7068   0.00    0.0
2024/01/10 00:06:40.999    -15898.8359  -6287089.8635  -4471438.1868   5  20   2.7425   6.8939   4.0269   2.5003   3.1604   0.7066   0.00    0.0
2024/01/10 00:06:41.999    -12767.3674  -6283483.9536  -4476515.2186   5  20   2.7427   6.8951   4.0268   2.5008   3.1597   0.7064   0.00    0.0
2024/01/10 00:06:42.999     -9634.3003  -6279873.4083  -4481588.8197   5  20   2.7429   6.8963   4.0268   2.5012   3.1590   0.7062   0.00    0.0
2024/01/10 00:06:43.999     -6501.3564  -6276255.8564  -4486655.9030   5  20   2.7431   6.8974   4.0267   2.5017   3.1583   0.7060   0.00    0.0
2024/01/10 00:06:44.999     -3365.3221  -6272635.8419  -4491720.5502   5  20   2.7434   6.8986   4.0266   2.5022   3.1576   0.7058   0.00    0.0
2024/01/10 00:06:45.999      -232.1660  -6269008.5209  -4496781.0527   5  20   2.7436   6.8997   4.0265   2.5027   3.1569   0.7056   0.00    0.0
2024/01/10 00:06:46.999      2903.4301  -6265376.6724  -4501837.3437   5  20   2.7438   6.9009   4.0264   2.5031   3.1562   0.7054   0.00    0.0
2024/01/10 00:06:47.999      6038.4861  -6261738.6989  -4506888.6749   5  20   2.7441   6.9021   4.0264   2.5036   3.1555   0.7051   0.00    0.0
2024/01/10 00:06:48.999      9175.7480  -6258098.2467  -4511937.4822   5  20   2.7443   6.9033   4.0263   2.5041   3.1547   0.7049   0.00    0.0
2024/01/10 00:06:49.999     12311.9277  -6254451.4845  -4516983.6492   5  20   2.7445   6.9044   4.0262   2.5046   3.1540   0.7047   0.00    0.0
2024/01/10 00:06:50.999     15449.6506  -6250802.9897  -4522027.0428   5  20   2.7448   6.9056   4.0262   2.5051   3.1533   0.7045   0.00    0.0
2024/01/10 00:06:51.999     18586.2493  -6247146.0523  -4527063.2171   5  20   2.7450   6.9068   4.0261   2.5056   3.1526   0.7043   0.00    0.0
2024/01/10 00:06:52.999     21724.7241  -6243484.4992  -4532094.9355   5  20   2.7452   6.9080   4.0261   2.5060   3.1519   0.7041   0.00    0.0
2024/01/10 00:06:53.999     24863.4322  -6239817.2333  -4537123.8544   5  20   2.7455   6.9092   4.0260   2.5065   3.1512   0.7038   0.00    0.0
2024/01/10 00:06:54.999     28003.1862  -6236145.4325  -4542148.7129   5  20   2.7457   6.9104   4.0259   2.5070   3.1505   0.7036   0.00    0.0
2024/01/10 00:06:55.999     31143.0959  -6232469.3328  -4547171.5801   5  20   2.7459   6.9116   4.0259   2.5075   3.1498   0.7034   0.00    0.0
2024/01/10 00:06:56.999     34283.6105  -6228790.0644  -4552188.9297   5  20   2.7462   6.9128   4.0258   2.5080   3.1491   0.7032   0.00    0.0
2024/01/10 00:06:57.999     37424.2507  -6225103.9848  -4557202.3835   5  20   2.7464   6.9140   4.0258   2.5085   3.1484   0.7029   0.00    0.0
2024/01/10 00:06:58.999     40566.2196  -6221415.3155  -4562212.2360   5  20   2.7467   6.9152   4.0257   2.5090   3.1477   0.7027   0.00    0.0
2024/01/10 00:06:59.999     43707.5778  -6217716.7917  -4567217.3648   5  20   2.7469   6.9164   4.0257   2.5095   3.1471   0.7025   0.00    0.0
2024/01/10 00:07:00.999     46849.7687  -6214016.4339  -4572217.2638   5  20   2.7472   6.9176   4.0257   2.5100   3.1464   0.7022   0.00    0.0
2024/01/10 00:07:01.999     49992.8770  -6210311.3222  -4577216.5926   5  20   2.7474   6.9189   4.0256   2.5105   3.1457   0.7020   0.00    0.0
2024/01/10 00:07:02.999     53135.7145  -6206601.6462  -4582209.9988   5  20   2.7477   6.9201   4.0256   2.5110   3.1450   0.7018   0.00    0.0
2024/01/10 00:07:03.999     56280.1800  -6202886.9804  -4587198.3637   5  20   2.7479   6.9213   4.0255   2.5114   3.1443   0.7015   0.00    0.0
2024/01/10 00:07:04.999     59422.7895  -6199165.1517  -4592181.3613   5  20   2.7482   6.9225   4.0255   2.5119   3.1436   0.7013   0.00    0.0
2024/01/10 00:07:05.999     62568.1526  -6195442.9390  -4597167.4132   5  20   2.7484   6.9238   4.0255   2.5124   3.1429   0.7010   0.00    0.0
2024/01/10 00:07:06.999     65714.3110  -6191715.3157  -4602146.0708   5  20   2.7487   6.9250   4.0255   2.5129   3.1422   0.7008   0.00    0.0
2024/01/10 00:07:07.999     68859.6646  -6187977.9364  -4607118.6483   5  20   2.7489   6.9262   4.0254   2.5134   3.1415   0.7006   0.00    0.0
2024/01/10 00:07:08.999     72006.5487  -6184236.9198  -4612089.5265   5  20   2.7492   6.9275   4.0254   2.5139   3.1409   0.7003   0.00    0.0
2024/01/10 00:07:09.999     75152.7758  -6180495.0850  -4617055.3207   5  20   2.7494   6.9287   4.0254   2.5144   3.1402   0.7001   0.00    0.0
2024/01/10 00:07:10.999     78298.8389  -6176745.7547  -4622014.8018   5  20   2.7497   6.9300   4.0254   2.5149   3.1395   0.6998   0.00    0.0
2024/01/10 00:07:11.999     81448.3698  -6172989.6281  -4626973.8870   5  20   2.7500   6.9312   4.0254   2.5154   3.1388   0.6995   0.00    0.0
2024/01/10 00:07:12.999     84596.2430  -6169231.7177  -4631925.8469   5  20   2.7502   6.9325   4.0253   2.5160   3.1381   0.6993   0.00    0.0
2024/01/10 00:07:13.999     87744.3655  -6165463.3604  -4636874.1075   5  20   2.7505   6.9337   4.0253   2.5165   3.1375   0.6990   0.00    0.0
2024/01/10 00:07:14.999     90894.8057  -6161697.1856  -4641821.8211   5  20   2.7507   6.9350   4.0253   2.5170   3.1368   0.6988   0.00    0.0
2024/01/10 00:07:15.999     94042.3393  -6157923.7449  -4646762.6273   5  20   2.7510   6.9363   4.0253   2.5175   3.1361   0.6985   0.00    0.0
2024/01/10 00:07:16.999     97192.1497  -6154144.7802  -4651699.8041   5  20   2.7513   6.9375   4.0253   2.5180   3.1354   0.6982   0.00    0.0
2024/01/10 00:07:17.999    100344.7873  -6150361.2515  -4656634.5665   5  20   2.7515   6.9388   4.0253   2.5185   3.1348   0.6980   0.00    0.0
2024/01/10 00:07:18.999    103495.0967  -6146573.5450  -4661562.4670   5  20   2.7518   6.9401   4.0253   2.5190   3.1341   0.6977   0.00    0.0
2024/01/10 00:07:19.999    106646.7406  -6142782.2019  -4666490.1625   5  19   2.7911   7.7058   4.2111   2.1890   3.7359  -0.2982   0.00    0.0
2024/01/10 00:07:20.999    109797.6905  -6138983.4223  -4671410.7314   5  19   2.7913   7.7072   4.2109   2.1896   3.7352  -0.2979   0.00    0.0
2024/01/10 00:07:21.999    112951.5716  -6135183.5212  -4676330.2859   5  19   2.7916   7.7086   4.2107   2.1903   3.7344  -0.2977   0.00    0.0
2024/01/10 00:07:22.999    116103.7567  -6131372.6638  -4681240.6996   5  19   2.7918   7.7100   4.2105   2.1909   3.7336  -0.2975   0.00    0.0
2024/01/10 00:07:23.999    119257.1363  -6127560.3450  -4686149.7605   5  19   2.7921   7.7115   4.2103   2.1915   3.7329  -0.2973   0.00    0.0
2024/01/10 00:07:24.999    122409.9017  -6123744.3646  -4691055.4512   5  19   2.7923   7.7129   4.2101   2.1922   3.7321  -0.2971   0.00    0.0
2024/01/10 00:07:25.999    125566.0637  -6119920.3287  -4695957.3860   5  19   2.7926   7.7144   4.2099   2.1928   3.7313  -0.2969   0.00    0.0
2024/01/10 00:07:26.999    128720.2546  -6116095.3239  -4700853.9171   5  19   2.7928   7.7158   4.2097   2.1935   3.7306  -0.2967   0.00    0.0
2024/01/10 00:07:27.999    131875.7705  -6112261.0655  -4705744.8159   5  19   2.7931   7.7173   4.2096   2.1941   3.7298  -0.2965   0.00    0.0
2024/01/10 00:07:28.999    135029.2897  -6108423.0523  -4710632.3426   5  19   2.7933   7.7187   4.2094   2.1948   3.7291  -0.2963   0.00    0.0
2024/01/10 00:07:29.999    138186.2130  -6104584.7389  -4715519.7918   5  19   2.7936   7.7202   4.2092   2.1954   3.7283  -0.2962   0.00    0.0
2024/01/10 00:07:30.999    141343.1290  -6100738.3465  -4720400.3216   5  19   2.7938   7.7216   4.2091   2.1961   3.7276  -0.2960   0.00    0.0
2024/01/10 00:07:31.999    144500.5892  -6096889.6189  -4725278.8100   5  19   2.7941   7.7231   4.2089   2.1967   3.7268  -0.2959   0.00    0.0
2024/01/10 00:07:32.999    147656.6136  -6093030.8718  -4730149.7747   5  19   2.7943   7.7246   4.2087   2.1974   3.7261  -0.2957   0.00    0.0
2024/01/10 00:07:33.999    150814.5953  -6089172.0599  -4735017.0806   5  19   2.7946   7.7260   4.2086   2.1980   3.7253  -0.2956   0.00    0.0
2024/01/10 00:07:34.999    153972.8148  -6085306.1180  -4739883.0221   5  19   2.7948   7.7275   4.2084   2.1987   3.7246  -0.2955   0.00    0.0
2024/01/10 00:07:35.999    157130.9881  -6081437.5901  -4744742.1694   5  19   2.7951   7.7290   4.2083   2.1993   3.7238  -0.2954   0.00    0.0
2024/01/10 00:07:36.999    160290.5038  -6077562.5867  -4749598.8919   5  19   2.7954   7.7305   4.2081   2.2000   3.7231  -0.2953   0.00    0.0
2024/01/10 00:07:37.999    163450.4414  -6073681.0709  -4754448.5702   5  19   2.7956   7.7320   4.2080   2.2006   3.7224  -0.2952   0.00    0.0
2024/01/10 00:07:38.999    166609.5432  -6069797.5816  -4759298.1008   5  19   2.7959   7.7335   4.2078   2.2013   3.7216  -0.2952   0.00    0.0
2024/01/10 00:07:39.999    169770.2934  -6065909.9258  -4764144.4540   5  19   2.7962   7.7350   4.2077   2.2020   3.7209  -0.2951   0.00    0.0
2024/01/10 00:07:40.999    172930.7205  -6062013.7229  -4768978.5035   5  19   2.7964   7.7365   4.2076   2.2026   3.7202  -0.2950   0.00    0.0
2024/01/10 00:07:41.999    176090.8067  -6058113.9578  -4773814.5034   5  19   2.7967   7.7380   4.2074   2.2033   3.7194  -0.2950   0.00    0.0
2024/01/10 00:07:42.999    179253.4750  -6054213.2595  -4778647.3256   5  19   2.7970   7.7395   4.2073   2.2039   3.7187  -0.2950   0.00    0.0
2024/01/10 00:07:43.999    182415.6571  -6050306.3096  -4783475.3552   5  19   2.7972   7.7410   4.2072   2.2046   3.7180  -0.2949   0.00    0.0
2024/01/10 00:07:44.999    185577.7586  -6046392.2964  -4788299.0919   5  19   2.7975   7.7425   4.2071   2.2052   3.7173  -0.2949   0.00    0.0
2024/01/10 00:07:45.999    188740.4246  -6042474.7032  -4793117.9458   5  19   2.7978   7.7440   4.2069   2.2059   3.7166  -0.2949   0.00    0.0
2024/01/10 00:07:46.999    191904.1402  -6038549.8538  -4797931.5358   5  19   2.7981   7.7456   4.2068   2.2065   3.7158  -0.2949   0.00    0.0
2024/01/10 00:07:47.999    195066.8457  -6034623.0599  -4802739.2633   5  18   2.9945   7.8754   4.5738   1.8338   4.0427  -1.4144   0.00    0.0
2024/01/10 00:07:48.999    198231.8831  -6030691.0987  -4807546.1909   5  18   2.9946   7.8770   4.5737   1.8345   4.0422  -1.4142   0.00    0.0
2024/01/10 00:07:49.999    201397.4561  -6026754.0468  -4812349.4976   5  18   2.9947   7.8787   4.5736   1.8352   4.0418  -1.4139   0.00    0.0
2024/01/10 00:07:50.999    204560.1080  -6022816.6574  -4817147.3144   5  18   2.9948   7.8804   4.5735   1.8360   4.0413  -1.4136   0.00    0.0
2024/01/10 00:07:51.999    207725.9506  -6018867.3657  -4821941.2124   5  18   2.9949   7.8820   4.5734   1.8367   4.0408  -1.4133   0.00    0.0
2024/01/10 00:07:52.999    210891.7528  -6014914.9865  -4826730.2091   5  18   2.9950   7.8837   4.5733   1.8374   4.0404  -1.4130   0.00    0.0
2024/01/10 00:07:53.999    214057.9042  -6010960.8560  -4831514.6397   5  18   2.9951   7.8854   4.5732   1.8381   4.0399  -1.4127   0.00    0.0
2024/01/10 00:07:54.999    217223.5781  -6007000.2460  -4836295.2865   5  18   2.9952   7.8871   4.5731   1.8388   4.0395  -1.4124   0.00    0.0
2024/01/10 00:07:55.999    220392.0002  -6003036.4175  -4841075.0579   5  18   2.9953   7.8888   4.5730   1.8396   4.0390  -1.4121   0.00    0.0
2024/01/10 00:07:56.999    223558.4783  -5999062.8387  -4845844.9198   5  18   2.9954   7.8905   4.5729   1.8403   4.0386  -1.4118   0.00    0.0
2024/01/10 00:07:57.999    226726.0854  -5995092.2766  -4850616.1063   5  18   2.9955   7.8922   4.5728   1.8410   4.0381  -1.4115   0.00    0.0
2024/01/10 00:07:58.999    229894.0253  -5991109.8833  -4855378.7731   5  18   2.9956   7.8939   4.5728   1.8418   4.0377  -1.4112   0.00    0.0
2024/01/10 00:07:59.999    233061.7416  -5987126.9265  -4860138.4161   5  18   2.9957   7.8956   4.5727   1.8425   4.0372  -1.4109   0.00    0.0
2024/01/10 00:08:00.999    236231.5837  -5983137.2005  -4864894.0969   5  18   2.9958   7.8973   4.5726   1.8432   4.0368  -1.4106   0.00    0.0
2024/01/10 00:08:01.999    239400.1953  -5979147.8628  -4869649.0236   5  18   2.9959   7.8990   4.5725   1.8440   4.0363  -1.4103   0.00    0.0
2024/01/10 00:08:02.999    242568.7554  -5975148.6123  -4874394.6220   5  18   2.9960   7.9007   4.5724   1.8447   4.0359  -1.4100   0.00    0.0
2024/01/10 00:08:03.999    245739.1461  -5971144.3642  -4879138.9005   5  18   2.9962   7.9025   4.5724   1.8454   4.0354  -1.4097   0.00    0.0
2024/01/10 00:08:04.999    248909.2830  -5967138.2920  -4883876.5375   5  18   2.9963   7.9042   4.5723   1.8462   4.0350  -1.4094   0.00    0.0
2024/01/10 00:08:05.999    252080.0938  -5963123.3532  -4888611.5881   5  18   2.9964   7.9059   4.5722   1.8469   4.0345  -1.4091   0.00    0.0
2024/01/10 00:08:06.999    255251.0249  -5959109.3813  -4893341.8450   5  18   2.9965   7.9076   4.5722   1.8477   4.0341  -1.4088   0.00    0.0
2024/01/10 00:08:07.999    258422.5698  -5955087.0336  -4898067.1291   5  18   2.9966   7.9094   4.5721   1.8484   4.0337  -1.4085   0.00    0.0
2024/01/10 00:08:08.999    261595.2608  -5951059.6494  -4902790.0231   5  18   2.9967   7.9111   4.5720   1.8492   4.0332  -1.4083   0.00    0.0
2024/01/10 00:08:09.999    264767.2816  -5947029.3420  -4907506.8125   5  18   2.9968   7.9129   4.5720   1.8499   4.0328  -1.4080   0.00    0.0
2024/01/10 00:08:10.999    267939.6855  -5942992.5630  -4912221.5630   5  18   2.9970   7.9146   4.5719   1.8507   4.0323  -1.4077   0.00    0.0
2024/01/10 00:08:11.999    271110.4883  -5938952.4568  -4916929.3177   5  18   2.9971   7.9164   4.5719   1.8514   4.0319  -1.4074   0.00    0.0
2024/01/10 00:08:12.999    274284.9873  -5934907.3797  -4921635.3101   5  18   2.9972   7.9181   4.5718   1.8522   4.0315  -1.4071   0.00    0.0
2024/01/10 00:08:13.999    277458.5894  -5930860.6069  -4926339.1698   5  18   2.9973   7.9199   4.5718   1.8529   4.0310  -1.4068   0.00    0.0
2024/01/10 00:08:14.999    280632.8118  -5926803.0287  -4931031.7619   5  18   2.9974   7.9216   4.5717   1.8537   4.0306  -1.4065   0.00    0.0
2024/01/10 00:08:15.999    283806.0067  -5922747.8444  -4935725.7077   5  18   2.9976   7.9234   4.5717   1.8544   4.0302  -1.4062   0.00    0.0
2024/01/10 00:08:16.999    286980.4666  -5918682.1501  -4940409.5817   5  18   2.9977   7.9252   4.5716   1.8552   4.0298  -1.4059   0.00    0.0
2024/01/10 00:08:17.999    290156.1271  -5914613.4538  -4945095.4093   5  18   2.9978   7.9269   4.5716   1.8560   4.0293  -1.4057   0.00    0.0
2024/01/10 00:08:18.999    293330.6109  -5910542.0263  -4949774.5008   5  18   2.9980   7.9287   4.5716   1.8567   4.0289  -1.4054   0.00    0.0
2024/01/10 00:08:19.999    296507.2974  -5906463.7604  -4954449.8837   5  18   2.9981   7.9305   4.5715   1.8575   4.0285  -1.4051   0.00    0.0
2024/01/10 00:08:20.999    299681.3032  -5902381.7046  -4959119.2205   5  18   2.9982   7.9323   4.5715   1.8583   4.0281  -1.4048   0.00    0.0
2024/01/10 00:08:21.999    302858.9871  -5898296.9512  -4963789.1182   5  18   2.9983   7.9341   4.5715   1.8590   4.0276  -1.4045   0.00    0.0
2024/01/10 00:08:22.999    306034.7136  -5894205.1660  -4968449.0716   5  18   2.9985   7.9359   4.5714   1.8598   4.0272  -1.4042   0.00    0.0
2024/01/10 00:08:23.999    309212.5410  -5890108.1724  -4973104.8075   5  18   2.9986   7.9377   4.5714   1.8606   4.0268  -1.4039   0.00    0.0
2024/01/10 00:08:24.999    312389.4400  -5886010.0754  -4977760.6908   5  18   2.9987   7.9395   4.5714   1.8614   4.0264  -1.4036   0.00    0.0
2024/01/10 00:08:25.999    315566.6414  -5881903.4406  -4982410.1869   5  18   2.9989   7.9413   4.5714   1.8621   4.0260  -1.4034   0.00    0.0
2024/01/10 00:08:26.999    318745.0678  -5877791.5279  -4987052.3449   5  18   2.9990   7.9431   4.5713   1.8629   4.0256  -1.4031   0.00    0.0
2024/01/10 00:08:27.999    321923.7100  -5873678.5788  -4991695.0203   5  18   2.9991   7.9449   4.5713   1.8637   4.0251  -1.4028   0.00    0.0
2024/01/10 00:08:28.999    325101.3603  -5869561.9020  -4996329.3496   5  18   2.9993   7.9467   4.5713   1.8645   4.0247  -1.4025   0.00    0.0
2024/01/10 00:08:29.999    328280.7359  -5865435.9397  -5000961.0672   5  18   2.9994   7.9485   4.5713   1.8653   4.0243  -1.4022   0.00    0.0
2024/01/10 00:08:30.999    331460.1038  -5861306.6296  -5005588.2215   5  18   2.9996   7.9503   4.5713   1.8661   4.0239  -1.4019   0.00    0.0
2024/01/10 00:08:31.999    334639.1214  -5857173.2706  -5010212.0462   5  18   2.9997   7.9522   4.5713   1.8668   4.0235  -1.4017   0.00    0.0
2024/01/10 00:08:32.999    337818.4720  -5853039.0451  -5014830.6774   5  18   2.9999   7.9540   4.5713   1.8676   4.0231  -1.4014   0.00    0.0
2024/01/10 00:08:33.999    340999.5509  -5848895.8088  -5019444.0982   5  18   3.0000   7.9558   4.5713   1.8684   4.0227  -1.4011   0.00    0.0
2024/01/10 00:08:34.999    344180.1561  -5844750.1597  -5024056.4476   5  18   3.0001   7.9577   4.5713   1.8692   4.0223  -1.4008   0.00    0.0
2024/01/10 00:08:35.999    347360.5116  -5840597.5830  -5028662.6408   5  18   3.0003   7.9595   4.5713   1.8700   4.0219  -1.4005   0.00    0.0
2024/01/10 00:08:36.999    350541.6817  -5836441.0013  -5033258.6204   5  18   3.0004   7.9614   4.5713   1.8708   4.0215  -1.4003   0.00    0.0
2024/01/10 00:08:37.999    353722.5364  -5832284.4845  -5037859.5305   5  18   3.0006   7.9632   4.5713   1.8716   4.0211  -1.4000   0.00    0.0
2024/01/10 00:08:38.999    356905.3099  -5828117.5995  -5042451.9345   5  18   3.0007   7.9651   4.5713   1.8724   4.0207  -1.3997   0.00    0.0
2024/01/10 00:08:39.999    360085.5720  -5823950.3366  -5047040.2419   5  18   3.0009   7.9669   4.5713   1.8732   4.0203  -1.3994   0.00    0.0
2024/01/10 00:08:40.999    363267.8563  -5819771.2449  -5051620.1504   5  18   3.0010   7.9688   4.5713   1.8740   4.0199  -1.3991   0.00    0.0
2024/01/10 00:08:41.999    366451.6743  -5815595.3902  -5056202.2783   5  18   3.0012   7.9706   4.5713   1.8748   4.0195  -1.3989   0.00    0.0
2024/01/10 00:08:42.999    369633.7691  -5811414.9630  -5060780.4799   5  18   3.0013   7.9725   4.5714   1.8756   4.0191  -1.3986   0.00    0.0
2024/01/10 00:08:43.999    372816.8786  -5807226.3408  -5065348.9464   5  18   3.0015   7.9744   4.5714   1.8764   4.0187  -1.3983   0.00    0.0
2024/01/10 00:08:44.999    376000.3550  -5803029.5741  -5069912.3261   5  18   3.0017   7.9763   4.5714   1.8772   4.0184  -1.3980   0.00    0.0
2024/01/10 00:08:45.999    379184.4433  -5798837.3640  -5074478.3902   5  18   3.0018   7.9781   4.5714   1.8780   4.0180  -1.3977   0.00    0.0
2024/01/10 00:08:46.999    382369.0778  -5794635.2100  -5079033.8531   5  18   3.0020   7.9800   4.5715   1.8789   4.0176  -1.3975   0.00    0.0
2024/01/10 00:08:47.999    385552.5451  -5790429.7923  -5083588.0148   5  18   3.0021   7.9819   4.5715   1.8797   4.0172  -1.3972   0.00    0.0
2024/01/10 00:08:48.999    388737.8651  -5786218.7144  -5088134.7366   5  18   3.0023   7.9838   4.5715   1.8805   4.0168  -1.3969   0.00    0.0
2024/01/10 00:08:49.999    391921.7058  -5782007.8315  -5092681.7185   5  18   3.0025   7.9857   4.5716   1.8813   4.0164  -1.3966   0.00    0.0
2024/01/10 00:08:50.999    395106.1371  -5777784.3697  -5097217.7828   5  18   3.0026   7.9876   4.5716   1.8821   4.0161  -1.3964   0.00    0.0
2024/01/10 00:08:51.999    398292.4766  -5773564.5415  -5101755.8355   5  18   3.0028   7.9895   4.5717   1.8830   4.0157  -1.3961   0.00    0.0
2024/01/10 00:08:52.999    401478.1477  -5769333.7048  -5106285.9137   5  18   3.0030   7.9914   4.5717   1.8838   4.0153  -1.3958   0.00    0.0
2024/01/10 00:08:53.999    404664.0969  -5765101.3561  -5110812.9503   5  18   3.0031   7.9933   4.5718   1.8846   4.0149  -1.3955   0.00    0.0
2024/01/10 00:08:54.999    407850.4664  -5760862.7885  -5115335.6088   5  18   3.0033   7.9953   4.5718   1.8854   4.0146  -1.3953   0.00    0.0
2024/01/10 00:08:55.999    411036.3455  -5756623.5546  -5119851.6546   5  18   3.0035   7.9972   4.5719   1.8863   4.0142  -1.3950   0.00    0.0
2024/01/10 00:08:56.999    414223.3371  -5752374.6973  -5124365.0182   5  18   3.0036   7.9991   4.5719   1.8871   4.0138  -1.3947   0.00    0.0
2024/01/10 00:08:57.999    417410.5490  -5748123.6748  -5128874.2226   5  18   3.0038   8.0010   4.5720   1.8879   4.0135  -1.3945   0.00    0.0
2024/01/10 00:08:58.999    420597.6480  -5743870.5636  -5133378.6739   5  17   3.4218   9.1786   5.6104   3.3063   5.5424   1.8396   0.00    0.0
2024/01/10 00:08:59.999    423785.6086  -5739608.8887  -5137876.5692   5  17   3.4220   9.1811   5.6108   3.3072   5.5429   1.8401   0.00    0.0
2024/01/10 00:09:00.999    426972.7774  -5735343.0214  -5142372.0330   5  17   3.4222   9.1836   5.6112   3.3082   5.5433   1.8407   0.00    0.0
2024/01/10 00:09:01.999    430161.1824  -5731077.2425  -5146863.8672   5  17   3.4224   9.1860   5.6116   3.3091   5.5438   1.8412   0.00    0.0
2024/01/10 00:09:02.999    433349.5919  -5726803.3096  -5151353.0994   5  17   3.4226   9.1885   5.6120   3.3100   5.5442   1.8417   0.00    0.0
2024/01/10 00:09:03.999    436538.2104  -5722526.6057  -5155834.3898   5  17   3.4227   9.1910   5.6124   3.3109   5.5447   1.8422   0.00    0.0
2024/01/10 00:09:04.999    439726.7268  -5718243.4069  -5160310.8255   5  17   3.4229   9.1935   5.6128   3.3119   5.5452   1.8428   0.00    0.0
2024/01/10 00:09:05.999    442915.9398  -5713958.9232  -5164782.4948   5  17   3.4231   9.1960   5.6132   3.3128   5.5456   1.8433   0.00    0.0
2024/01/10 00:09:06.999    446104.1792  -5709662.5774  -5169250.4561   5  17   3.4233   9.1985   5.6137   3.3137   5.5461   1.8438   0.00    0.0
2024/01/10 00:09:07.999    449294.2638  -5705368.6523  -5173715.5148   5  17   3.4235   9.2010   5.6141   3.3147   5.5465   1.8444   0.00    0.0
2024/01/10 00:09:08.999    452484.3519  -5701070.5335  -5178176.5618   5  17   3.4237   9.2035   5.6145   3.3156   5.5470   1.8449   0.00    0.0
2024/01/10 00:09:09.999    455674.7740  -5696765.3337  -5182631.4502   5  17   3.4239   9.2060   5.6149   3.3165   5.5475   1.8454   0.00    0.0
2024/01/10 00:09:10.999    458864.3104  -5692454.7704  -5187078.4058   5  17   3.4241   9.2085   5.6154   3.3175   5.5480   1.8460   0.00    0.0
2024/01/10 00:09:11.999    462055.3789  -5688139.7880  -5191526.1063   5  17   3.4243   9.2111   5.6158   3.3184   5.5484   1.8465   0.00    0.0
2024/01/10 00:09:12.999    465246.0893  -5683823.0532  -5195966.7592   5  17   3.4245   9.2136   5.6163   3.3193   5.5489   1.8470   0.00    0.0
2024/01/10 00:09:13.999    468436.8880  -5679501.8266  -5200407.7048   5  17   3.4247   9.2161   5.6167   3.3203   5.5494   1.8476   0.00    0.0
2024/01/10 00:09:14.999    471627.3248  -5675173.8750  -5204836.3219   5  17   3.4249   9.2187   5.6171   3.3212   5.5499   1.8481   0.00    0.0
2024/01/10 00:09:15.999    474819.2522  -5670842.6669  -5209264.8238   5  17   3.4251   9.2212   5.6176   3.3222   5.5504   1.8486   0.00    0.0
2024/01/10 00:09:16.999    478011.0016  -5666509.1891  -5213691.6034   5  17   3.4253   9.2237   5.6180   3.3231   5.5508   1.8492   0.00    0.0
2024/01/10 00:09:17.999    481202.5922  -5662168.8423  -5218108.7141   5  17   3.4255   9.2263   5.6185   3.3241   5.5513   1.8497   0.00    0.0
2024/01/10 00:09:18.999    484394.8059  -5657825.1934  -5222522.1591   5  17   3.4257   9.2288   5.6189   3.3250   5.5518   1.8502   0.00    0.0
2024/01/10 00:09:19.999    487586.2123  -5653474.0043  -5226931.5968   5  17   3.4259   9.2314   5.6194   3.3260   5.5523   1.8508   0.00    0.0
2024/01/10 00:09:20.999    490778.8111  -5649122.3138  -5231338.3676   5  17   3.4261   9.2340   5.6199   3.3269   5.5528   1.8513   0.00    0.0
2024/01/10 00:09:21.999    493971.9542  -5644764.4205  -5235739.6873   5  17   3.4264   9.2365   5.6203   3.3279   5.5533   1.8518   0.00    0.0
2024/01/10 00:09:22.999    497164.2653  -5640400.8503  -5240133.9807   5  17   3.4266   9.2391   5.6208   3.3288   5.5538   1.8523   0.00    0.0
2024/01/10 00:09:23.999    500357.7406  -5636036.5033  -5244526.1575   5  17   3.4268   9.2417   5.6213   3.3298   5.5543   1.8529   0.00    0.0
2024/01/10 00:09:24.999    503550.6353  -5631663.2236  -5248913.5114   5  17   3.4270   9.2442   5.6218   3.3307   5.5548   1.8534   0.00    0.0
2024/01/10 00:09:25.999    506744.4282  -5627288.9392  -5253295.7211   5  17   3.4272   9.2468   5.6222   3.3317   5.5553   1.8539   0.00    0.0
2024/01/10 00:09:26.999    509938.0968  -5622909.8585  -5257673.1148   5  17   3.4274   9.2494   5.6227   3.3326   5.5558   1.8545   0.00    0.0
2024/01/10 00:09:27.999    513131.2231  -5618521.9447  -5262045.5664   5  17   3.4276   9.2520   5.6232   3.3336   5.5563   1.8550   0.00    0.0
2024/01/10 00:09:28.999    516326.4266  -5614136.9032  -5266416.8794   5  17   3.4279   9.2546   5.6237   3.3346   5.5568   1.8555   0.00    0.0
2024/01/10 00:09:29.999    519519.7480  -5609745.9404  -5270781.2018   5  17   3.4281   9.2572   5.6242   3.3355   5.5574   1.8561   0.00    0.0
2024/01/10 00:09:30.999    522714.3042  -5605342.0557  -5275136.4694   5  17   3.4283   9.2598   5.6247   3.3365   5.5579   1.8566   0.00    0.0
2024/01/10 00:09:31.999    525909.8884  -5600943.8309  -5279495.2056   5  17   3.4285   9.2624   5.6252   3.3375   5.5584   1.8571   0.00    0.0
2024/01/10 00:09:32.999    529104.8157  -5596539.6989  -5283846.1953   5  17   3.4287   9.2650   5.6257   3.3384   5.5589   1.8577   0.00    0.0
2024/01/10 00:09:33.999    532299.8067  -5592131.3417  -5288193.6659   5  17   3.4290   9.2676   5.6262   3.3394   5.5594   1.8582   0.00    0.0
2024/01/10 00:09:34.999    535494.6676  -5587715.1724  -5292533.7414   5  17   3.4292   9.2702   5.6267   3.3404   5.5600   1.8587   0.00    0.0
2024/01/10 00:09:35.999    538690.6941  -5583292.5294  -5296871.6755   5  17   3.4294   9.2729   5.6272   3.3414   5.5605   1.8592   0.00    0.0
2024/01/10 00:09:36.999    541886.5200  -5578869.9432  -5301201.2796   5  17   3.4296   9.2755   5.6277   3.3423   5.5610   1.8598   0.00    0.0
2024/01/10 00:09:37.999    545081.8835  -5574443.6412  -5305530.5789   5  17   3.4299   9.2781   5.6282   3.3433   5.5616   1.8603   0.00    0.0
2024/01/10 00:09:38.999    548276.9163  -5570014.0851  -5309854.1551   5  17   3.4301   9.2808   5.6288   3.3443   5.5621   1.8608   0.00    0.0
2024/01/10 00:09:39.999    551473.8824  -5565574.2563  -5314171.3673   5  17   3.4303   9.2834   5.6293   3.3453   5.5626   1.8614   0.00    0.0
2024/01/10 00:09:40.999    554670.1467  -5561136.5593  -5318486.1274   5  17   3.4306   9.2861   5.6298   3.3462   5.5632   1.8619   0.00    0.0
2024/01/10 00:09:41.999    557866.4736  -5556690.5814  -5322795.8319   5  17   3.4308   9.2887   5.6303   3.3472   5.5637   1.8624   0.00    0.0
2024/01/10 00:09:42.999    561052.2757  -5552253.7182  -5327080.3448   5  12   3.9560  10.0883   7.5653   3.3385   5.2005   1.3549   0.00    0.0
2024/01/10 00:09:43.999    564188.7253  -5547838.0300  -5331431.7338   5   8  10.4601  18.4776  16.4475  12.4288  14.7069  11.6204   0.00    0.0
2024/01/10 00:09:44.999    567359.5252  -5543345.4758  -5335725.0681   5   7  10.4624  18.4803  16.4513  12.4308  14.7086  11.6236   0.00    0.0
2024/01/10 00:09:45.999    570584.3576  -5538903.9796  -5339952.6616   5   7  10.4648  18.4829  16.4551  12.4329  14.7103  11.6269   0.00    0.0
2024/01/10 00:09:46.999    573753.2393  -5534408.8151  -5344322.8244   5   7  10.4671  18.4856  16.4587  12.4349  14.7119  11.6300   0.00    0.0
2024/01/10 00:09:47.999    576919.9563  -5529941.2701  -5348706.3646   5   7  10.4694  18.4882  16.4623  12.4369  14.7134  11.6331   0.00    0.0
2024/01/10 00:09:48.999    580138.8030  -5525368.3836  -5353019.1920   5   7  10.4718  18.4910  16.4661  12.4390  14.7152  11.6364   0.00    0.0
2024/01/10 00:09:49.999    583262.3123  -5520920.2432  -5357413.1839   5   7  10.4741  18.4936  16.4697  12.4409  14.7167  11.6395   0.00    0.0
2024/01/10 00:09:50.999    586406.4362  -5516410.1436  -5361731.8223   5   7  10.4764  18.4963  16.4734  12.4430  14.7184  11.6426   0.00    0.0
2024/01/10 00:09:51.999    589523.1603  -5512012.4371  -5366232.1634   5   7  10.4787  18.4988  16.4769  12.4449  14.7198  11.6456   0.00    0.0
2024/01/10 00:09:52.999    592731.6312  -5507516.0086  -5370633.4652   5   7  10.4811  18.5015  16.4806  12.4469  14.7215  11.6488   0.00    0.0
2024/01/10 00:09:53.999    595837.7721  -5503074.8892  -5375081.7343   5   7  10.4833  18.5041  16.4842  12.4489  14.7230  11.6519   0.00    0.0
2024/01/10 00:09:54.999    598905.0355  -5498734.0331  -5379524.8153   5   7  10.4855  18.5065  16.4877  12.4507  14.7244  11.6549   0.00    0.0
2024/01/10 00:09:55.999    602030.3464  -5494352.2211  -5383951.9034   5   7  10.4878  18.5090  16.4913  12.4526  14.7259  11.6580   0.00    0.0
2024/01/10 00:09:56.999    605162.6800  -5489986.5082  -5388394.5484   5   8  10.4901  18.5116  16.4949  12.4545  14.7274  11.6611   0.00    0.0
2024/01/10 00:09:57.999    608304.3350  -5485587.7262  -5392790.5845   5   7  10.4924  18.5141  16.4985  12.4565  14.7290  11.6643   0.00    0.0
2024/01/10 00:09:58.999    611524.2023  -5481061.8776  -5397184.1527   5   7  10.4948  18.5169  16.5023  12.4587  14.7307  11.6675   0.00    0.0
2024/01/10 00:09:59.999    614570.4926  -5476738.7307  -5401697.2593   5   7  10.4970  18.5193  16.5058  12.4605  14.7321  11.6705   0.00    0.0
2024/01/10 00:10:00.999    617722.5372  -5472317.4599  -5406154.0650   5   8  10.4994  18.5219  16.5094  12.4625  14.7337  11.6737   0.00    0.0
2024/01/10 00:10:01.999    620707.9002  -5468118.8071  -5410775.8046   5   7  10.5014  18.5241  16.5127  12.4641  14.7349  11.6765   0.00    0.0
2024/01/10 00:10:02.999    623837.7134  -5463671.2976  -5415238.5247   5   7  10.5037  18.5268  16.5164  12.4661  14.7365  11.6796   0.00    0.0
2024/01/10 00:10:03.999    626924.4533  -5459245.6083  -5419812.5117   5   7  10.5060  18.5294  16.5199  12.4681  14.7379  11.6827   0.00    0.0
2024/01/10 00:10:04.999    630035.8335  -5454828.8447  -5424224.9005   5   7  10.5083  18.5320  16.5236  12.4701  14.7395  11.6858   0.00    0.0
2024/01/10 00:10:05.999    633019.8168  -5450545.4607  -5428785.6224   5   7  10.5105  18.5343  16.5270  12.4718  14.7409  11.6888   0.00    0.0
2024/01/10 00:10:06.999    636069.5125  -5446189.1628  -5433242.1211   5   7  10.5127  18.5369  16.5306  12.4737  14.7424  11.6919   0.00    0.0
2024/01/10 00:10:07.999    639253.0518  -5441635.6481  -5437596.1522   5   7  10.5152  18.5398  16.5345  12.4759  14.7442  11.6952   0.00    0.0
2024/01/10 00:10:08.999    642348.4051  -5437226.4673  -5442065.7830   5   7  10.5175  18.5424  16.5382  12.4779  14.7458  11.6984   0.00    0.0
2024/01/10 00:10:09.999    645419.9198  -5432901.6882  -5446585.3332   5   7  10.5198  18.5449  16.5418  12.4798  14.7473  11.7014   0.00    0.0
2024/01/10 00:10:10.999    648536.7539  -5428477.3677  -5451070.1159   5   7  10.5221  18.5475  16.5455  12.4818  14.7489  11.7046   0.00    0.0
2024/01/10 00:10:11.999    651603.4107  -5424138.6621  -5455574.0502   5   7  10.5244  18.5500  16.5491  12.4838  14.7504  11.7077   0.00    0.0
2024/01/10 00:10:12.999    654657.8768  -5419827.9713  -5460093.7148   5   7  10.5267  18.5525  16.5527  12.4857  14.7519  11.7108   0.00    0.0
2024/01/10 00:10:13.999    657702.5903  -5415500.4426  -5464639.2826   5   7  10.5289  18.5550  16.5563  12.4876  14.7533  11.7139   0.00    0.0
2024/01/10 00:10:14.999    660798.9151  -5411055.5421  -5469074.8095   5   7  10.5313  18.5577  16.5600  12.4896  14.7550  11.7171   0.00    0.0
2024/01/10 00:10:15.999    663780.9794  -5406757.4265  -5473680.6727   5   7  10.5335  18.5602  16.5635  12.4914  14.7564  11.7201   0.00    0.0
2024/01/10 00:10:16.999    666736.1773  -5402517.7545  -5478345.5373   5   7  10.5356  18.5625  16.5669  12.4932  14.7577  11.7230   0.00    0.0
2024/01/10 00:10:17.999    669701.4284  -5398227.2832  -5482977.2525   5   7  10.5378  18.5649  16.5704  12.4950  14.7590  11.7260   0.00    0.0
2024/01/10 00:10:18.999    672645.8500  -5393934.8774  -5487633.3329   5   7  10.5399  18.5673  16.5738  12.4968  14.7604  11.7289   0.00    0.0
2024/01/10 00:10:19.999    675622.1026  -5389606.6194  -5492263.1249   5   7  10.5421  18.5698  16.5773  12.4986  14.7618  11.7319   0.00    0.0
2024/01/10 00:10:20.999    678588.7876  -5385326.8437  -5496912.2846   5   7  10.5443  18.5722  16.5808  12.5004  14.7632  11.7349   0.00    0.0
2024/01/10 00:10:21.999    681522.5163  -5381137.1196  -5501572.0636   5   7  10.5464  18.5745  16.5842  12.5021  14.7644  11.7378   0.00    0.0
2024/01/10 00:10:22.999    684549.7348  -5376717.2137  -5506224.8135   5   7  10.5487  18.5771  16.5878  12.5041  14.7659  11.7408   0.00    0.0
2024/01/10 00:10:23.999    687472.9183  -5372472.4901  -5510889.6507   5   7  10.5508  18.5795  16.5912  12.5058  14.7673  11.7438   0.00    0.0
