% program   : RTKLIB ver.EX 2.5.0
% inp file  : .\Products\Orbit_Simulation\rnx_out\GPS_GAL_BDS\orion_gps_gal_bds.obs
% inp file  : .\Products\Orbit_Simulation\rnx_out\GPS_GAL_BDS\orion_gps_gal_bds.nav
% obs start : 2024/01/10 00:00:30.0 GPST (week2296 259230.0s)
% obs end   : 2024/01/10 00:10:24.0 GPST (week2296 259824.0s)
%
% (x/y/z-ecef=WGS84,Q=1:fix,2:float,3:sbas,4:dgps,5:single,6:ppp,ns=# of satellites)
%  GPST                      x-ecef(m)      y-ecef(m)      z-ecef(m)   Q  ns   sdx(m)   sdy(m)   sdz(m)  sdxy(m)  sdyz(m)  sdzx(m) age(s)  ratio
