% program   : rnx2rtkp ver.EX 2.5.0
% inp file  : .\rnx_out\GPS_GAL\orion_gps_gal.obs
% inp file  : .\rnx_out\GPS_GAL\orion_gps_gal.nav
% obs start : 2024/01/10 00:00:29.0 GPST (week2296 259229.0s)
% obs end   : 2024/01/10 00:09:45.0 GPST (week2296 259785.0s)
%
% (x/y/z-ecef=WGS84,Q=1:fix,2:float,3:sbas,4:dgps,5:single,6:ppp,ns=# of satellites)
%  GPST              x-ecef(m)      y-ecef(m)      z-ecef(m)   Q  ns   sdx(m)   sdy(m)   sdz(m)  sdxy(m)  sdyz(m)  sdzx(m) age(s)  ratio
2296 259228.999  -1127588.5913  -7260172.5037  -2354107.0996   5  13   3.6030   5.9511   3.5490   3.4678   2.7421   0.2311   0.00    0.0
2296 259229.999  -1124784.4356  -7258597.1668  -2360297.7134   5  13   3.6022   5.9514   3.5492   3.4672   2.7435   0.2431   0.00    0.0
2296 259230.999  -1121978.5404  -7257018.0875  -2366486.4489   5  13   3.6014   5.9517   3.5493   3.4667   2.7448   0.2546   0.00    0.0
2296 259231.999  -1119171.7097  -7255428.3594  -2372672.0292   5  14   3.0254   5.2860   3.3168   2.5834   2.0206  -1.5481   0.00    0.0
2296 259232.999  -1116363.7448  -7253837.4972  -2378855.4269   5  14   3.0249   5.2862   3.3165   2.5829   2.0213  -1.5469   0.00    0.0
2296 259233.999  -1113555.3495  -7252239.6786  -2385037.9784   5  14   3.0244   5.2864   3.3161   2.5825   2.0220  -1.5457   0.00    0.0
2296 259234.999  -1110744.4677  -7250633.0786  -2391217.8966   5  14   3.0238   5.2867   3.3157   2.5820   2.0227  -1.5445   0.00    0.0
2296 259235.999  -1107933.5196  -7249024.0836  -2397396.2618   5  14   3.0233   5.2869   3.3153   2.5816   2.0234  -1.5433   0.00    0.0
2296 259236.999  -1105121.5582  -7247408.0546  -2403571.8387   5  14   3.0227   5.2871   3.3150   2.5811   2.0241  -1.5421   0.00    0.0
2296 259237.999  -1102307.7462  -7245784.5638  -2409744.4264   5  14   3.0222   5.2873   3.3146   2.5807   2.0248  -1.5409   0.00    0.0
2296 259238.999  -1099494.2775  -7244157.6225  -2415916.3361   5  14   3.0217   5.2876   3.3142   2.5803   2.0255  -1.5397   0.00    0.0
2296 259239.999  -1096676.9175  -7242522.8314  -2422087.1371   5  14   3.0211   5.2878   3.3138   2.5798   2.0262  -1.5385   0.00    0.0
2296 259240.999  -1093859.7548  -7240883.9418  -2428254.1025   5  14   3.0206   5.2880   3.3135   2.5794   2.0269  -1.5373   0.00    0.0
2296 259241.999  -1091040.1031  -7239238.0245  -2434419.4675   5  14   3.0201   5.2883   3.3131   2.5789   2.0276  -1.5361   0.00    0.0
2296 259242.999  -1088222.5315  -7237588.4752  -2440582.5076   5  14   3.0195   5.2885   3.3127   2.5785   2.0283  -1.5349   0.00    0.0
2296 259243.999  -1085402.3483  -7235931.6630  -2446742.5266   5  14   3.0190   5.2888   3.3124   2.5781   2.0290  -1.5337   0.00    0.0
2296 259244.999  -1082578.3111  -7234266.4897  -2452902.2650   5  14   3.0185   5.2890   3.3120   2.5776   2.0297  -1.5325   0.00    0.0
2296 259245.999  -1079756.0835  -7232600.6501  -2459058.3456   5  14   3.0179   5.2893   3.3117   2.5772   2.0303  -1.5313   0.00    0.0
2296 259246.999  -1076932.0401  -7230925.2314  -2465213.6728   5  14   3.0174   5.2895   3.3113   2.5768   2.0310  -1.5301   0.00    0.0
2296 259247.999  -1074106.5548  -7229244.9194  -2471366.6362   5  14   3.0169   5.2898   3.3109   2.5763   2.0317  -1.5288   0.00    0.0
2296 259248.999  -1071278.9399  -7227557.7861  -2477517.1774   5  14   3.0164   5.2900   3.3106   2.5759   2.0324  -1.5276   0.00    0.0
2296 259249.999  -1068450.1132  -7225864.7179  -2483664.3012   5  14   3.0158   5.2903   3.3102   2.5755   2.0331  -1.5264   0.00    0.0
2296 259250.999  -1065622.8991  -7224167.6558  -2489810.0773   5  14   3.0153   5.2905   3.3099   2.5750   2.0338  -1.5252   0.00    0.0
2296 259251.999  -1062792.1714  -7222463.6777  -2495953.7898   5  14   3.0148   5.2908   3.3095   2.5746   2.0345  -1.5240   0.00    0.0
2296 259252.999  -1059961.4430  -7220752.9379  -2502095.4301   5  14   3.0143   5.2911   3.3092   2.5742   2.0352  -1.5228   0.00    0.0
2296 259253.999  -1057128.9548  -7219040.4105  -2508235.8323   5  14   3.0137   5.2914   3.3088   2.5738   2.0359  -1.5216   0.00    0.0
2296 259254.999  -1054294.9280  -7217317.7984  -2514373.6319   5  14   3.0132   5.2916   3.3085   2.5733   2.0365  -1.5203   0.00    0.0
2296 259255.999  -1051460.4374  -7215593.1209  -2520509.1899   5  14   3.0127   5.2919   3.3082   2.5729   2.0372  -1.5191   0.00    0.0
2296 259256.999  -1048624.8204  -7213860.5752  -2526642.2497   5  14   3.0122   5.2922   3.3078   2.5725   2.0379  -1.5179   0.00    0.0
2296 259257.999  -1045787.0630  -7212121.4112  -2532771.7177   5  14   3.0117   5.2925   3.3075   2.5721   2.0386  -1.5167   0.00    0.0
2296 259258.999  -1042948.9078  -7210376.7247  -2538900.6857   5  14   3.0111   5.2928   3.3072   2.5717   2.0393  -1.5155   0.00    0.0
2296 259259.999  -1040108.8425  -7208625.9027  -2545027.3083   5  14   3.0106   5.2931   3.3068   2.5712   2.0400  -1.5142   0.00    0.0
2296 259260.999  -1037269.4358  -7206871.0034  -2551151.5899   5  14   3.0101   5.2934   3.3065   2.5708   2.0407  -1.5130   0.00    0.0
2296 259261.999  -1034427.2483  -7205110.3587  -2557274.0726   5  14   3.0096   5.2936   3.3062   2.5704   2.0413  -1.5118   0.00    0.0
2296 259262.999  -1031584.2335  -7203339.7982  -2563391.6683   5  14   3.0091   5.2939   3.3058   2.5700   2.0420  -1.5106   0.00    0.0
2296 259263.999  -1028739.7551  -7201567.7725  -2569510.8532   5  14   3.0086   5.2942   3.3055   2.5696   2.0427  -1.5094   0.00    0.0
2296 259264.999  -1025896.0437  -7199787.8138  -2575625.5292   5  14   3.0081   5.2946   3.3052   2.5692   2.0434  -1.5081   0.00    0.0
2296 259265.999  -1023048.7039  -7198002.4840  -2581738.2151   5  14   3.0075   5.2949   3.3048   2.5688   2.0441  -1.5069   0.00    0.0
2296 259266.999  -1020200.9625  -7196212.4134  -2587849.7399   5  14   3.0070   5.2952   3.3045   2.5684   2.0448  -1.5057   0.00    0.0
2296 259267.999  -1017353.2116  -7194416.7490  -2593957.8571   5  14   3.0065   5.2955   3.3042   2.5680   2.0454  -1.5045   0.00    0.0
2296 259268.999  -1014502.3310  -7192611.9923  -2600063.4476   5  14   3.0060   5.2958   3.3039   2.5676   2.0461  -1.5032   0.00    0.0
2296 259269.999  -1011652.2765  -7190804.9779  -2606168.7690   5  14   3.0055   5.2961   3.3036   2.5672   2.0468  -1.5020   0.00    0.0
2296 259270.999  -1008800.9910  -7188992.0988  -2612270.7415   5  14   3.0050   5.2964   3.3033   2.5668   2.0475  -1.5008   0.00    0.0
2296 259271.999  -1005947.2044  -7187172.5248  -2618370.8654   5  14   3.0045   5.2968   3.3029   2.5664   2.0482  -1.4995   0.00    0.0
2296 259272.999  -1003093.2006  -7185347.9125  -2624467.0315   5  14   3.0040   5.2971   3.3026   2.5660   2.0488  -1.4983   0.00    0.0
2296 259273.999  -1000236.2038  -7183513.6953  -2630562.8834   5  14   3.0035   5.2974   3.3023   2.5656   2.0495  -1.4971   0.00    0.0
2296 259274.999   -997380.3407  -7181677.5830  -2636654.7550   5  14   3.0030   5.2978   3.3020   2.5652   2.0502  -1.4958   0.00    0.0
2296 259275.999   -994523.1491  -7179833.7353  -2642744.6093   5  14   3.0025   5.2981   3.3017   2.5648   2.0509  -1.4946   0.00    0.0
2296 259276.999   -991664.8715  -7177987.1394  -2648833.2524   5  14   3.0020   5.2984   3.3014   2.5644   2.0515  -1.4934   0.00    0.0
2296 259277.999   -988803.6398  -7176129.9926  -2654918.1449   5  14   3.0015   5.2988   3.3011   2.5640   2.0522  -1.4921   0.00    0.0
2296 259278.999   -985943.1458  -7174270.9099  -2661002.4022   5  14   3.0010   5.2991   3.3008   2.5636   2.0529  -1.4909   0.00    0.0
2296 259279.999   -983079.9898  -7172406.1563  -2667084.4194   5  14   3.0005   5.2995   3.3005   2.5632   2.0536  -1.4897   0.00    0.0
2296 259280.999   -980217.8135  -7170534.4527  -2673163.2408   5  14   3.0000   5.2998   3.3002   2.5628   2.0543  -1.4884   0.00    0.0
2296 259281.999   -977353.1162  -7168656.0689  -2679238.4827   5  14   2.9995   5.3002   3.2999   2.5624   2.0549  -1.4872   0.00    0.0
2296 259282.999   -974487.8011  -7166773.4162  -2685313.3457   5  14   2.9990   5.3005   3.2996   2.5621   2.0556  -1.4859   0.00    0.0
2296 259283.999   -971621.5027  -7164886.2496  -2691385.6938   5  14   2.9985   5.3009   3.2993   2.5617   2.0563  -1.4847   0.00    0.0
2296 259284.999   -968753.2789  -7162990.8330  -2697455.9709   5  14   2.9980   5.3013   3.2990   2.5613   2.0570  -1.4835   0.00    0.0
2296 259285.999   -965884.6063  -7161089.2951  -2703522.4305   5  14   2.9976   5.3016   3.2987   2.5609   2.0576  -1.4822   0.00    0.0
2296 259286.999   -963014.9269  -7159183.8043  -2709586.9552   5  14   2.9971   5.3020   3.2984   2.5605   2.0583  -1.4810   0.00    0.0
2296 259287.999   -960143.7945  -7157271.7280  -2715649.6089   5  14   2.9966   5.3024   3.2982   2.5602   2.0590  -1.4797   0.00    0.0
2296 259288.999   -957271.7554  -7155353.6283  -2721709.5076   5  14   2.9961   5.3028   3.2979   2.5598   2.0597  -1.4785   0.00    0.0
2296 259289.999   -954397.5771  -7153429.2874  -2727766.8766   5  14   2.9956   5.3031   3.2976   2.5594   2.0603  -1.4773   0.00    0.0
2296 259290.999   -951523.4438  -7151499.6812  -2733821.9486   5  14   2.9951   5.3035   3.2973   2.5590   2.0610  -1.4760   0.00    0.0
2296 259291.999   -948647.6046  -7149565.0131  -2739876.0258   5  14   2.9946   5.3039   3.2970   2.5587   2.0617  -1.4748   0.00    0.0
2296 259292.999   -945771.1113  -7147625.4022  -2745927.6225   5  14   2.9942   5.3043   3.2968   2.5583   2.0623  -1.4735   0.00    0.0
2296 259293.999   -942894.6545  -7145680.5593  -2751975.7630   5  14   2.9937   5.3047   3.2965   2.5579   2.0630  -1.4723   0.00    0.0
2296 259294.999   -940015.2258  -7143725.5749  -2758021.4368   5  14   2.9932   5.3051   3.2962   2.5576   2.0637  -1.4710   0.00    0.0
2296 259295.999   -937134.8760  -7141767.3245  -2764063.9553   5  14   2.9927   5.3055   3.2959   2.5572   2.0644  -1.4698   0.00    0.0
2296 259296.999   -934252.5404  -7139803.6787  -2770106.0658   5  14   2.9922   5.3059   3.2957   2.5568   2.0650  -1.4685   0.00    0.0
2296 259297.999   -931372.4065  -7137836.3085  -2776144.2501   5  14   2.9918   5.3063   3.2954   2.5565   2.0657  -1.4673   0.00    0.0
2296 259298.999   -928488.8493  -7135860.7191  -2782180.2757   5  14   2.9913   5.3067   3.2951   2.5561   2.0664  -1.4660   0.00    0.0
2296 259299.999   -925604.1209  -7133880.3946  -2788215.3250   5  14   2.9908   5.3071   3.2949   2.5557   2.0670  -1.4648   0.00    0.0
2296 259300.999   -922718.4874  -7131891.2008  -2794246.1475   5  14   2.9903   5.3075   3.2946   2.5554   2.0677  -1.4635   0.00    0.0
2296 259301.999   -919832.7092  -7129900.8359  -2800274.9135   5  14   2.9899   5.3079   3.2943   2.5550   2.0684  -1.4623   0.00    0.0
2296 259302.999   -916943.8721  -7127899.9687  -2806301.8409   5  14   2.9894   5.3083   3.2941   2.5547   2.0690  -1.4610   0.00    0.0
2296 259303.999   -914056.2082  -7125898.0610  -2812325.9984   5  14   2.9889   5.3087   3.2938   2.5543   2.0697  -1.4597   0.00    0.0
2296 259304.999   -911166.0558  -7123888.3953  -2818348.3278   5  14   2.9885   5.3091   3.2936   2.5540   2.0704  -1.4585   0.00    0.0
2296 259305.999   -908275.3129  -7121871.5374  -2824366.4166   5  14   2.9880   5.3096   3.2933   2.5536   2.0710  -1.4572   0.00    0.0
2296 259306.999   -905383.3396  -7119851.0217  -2830383.9069   5  14   2.9875   5.3100   3.2931   2.5533   2.0717  -1.4560   0.00    0.0
2296 259307.999   -902490.3296  -7117824.9839  -2836398.5188   5  14   2.9871   5.3104   3.2928   2.5529   2.0724  -1.4547   0.00    0.0
2296 259308.999   -899597.1982  -7115792.1074  -2842409.3339   5  14   2.9866   5.3109   3.2926   2.5526   2.0730  -1.4534   0.00    0.0
2296 259309.999   -896701.6613  -7113752.6732  -2848419.2992   5  14   2.9861   5.3113   3.2923   2.5522   2.0737  -1.4522   0.00    0.0
2296 259310.999   -893806.6986  -7111711.4074  -2854426.5900   5  14   2.9857   5.3117   3.2921   2.5519   2.0744  -1.4509   0.00    0.0
2296 259311.999   -890907.9216  -7109661.6540  -2860431.3180   5  14   2.9852   5.3122   3.2918   2.5515   2.0750  -1.4497   0.00    0.0
2296 259312.999   -888010.5972  -7107606.2392  -2866432.8799   5  14   2.9847   5.3126   3.2916   2.5512   2.0757  -1.4484   0.00    0.0
2296 259313.999   -885111.9374  -7105545.9360  -2872434.2029   5  14   2.9843   5.3131   3.2913   2.5508   2.0763  -1.4471   0.00    0.0
2296 259314.999   -882210.4618  -7103478.6424  -2878430.9779   5  14   2.9838   5.3135   3.2911   2.5505   2.0770  -1.4459   0.00    0.0
2296 259315.999   -879309.1602  -7101407.1855  -2884426.1492   5  14   2.9834   5.3140   3.2909   2.5502   2.0777  -1.4446   0.00    0.0
2296 259316.999   -876405.9990  -7099327.3100  -2890417.2204   5  14   2.9829   5.3144   3.2906   2.5498   2.0783  -1.4433   0.00    0.0
2296 259317.999   -873502.9096  -7097243.7997  -2896406.1848   5  14   2.9825   5.3149   3.2904   2.5495   2.0790  -1.4421   0.00    0.0
2296 259318.999   -870598.6561  -7095153.6726  -2902392.7100   5  14   2.9820   5.3153   3.2902   2.5492   2.0796  -1.4408   0.00    0.0
2296 259319.999   -867692.4575  -7093058.2069  -2908377.6626   5  15   2.9556   5.1334   3.2099   2.6530   1.8254  -1.3376   0.00    0.0
2296 259320.999   -864784.8951  -7090957.2038  -2914360.2641   5  15   2.9552   5.1339   3.2098   2.6525   1.8263  -1.3365   0.00    0.0
2296 259321.999   -861876.2417  -7088849.0367  -2920338.9784   5  15   2.9549   5.1344   3.2096   2.6520   1.8271  -1.3353   0.00    0.0
2296 259322.999   -858968.7359  -7086737.8809  -2926316.2723   5  15   2.9545   5.1349   3.2094   2.6516   1.8280  -1.3341   0.00    0.0
2296 259323.999   -856058.9705  -7084620.9255  -2932290.9090   5  15   2.9541   5.1355   3.2093   2.6511   1.8289  -1.3329   0.00    0.0
2296 259324.999   -853146.7037  -7082495.6968  -2938261.1885   5  15   2.9537   5.1360   3.2091   2.6507   1.8298  -1.3317   0.00    0.0
2296 259325.999   -850235.1562  -7080366.8216  -2944231.0698   5  15   2.9533   5.1365   3.2089   2.6502   1.8307  -1.3306   0.00    0.0
2296 259326.999   -847323.8202  -7078231.6893  -2950198.3279   5  15   2.9530   5.1370   3.2088   2.6497   1.8315  -1.3294   0.00    0.0
2296 259327.999   -844408.2717  -7076089.4897  -2956162.2530   5  15   2.9526   5.1376   3.2086   2.6493   1.8324  -1.3282   0.00    0.0
2296 259328.999   -841492.7476  -7073945.3853  -2962124.2059   5  15   2.9522   5.1381   3.2085   2.6488   1.8333  -1.3270   0.00    0.0
2296 259329.999   -838576.6228  -7071791.8049  -2968083.0469   5  15   2.9518   5.1386   3.2083   2.6484   1.8342  -1.3258   0.00    0.0
2296 259330.999   -835659.5537  -7069634.8874  -2974040.4261   5  15   2.9515   5.1392   3.2081   2.6479   1.8350  -1.3246   0.00    0.0
2296 259331.999   -832741.5162  -7067470.3190  -2979992.8154   5  15   2.9511   5.1397   3.2080   2.6475   1.8359  -1.3234   0.00    0.0
2296 259332.999   -829822.3619  -7065303.0136  -2985945.5213   5  15   2.9507   5.1403   3.2078   2.6470   1.8368  -1.3222   0.00    0.0
2296 259333.999   -826901.5941  -7063126.2162  -2991893.4809   5  15   2.9504   5.1408   3.2077   2.6466   1.8376  -1.3211   0.00    0.0
2296 259334.999   -823981.0674  -7060945.5383  -2997838.6671   5  15   2.9500   5.1414   3.2076   2.6461   1.8385  -1.3199   0.00    0.0
2296 259335.999   -821058.3059  -7058760.1085  -3003782.4524   5  15   2.9496   5.1419   3.2074   2.6457   1.8394  -1.3187   0.00    0.0
2296 259336.999   -818134.5808  -7056569.6205  -3009724.0903   5  15   2.9493   5.1425   3.2073   2.6452   1.8403  -1.3175   0.00    0.0
2296 259337.999   -815209.9585  -7054370.0776  -3015662.2350   5  15   2.9489   5.1431   3.2071   2.6448   1.8411  -1.3163   0.00    0.0
2296 259338.999   -812285.0289  -7052167.6303  -3021597.6223   5  15   2.9485   5.1436   3.2070   2.6444   1.8420  -1.3151   0.00    0.0
2296 259339.999   -809358.3840  -7049958.1648  -3027530.2636   5  15   2.9482   5.1442   3.2068   2.6439   1.8429  -1.3139   0.00    0.0
2296 259340.999   -806431.0060  -7047743.6392  -3033460.0543   5  15   2.9478   5.1448   3.2067   2.6435   1.8437  -1.3127   0.00    0.0
2296 259341.999   -803501.7226  -7045524.3464  -3039388.9102   5  15   2.9474   5.1454   3.2066   2.6431   1.8446  -1.3115   0.00    0.0
2296 259342.999   -800572.5453  -7043298.2283  -3045314.5100   5  15   2.9471   5.1459   3.2064   2.6426   1.8454  -1.3103   0.00    0.0
2296 259343.999   -797641.3846  -7041065.0964  -3051235.7714   5  15   2.9467   5.1465   3.2063   2.6422   1.8463  -1.3091   0.00    0.0
2296 259344.999   -794710.9470  -7038830.1968  -3057156.2522   5  15   2.9464   5.1471   3.2062   2.6418   1.8472  -1.3079   0.00    0.0
2296 259345.999   -791778.7345  -7036586.3816  -3063072.2968   5  15   2.9460   5.1477   3.2061   2.6413   1.8480  -1.3067   0.00    0.0
2296 259346.999   -788843.9856  -7034339.2424  -3068988.2476   5  15   2.9457   5.1483   3.2059   2.6409   1.8489  -1.3055   0.00    0.0
2296 259347.999   -785909.6955  -7032086.0362  -3074900.9020   5  15   2.9453   5.1489   3.2058   2.6405   1.8498  -1.3043   0.00    0.0
2296 259348.999   -782974.8342  -7029826.2790  -3080809.2037   5  15   2.9450   5.1495   3.2057   2.6401   1.8506  -1.3031   0.00    0.0
2296 259349.999   -780038.4157  -7027561.3907  -3086715.5537   5  15   2.9446   5.1501   3.2056   2.6396   1.8515  -1.3018   0.00    0.0
2296 259350.999   -777100.1585  -7025290.0015  -3092619.2309   5  15   2.9443   5.1507   3.2055   2.6392   1.8523  -1.3006   0.00    0.0
2296 259351.999   -774161.1262  -7023013.1813  -3098521.1669   5  15   2.9439   5.1513   3.2053   2.6388   1.8532  -1.2994   0.00    0.0
2296 259352.999   -771222.0480  -7020731.4448  -3104419.6799   5  15   2.9436   5.1519   3.2052   2.6384   1.8540  -1.2982   0.00    0.0
2296 259353.999   -768281.3740  -7018442.4624  -3110314.9872   5  15   2.9432   5.1525   3.2051   2.6380   1.8549  -1.2970   0.00    0.0
2296 259354.999   -765339.9364  -7016151.1251  -3116207.3343   5  15   2.9429   5.1531   3.2050   2.6376   1.8558  -1.2958   0.00    0.0
2296 259355.999   -762397.7952  -7013852.3044  -3122098.5092   5  15   2.9425   5.1537   3.2049   2.6371   1.8566  -1.2946   0.00    0.0
2296 259356.999   -759452.7389  -7011547.0162  -3127986.2650   5  15   2.9422   5.1543   3.2048   2.6367   1.8575  -1.2934   0.00    0.0
2296 259357.999   -756508.5459  -7009237.2921  -3133871.7695   5  15   2.9418   5.1549   3.2047   2.6363   1.8583  -1.2921   0.00    0.0
2296 259358.999   -753563.1379  -7006920.8139  -3139753.7512   5  15   2.9415   5.1556   3.2046   2.6359   1.8592  -1.2909   0.00    0.0
2296 259359.999   -750616.4223  -7004598.4370  -3145632.8856   5  15   2.9411   5.1562   3.2045   2.6355   1.8600  -1.2897   0.00    0.0
2296 259360.999   -747667.8904  -7002270.1925  -3151509.2460   5  15   2.9408   5.1568   3.2044   2.6351   1.8609  -1.2885   0.00    0.0
2296 259361.999   -744720.3342  -6999939.8731  -3157384.7193   5  15   2.9405   5.1575   3.2043   2.6347   1.8617  -1.2873   0.00    0.0
2296 259362.999   -741770.3420  -6997598.7599  -3163254.2199   5  15   2.9401   5.1581   3.2042   2.6343   1.8626  -1.2860   0.00    0.0
2296 259363.999   -738820.7037  -6995257.5057  -3169123.1520   5  15   2.9398   5.1587   3.2041   2.6339   1.8634  -1.2848   0.00    0.0
2296 259364.999   -735868.3208  -6992907.8369  -3174990.0492   5  15   2.9395   5.1594   3.2040   2.6335   1.8643  -1.2836   0.00    0.0
2296 259365.999   -732917.0430  -6990552.9925  -3180852.0059   5  15   2.9391   5.1600   3.2039   2.6331   1.8651  -1.2824   0.00    0.0
2296 259366.999   -729962.9383  -6988192.5445  -3186713.1736   5  15   2.9388   5.1607   3.2038   2.6327   1.8659  -1.2811   0.00    0.0
2296 259367.999   -727006.6181  -6985824.0362  -3192570.4829   5  15   2.9385   5.1613   3.2037   2.6323   1.8668  -1.2799   0.00    0.0
2296 259368.999   -724053.3034  -6983452.8807  -3198425.3925   5  15   2.9381   5.1620   3.2036   2.6319   1.8676  -1.2787   0.00    0.0
2296 259369.999   -721097.3040  -6981075.5514  -3204277.0162   5  15   2.9378   5.1626   3.2035   2.6316   1.8685  -1.2775   0.00    0.0
2296 259370.999   -718138.5889  -6978692.5546  -3210127.2483   5  15   2.9375   5.1633   3.2034   2.6312   1.8693  -1.2762   0.00    0.0
2296 259371.999   -715180.4842  -6976301.9602  -3215972.2138   5  15   2.9372   5.1640   3.2034   2.6308   1.8702  -1.2750   0.00    0.0
2296 259372.999   -712221.7713  -6973909.7284  -3221815.9727   5  15   2.9368   5.1646   3.2033   2.6304   1.8710  -1.2738   0.00    0.0
2296 259373.999   -709261.0221  -6971508.5091  -3227656.6889   5  15   2.9365   5.1653   3.2032   2.6300   1.8718  -1.2725   0.00    0.0
2296 259374.999   -706299.8029  -6969104.5723  -3233495.3951   5  15   2.9362   5.1660   3.2031   2.6296   1.8727  -1.2713   0.00    0.0
2296 259375.999   -703337.8489  -6966694.7308  -3239330.2539   5  15   2.9359   5.1666   3.2031   2.6293   1.8735  -1.2700   0.00    0.0
2296 259376.999   -700375.1353  -6964276.8944  -3245163.1355   5  15   2.9355   5.1673   3.2030   2.6289   1.8744  -1.2688   0.00    0.0
2296 259377.999   -697410.6755  -6961853.5086  -3250992.0672   5  15   2.9352   5.1680   3.2029   2.6285   1.8752  -1.2676   0.00    0.0
2296 259378.999   -694446.0402  -6959426.6618  -3256819.2948   5  15   2.9349   5.1687   3.2028   2.6281   1.8760  -1.2663   0.00    0.0
2296 259379.999   -691480.3608  -6956992.4606  -3262642.1732   5  15   2.9346   5.1694   3.2028   2.6278   1.8769  -1.2651   0.00    0.0
2296 259380.999   -688513.5005  -6954556.4539  -3268464.8442   5  15   2.9343   5.1701   3.2027   2.6274   1.8777  -1.2638   0.00    0.0
2296 259381.999   -685545.2401  -6952109.2827  -3274282.2501   5  15   2.9340   5.1707   3.2026   2.6270   1.8785  -1.2626   0.00    0.0
2296 259382.999   -682576.0788  -6949658.8588  -3280096.4907   5  15   2.9336   5.1714   3.2026   2.6267   1.8794  -1.2614   0.00    0.0
2296 259383.999   -679606.3291  -6947204.0643  -3285910.2567   5  15   2.9333   5.1721   3.2025   2.6263   1.8802  -1.2601   0.00    0.0
2296 259384.999   -676635.3432  -6944742.9111  -3291720.7498   5  15   2.9330   5.1728   3.2024   2.6259   1.8810  -1.2589   0.00    0.0
2296 259385.999   -673663.8102  -6942276.2472  -3297526.7944   5  15   2.9327   5.1735   3.2024   2.6256   1.8819  -1.2576   0.00    0.0
2296 259386.999   -670691.2484  -6939804.9104  -3303331.8611   5  15   2.9324   5.1743   3.2023   2.6252   1.8827  -1.2564   0.00    0.0
2296 259387.999   -667716.5895  -6937325.7047  -3309132.3386   5  15   2.9321   5.1750   3.2023   2.6248   1.8835  -1.2551   0.00    0.0
2296 259388.999   -664743.3564  -6934842.5170  -3314930.4379   5  15   2.9318   5.1757   3.2022   2.6245   1.8843  -1.2539   0.00    0.0
2296 259389.999   -661768.1088  -6932354.8426  -3320725.0061   5  15   2.9315   5.1764   3.2022   2.6241   1.8852  -1.2526   0.00    0.0
2296 259390.999   -658791.4799  -6929858.6310  -3326518.1923   5  15   2.9312   5.1771   3.2021   2.6238   1.8860  -1.2514   0.00    0.0
2296 259391.999   -655815.0490  -6927360.0641  -3332307.9271   5  15   2.9309   5.1778   3.2021   2.6234   1.8868  -1.2501   0.00    0.0
2296 259392.999   -652836.6763  -6924855.8810  -3338095.3125   5  15   2.9306   5.1786   3.2020   2.6231   1.8877  -1.2488   0.00    0.0
2296 259393.999   -649855.6402  -6922342.1180  -3343877.9943   5  15   2.9303   5.1793   3.2020   2.6227   1.8885  -1.2476   0.00    0.0
2296 259394.999   -646875.9472  -6919825.3191  -3349658.7501   5  15   2.9300   5.1800   3.2019   2.6224   1.8893  -1.2463   0.00    0.0
2296 259395.999   -643895.0961  -6917303.1659  -3355436.6790   5  15   2.9297   5.1808   3.2019   2.6220   1.8901  -1.2451   0.00    0.0
2296 259396.999   -640914.2343  -6914775.2108  -3361211.8230   5  15   2.9294   5.1815   3.2019   2.6217   1.8910  -1.2438   0.00    0.0
2296 259397.999   -637931.3429  -6912242.7151  -3366984.6174   5  15   2.9291   5.1822   3.2018   2.6214   1.8918  -1.2425   0.00    0.0
2296 259398.999   -634947.1703  -6909705.2994  -3372754.6199   5  15   2.9288   5.1830   3.2018   2.6210   1.8926  -1.2413   0.00    0.0
2296 259399.999   -631962.4815  -6907160.4014  -3378520.9805   5  15   2.9285   5.1837   3.2018   2.6207   1.8934  -1.2400   0.00    0.0
2296 259400.999   -628977.1754  -6904610.3713  -3384284.1587   5  15   2.9282   5.1845   3.2017   2.6203   1.8942  -1.2387   0.00    0.0
2296 259401.999   -625989.7341  -6902054.5531  -3390043.7837   5  15   2.9279   5.1852   3.2017   2.6200   1.8951  -1.2375   0.00    0.0
2296 259402.999   -623002.7521  -6899493.6335  -3395802.7120   5  15   2.9276   5.1860   3.2017   2.6197   1.8959  -1.2362   0.00    0.0
2296 259403.999   -620014.8565  -6896926.5909  -3401555.8458   5  15   2.9274   5.1867   3.2016   2.6193   1.8967  -1.2349   0.00    0.0
2296 259404.999   -617023.9935  -6894353.0364  -3407307.7517   5  15   2.9271   5.1875   3.2016   2.6190   1.8975  -1.2337   0.00    0.0
2296 259405.999   -614035.3936  -6891778.5076  -3413055.5701   5  15   2.9268   5.1883   3.2016   2.6187   1.8983  -1.2324   0.00    0.0
2296 259406.999   -611044.7928  -6889195.4717  -3418801.4991   5  15   2.9265   5.1890   3.2016   2.6184   1.8991  -1.2311   0.00    0.0
2296 259407.999   -608053.0377  -6886608.3718  -3424544.3132   5  15   2.9262   5.1898   3.2016   2.6180   1.9000  -1.2298   0.00    0.0
2296 259408.999   -605058.6297  -6884012.2131  -3430284.4140   5  15   2.9259   5.1906   3.2015   2.6177   1.9008  -1.2286   0.00    0.0
2296 259409.999   -602065.4329  -6881413.2822  -3436021.7621   5  15   2.9257   5.1914   3.2015   2.6174   1.9016  -1.2273   0.00    0.0
2296 259410.999   -599071.4541  -6878810.0740  -3441755.5050   5  15   2.9254   5.1921   3.2015   2.6171   1.9024  -1.2260   0.00    0.0
2296 259411.999   -596074.9236  -6876198.1635  -3447485.9214   5  15   2.9251   5.1929   3.2015   2.6168   1.9032  -1.2247   0.00    0.0
2296 259412.999   -593078.4143  -6873582.3135  -3453214.0116   5  15   2.9248   5.1937   3.2015   2.6164   1.9040  -1.2235   0.00    0.0
2296 259413.999   -590081.1208  -6870958.2621  -3458937.5664   5  15   2.9246   5.1945   3.2015   2.6161   1.9048  -1.2222   0.00    0.0
2296 259414.999   -587083.2956  -6868334.9573  -3464660.9125   5  15   2.9243   5.1953   3.2015   2.6158   1.9057  -1.2209   0.00    0.0
2296 259415.999   -584083.2698  -6865700.9326  -3470378.5600   5  15   2.9240   5.1961   3.2015   2.6155   1.9065  -1.2196   0.00    0.0
2296 259416.999   -581084.3946  -6863064.8933  -3476095.0738   5  15   2.9237   5.1969   3.2014   2.6152   1.9073  -1.2183   0.00    0.0
2296 259417.999   -578081.8820  -6860418.4425  -3481808.0757   5  15   2.9235   5.1977   3.2014   2.6149   1.9081  -1.2170   0.00    0.0
2296 259418.999   -575082.1378  -6857771.8006  -3487517.2544   5  15   2.9232   5.1985   3.2014   2.6146   1.9089  -1.2157   0.00    0.0
2296 259419.999   -572079.0254  -6855116.9040  -3493224.2738   5  15   2.9229   5.1993   3.2014   2.6143   1.9097  -1.2145   0.00    0.0
2296 259420.999   -569073.9218  -6852457.6491  -3498928.1580   5  15   2.9227   5.2001   3.2015   2.6140   1.9105  -1.2132   0.00    0.0
2296 259421.999   -566070.2027  -6849793.3227  -3504630.0695   5  15   2.9224   5.2009   3.2015   2.6137   1.9113  -1.2119   0.00    0.0
2296 259422.999   -563065.3942  -6847122.2987  -3510327.0011   5  15   2.9222   5.2017   3.2015   2.6134   1.9121  -1.2106   0.00    0.0
2296 259423.999   -560058.3958  -6844446.4237  -3516021.7178   5  15   2.9219   5.2026   3.2015   2.6131   1.9129  -1.2093   0.00    0.0
2296 259424.999   -557051.7102  -6841764.1105  -3521712.4535   5  15   2.9216   5.2034   3.2015   2.6128   1.9137  -1.2080   0.00    0.0
2296 259425.999   -554043.6791  -6839077.4118  -3527401.2143   5  15   2.9214   5.2042   3.2015   2.6125   1.9145  -1.2067   0.00    0.0
2296 259426.999   -551035.0141  -6836384.3242  -3533086.6727   5  15   2.9211   5.2050   3.2015   2.6122   1.9153  -1.2054   0.00    0.0
2296 259427.999   -548024.3530  -6833685.6645  -3538768.6421   5  15   2.9209   5.2059   3.2015   2.6119   1.9161  -1.2041   0.00    0.0
2296 259428.999   -545014.7841  -6830982.4292  -3544448.1190   5  15   2.9206   5.2067   3.2015   2.6116   1.9169  -1.2028   0.00    0.0
2296 259429.999   -542003.2190  -6828272.3136  -3550124.6741   5  15   2.9204   5.2076   3.2016   2.6113   1.9177  -1.2015   0.00    0.0
2296 259430.999   -538990.7192  -6825558.6845  -3555797.3518   5  15   2.9201   5.2084   3.2016   2.6111   1.9185  -1.2002   0.00    0.0
2296 259431.999   -535979.2850  -6822839.8831  -3561467.1322   5  15   2.9199   5.2092   3.2016   2.6108   1.9193  -1.1989   0.00    0.0
2296 259432.999   -532964.1956  -6820114.4969  -3567134.5296   5  15   2.9196   5.2101   3.2016   2.6105   1.9201  -1.1976   0.00    0.0
2296 259433.999   -529949.1380  -6817384.2269  -3572798.2247   5  15   2.9194   5.2109   3.2016   2.6102   1.9209  -1.1963   0.00    0.0
2296 259434.999   -526933.9007  -6814648.2936  -3578459.1272   5  15   2.9191   5.2118   3.2017   2.6099   1.9217  -1.1950   0.00    0.0
2296 259435.999   -523916.6623  -6811906.4300  -3584117.0609   5  15   2.9189   5.2127   3.2017   2.6097   1.9225  -1.1936   0.00    0.0
2296 259436.999   -520897.6361  -6809156.4561  -3589770.9642   5  15   2.9186   5.2135   3.2017   2.6094   1.9233  -1.1923   0.00    0.0
2296 259437.999   -517881.2727  -6806405.7063  -3595421.7742   5  16   2.4571   4.8757   3.2015   1.9739   1.9025  -1.2203   0.00    0.0
2296 259438.999   -514861.9580  -6803648.1535  -3601070.0552   5  16   2.4567   4.8766   3.2015   1.9735   1.9029  -1.2195   0.00    0.0
2296 259439.999   -511841.7307  -6800885.9447  -3606716.0794   5  16   2.4563   4.8775   3.2015   1.9730   1.9033  -1.2188   0.00    0.0
2296 259440.999   -508822.1021  -6798117.6696  -3612358.3513   5  16   2.4559   4.8783   3.2015   1.9725   1.9037  -1.2180   0.00    0.0
2296 259441.999   -505799.5592  -6795342.6487  -3617996.2598   5  16   2.4556   4.8792   3.2016   1.9720   1.9041  -1.2173   0.00    0.0
2296 259442.999   -502777.2797  -6792562.7112  -3623633.3378   5  16   2.4552   4.8801   3.2016   1.9716   1.9045  -1.2165   0.00    0.0
2296 259443.999   -499752.9786  -6789777.5153  -3629265.8577   5  16   2.4548   4.8810   3.2016   1.9711   1.9049  -1.2158   0.00    0.0
2296 259444.999   -496729.2247  -6786985.7281  -3634894.3583   5  16   2.4545   4.8819   3.2016   1.9706   1.9053  -1.2151   0.00    0.0
2296 259445.999   -493704.8551  -6784188.7179  -3640519.3500   5  16   2.4541   4.8828   3.2017   1.9702   1.9057  -1.2143   0.00    0.0
2296 259446.999   -490678.2998  -6781390.3645  -3646144.4298   5  16   2.4537   4.8837   3.2017   1.9697   1.9061  -1.2136   0.00    0.0
2296 259447.999   -487651.9889  -6778584.8536  -3651765.2172   5  16   2.4534   4.8846   3.2018   1.9692   1.9065  -1.2128   0.00    0.0
2296 259448.999   -484624.4788  -6775771.2232  -3657380.7973   5  16   2.4530   4.8855   3.2018   1.9688   1.9069  -1.2121   0.00    0.0
2296 259449.999   -481596.6226  -6772953.1986  -3662993.0344   5  15   2.4549   4.9082   3.4875   1.9807   1.7316  -1.2701   0.00    0.0
2296 259450.999   -478567.0654  -6770129.1073  -3668605.0783   5  15   2.4545   4.9091   3.4873   1.9801   1.7324  -1.2692   0.00    0.0
2296 259451.999   -475537.4054  -6767301.6144  -3674212.6225   5  15   2.4542   4.9099   3.4872   1.9796   1.7333  -1.2682   0.00    0.0
2296 259452.999   -472507.0049  -6764468.1197  -3679816.2148   5  15   2.4538   4.9107   3.4870   1.9791   1.7341  -1.2673   0.00    0.0
2296 259453.999   -469474.3657  -6761630.6015  -3685418.5964   5  15   2.4534   4.9116   3.4869   1.9786   1.7350  -1.2664   0.00    0.0
2296 259454.999   -466443.0327  -6758785.8815  -3691015.6534   5  15   2.4530   4.9124   3.4867   1.9781   1.7358  -1.2655   0.00    0.0
2296 259455.999   -463408.4054  -6755934.1741  -3696610.1087   5  15   2.4527   4.9132   3.4866   1.9775   1.7366  -1.2646   0.00    0.0
2296 259456.999   -460374.9205  -6753079.5932  -3702201.5573   5  15   2.4523   4.9141   3.4864   1.9770   1.7374  -1.2637   0.00    0.0
2296 259457.999   -457340.6090  -6750219.9561  -3707788.6752   5  15   2.4519   4.9149   3.4863   1.9765   1.7383  -1.2627   0.00    0.0
2296 259458.999   -454304.3857  -6747353.0389  -3713372.5930   5  15   2.4516   4.9158   3.4861   1.9760   1.7391  -1.2618   0.00    0.0
2296 259459.999   -451268.3704  -6744481.4527  -3718954.7075   5  15   2.4512   4.9166   3.4860   1.9755   1.7399  -1.2609   0.00    0.0
2296 259460.999   -448230.4315  -6741604.3099  -3724533.2568   5  15   2.4508   4.9175   3.4858   1.9750   1.7407  -1.2600   0.00    0.0
2296 259461.999   -445192.5228  -6738722.5199  -3730109.1692   5  15   2.4504   4.9184   3.4857   1.9745   1.7415  -1.2591   0.00    0.0
2296 259462.999   -442153.1847  -6735835.3736  -3735681.1120   5  15   2.4501   4.9192   3.4855   1.9740   1.7424  -1.2582   0.00    0.0
2296 259463.999   -439112.8674  -6732941.5639  -3741249.5785   5  15   2.4497   4.9201   3.4854   1.9735   1.7432  -1.2573   0.00    0.0
2296 259464.999   -436072.8775  -6730044.1475  -3746814.0551   5  15   2.4494   4.9210   3.4853   1.9730   1.7440  -1.2564   0.00    0.0
2296 259465.999   -433031.6134  -6727138.1503  -3752375.3841   5  15   2.4490   4.9218   3.4851   1.9725   1.7448  -1.2555   0.00    0.0
2296 259466.999   -429989.1914  -6724230.7071  -3757935.6521   5  15   2.4486   4.9227   3.4850   1.9720   1.7456  -1.2545   0.00    0.0
2296 259467.999   -426946.9351  -6721319.3961  -3763492.6036   5  15   2.4483   4.9236   3.4849   1.9715   1.7464  -1.2536   0.00    0.0
2296 259468.999   -423903.7840  -6718396.6416  -3769043.6682   5  15   2.4479   4.9245   3.4847   1.9710   1.7472  -1.2527   0.00    0.0
2296 259469.999   -420858.6529  -6715473.4542  -3774593.2329   5  15   2.4475   4.9254   3.4846   1.9705   1.7480  -1.2518   0.00    0.0
2296 259470.999   -417812.7106  -6712542.2370  -3780138.4887   5  15   2.4472   4.9263   3.4845   1.9700   1.7488  -1.2509   0.00    0.0
2296 259471.999   -414767.0467  -6709606.7442  -3785682.5464   5  15   2.4468   4.9272   3.4843   1.9695   1.7496  -1.2500   0.00    0.0
2296 259472.999   -411719.6009  -6706665.5347  -3791220.0564   5  15   2.4465   4.9280   3.4842   1.9690   1.7504  -1.2491   0.00    0.0
2296 259473.999   -408672.5222  -6703719.2563  -3796756.5776   5  15   2.4461   4.9289   3.4841   1.9685   1.7512  -1.2482   0.00    0.0
2296 259474.999   -405623.0808  -6700767.0708  -3802289.3988   5  15   2.4458   4.9299   3.4840   1.9680   1.7520  -1.2473   0.00    0.0
2296 259475.999   -402575.0274  -6697810.1917  -3807817.8999   5  15   2.4454   4.9308   3.4838   1.9675   1.7528  -1.2464   0.00    0.0
2296 259476.999   -399524.9688  -6694847.7681  -3813344.9959   5  15   2.4451   4.9317   3.4837   1.9670   1.7535  -1.2455   0.00    0.0
2296 259477.999   -396473.9505  -6691880.6853  -3818868.0759   5  15   2.4447   4.9326   3.4836   1.9665   1.7543  -1.2446   0.00    0.0
2296 259478.998   -393421.8790  -6688906.2941  -3824385.8859   5  15   2.4444   4.9335   3.4835   1.9661   1.7551  -1.2437   0.00    0.0
2296 259479.998   -390369.8938  -6685929.7751  -3829903.7017   5  15   2.4440   4.9344   3.4834   1.9656   1.7559  -1.2428   0.00    0.0
2296 259480.998   -387317.3266  -6682944.4876  -3835415.7765   5  15   2.4437   4.9353   3.4833   1.9651   1.7567  -1.2419   0.00    0.0
2296 259481.998   -384263.0557  -6679954.5782  -3840924.3729   5  15   2.4433   4.9363   3.4832   1.9646   1.7574  -1.2410   0.00    0.0
2296 259482.998   -381208.3607  -6676960.2409  -3846431.3151   5  15   2.4430   4.9372   3.4831   1.9641   1.7582  -1.2401   0.00    0.0
2296 259483.998   -378152.9566  -6673959.7351  -3851933.1000   5  15   2.4426   4.9381   3.4830   1.9637   1.7590  -1.2392   0.00    0.0
2296 259484.998   -375096.8310  -6670955.5085  -3857434.2107   5  15   2.4423   4.9391   3.4828   1.9632   1.7598  -1.2383   0.00    0.0
2296 259485.998   -372039.8206  -6667946.4959  -3862931.1968   5  15   2.4419   4.9400   3.4827   1.9627   1.7605  -1.2374   0.00    0.0
2296 259486.998   -368981.2165  -6664929.9815  -3868423.1398   5  15   2.4416   4.9410   3.4826   1.9622   1.7613  -1.2365   0.00    0.0
2296 259487.998   -365924.3099  -6661909.7889  -3873912.7932   5  15   2.4412   4.9419   3.4825   1.9618   1.7621  -1.2356   0.00    0.0
2296 259488.998   -362864.3650  -6658882.9751  -3879397.6684   5  15   2.4409   4.9429   3.4824   1.9613   1.7628  -1.2347   0.00    0.0
2296 259489.998   -359804.3602  -6655852.8594  -3884881.6085   5  15   2.4406   4.9438   3.4823   1.9608   1.7636  -1.2338   0.00    0.0
2296 259490.998   -356742.9894  -6652813.9348  -3890359.2658   5  15   2.4402   4.9448   3.4823   1.9603   1.7643  -1.2329   0.00    0.0
2296 259491.998   -353682.5300  -6649772.5038  -3895835.5400   5  15   2.4399   4.9457   3.4822   1.9599   1.7651  -1.2321   0.00    0.0
2296 259492.998   -350619.9244  -6646725.1117  -3901307.9655   5  15   2.4395   4.9467   3.4821   1.9594   1.7658  -1.2312   0.00    0.0
2296 259493.998   -347557.1531  -6643672.1495  -3906778.0073   5  15   2.4392   4.9477   3.4820   1.9589   1.7666  -1.2303   0.00    0.0
2296 259494.998   -344492.9847  -6640614.2003  -3912242.9966   5  15   2.4389   4.9486   3.4819   1.9585   1.7674  -1.2294   0.00    0.0
2296 259495.998   -341428.6176  -6637548.5755  -3917705.3806   5  15   2.4385   4.9496   3.4818   1.9580   1.7681  -1.2285   0.00    0.0
2296 259496.998   -338363.9944  -6634482.3193  -3923164.2645   5  15   2.4382   4.9506   3.4817   1.9576   1.7689  -1.2276   0.00    0.0
2296 259497.998   -335297.4782  -6631409.3505  -3928620.4987   5  15   2.4379   4.9516   3.4816   1.9571   1.7696  -1.2267   0.00    0.0
2296 259498.998   -332230.9806  -6628331.1016  -3934073.4042   5  15   2.4375   4.9525   3.4816   1.9566   1.7703  -1.2258   0.00    0.0
2296 259499.998   -329163.8558  -6625245.3471  -3939521.0122   5  15   2.4372   4.9535   3.4815   1.9562   1.7711  -1.2250   0.00    0.0
2296 259500.998   -326095.2752  -6622156.0624  -3944967.6863   5  15   2.4369   4.9545   3.4814   1.9557   1.7718  -1.2241   0.00    0.0
2296 259501.998   -323027.2707  -6619063.0702  -3950410.5710   5  15   2.4365   4.9555   3.4813   1.9553   1.7726  -1.2232   0.00    0.0
2296 259502.998   -319956.7875  -6615959.9059  -3955847.0678   5  15   2.4362   4.9565   3.4813   1.9548   1.7733  -1.2223   0.00    0.0
2296 259503.998   -316886.9406  -6612855.6763  -3961284.0360   5  15   2.4359   4.9575   3.4812   1.9544   1.7740  -1.2214   0.00    0.0
2296 259504.998   -313815.7673  -6609746.3776  -3966714.2460   5  15   2.4356   4.9585   3.4811   1.9539   1.7748  -1.2205   0.00    0.0
2296 259505.998   -310744.1443  -6606628.2745  -3972140.1634   5  15   2.4352   4.9595   3.4810   1.9535   1.7755  -1.2197   0.00    0.0
2296 259506.998   -307671.6479  -6603508.7773  -3977567.0227   5  15   2.4349   4.9605   3.4810   1.9530   1.7762  -1.2188   0.00    0.0
2296 259507.998   -304598.2189  -6600383.0119  -3982988.1278   5  15   2.4346   4.9616   3.4809   1.9526   1.7770  -1.2179   0.00    0.0
2296 259508.998   -301523.7649  -6597248.2523  -3988405.2772   5  15   2.4343   4.9626   3.4809   1.9521   1.7777  -1.2170   0.00    0.0
2296 259509.998   -298450.1486  -6594112.1135  -3993819.5264   5  15   2.4340   4.9636   3.4808   1.9517   1.7784  -1.2162   0.00    0.0
2296 259510.998   -295374.2826  -6590970.0604  -3999230.1338   5  15   2.4336   4.9646   3.4807   1.9512   1.7791  -1.2153   0.00    0.0
2296 259511.998   -292298.1233  -6587822.4812  -4004637.0732   5  15   2.4333   4.9656   3.4807   1.9508   1.7799  -1.2144   0.00    0.0
2296 259512.998   -289221.1744  -6584670.8818  -4010041.6280   5  15   2.4330   4.9667   3.4806   1.9503   1.7806  -1.2135   0.00    0.0
2296 259513.998   -286143.6655  -6581514.5670  -4015442.6965   5  15   2.4327   4.9677   3.4806   1.9499   1.7813  -1.2127   0.00    0.0
2296 259514.998   -283065.6264  -6578350.8402  -4020840.0123   5  15   2.4324   4.9687   3.4805   1.9495   1.7820  -1.2118   0.00    0.0
2296 259515.998   -279986.4211  -6575181.2064  -4026233.4715   5  15   2.4321   4.9698   3.4805   1.9490   1.7827  -1.2109   0.00    0.0
2296 259516.998   -276906.9640  -6572009.2231  -4031622.9236   5  15   2.4317   4.9708   3.4804   1.9486   1.7834  -1.2101   0.00    0.0
2296 259517.998   -273826.8012  -6568829.8945  -4037009.5894   5  15   2.4314   4.9719   3.4804   1.9481   1.7842  -1.2092   0.00    0.0
2296 259518.998   -270745.1567  -6565646.1511  -4042392.8706   5  15   2.4311   4.9729   3.4803   1.9477   1.7849  -1.2083   0.00    0.0
2296 259519.998   -267663.6681  -6562456.4025  -4047772.5950   5  15   2.4308   4.9740   3.4803   1.9473   1.7856  -1.2075   0.00    0.0
2296 259520.998   -264581.6731  -6559262.6933  -4053148.3679   5  15   2.4305   4.9751   3.4803   1.9468   1.7863  -1.2066   0.00    0.0
2296 259521.998   -261498.2492  -6556063.0851  -4058519.8254   5  15   2.4302   4.9761   3.4802   1.9464   1.7870  -1.2057   0.00    0.0
2296 259522.998   -258414.7594  -6552857.6894  -4063888.9641   5  15   2.4299   4.9772   3.4802   1.9460   1.7877  -1.2049   0.00    0.0
2296 259523.998   -255329.8810  -6549646.9281  -4069253.9917   5  15   2.4296   4.9783   3.4801   1.9455   1.7884  -1.2040   0.00    0.0
2296 259524.998   -252244.6099  -6546431.9077  -4074617.2384   5  15   2.4293   4.9793   3.4801   1.9451   1.7891  -1.2031   0.00    0.0
2296 259525.998   -249157.6802  -6543211.4660  -4079974.7362   5  15   2.4290   4.9804   3.4801   1.9447   1.7898  -1.2023   0.00    0.0
2296 259526.998   -246072.5772  -6539986.3830  -4085329.4095   5  15   2.4287   4.9815   3.4801   1.9443   1.7905  -1.2014   0.00    0.0
2296 259527.998   -242985.0433  -6536755.0793  -4090680.9198   5  15   2.4284   4.9826   3.4800   1.9438   1.7912  -1.2006   0.00    0.0
2296 259528.998   -239896.8198  -6533518.9227  -4096027.6469   5  15   2.4281   4.9837   3.4800   1.9434   1.7919  -1.1997   0.00    0.0
2296 259529.998   -236807.7566  -6530278.3088  -4101373.1181   5  15   2.4278   4.9848   3.4800   1.9430   1.7926  -1.1988   0.00    0.0
2296 259530.998   -233719.2048  -6527030.4038  -4106713.6093   5  15   2.4275   4.9859   3.4800   1.9426   1.7933  -1.1980   0.00    0.0
2296 259531.998   -230628.6527  -6523780.6133  -4112050.3572   5  15   2.4272   4.9870   3.4799   1.9421   1.7940  -1.1971   0.00    0.0
2296 259532.998   -227537.3806  -6520523.5758  -4117383.8949   5  15   2.4269   4.9881   3.4799   1.9417   1.7947  -1.1963   0.00    0.0
2296 259533.998   -224446.5321  -6517261.9218  -4122714.2434   5  15   2.4266   4.9892   3.4799   1.9413   1.7954  -1.1954   0.00    0.0
2296 259534.998   -221355.0429  -6513995.3343  -4128040.1555   5  15   2.4263   4.9902   3.4799   1.9409   1.7959  -1.1945   0.00    0.0
2296 259535.998   -218261.8600  -6510723.0500  -4133361.5374   5  15   2.4260   4.9913   3.4798   1.9406   1.7965  -1.1936   0.00    0.0
2296 259536.998   -215169.7621  -6507446.6372  -4138681.4745   5  15   2.4256   4.9923   3.4797   1.9402   1.7970  -1.1926   0.00    0.0
2296 259537.998   -212075.5081  -6504163.0568  -4143996.7172   5  15   2.4253   4.9933   3.4797   1.9399   1.7975  -1.1917   0.00    0.0
2296 259538.998   -208981.3378  -6500874.3079  -4149308.6695   5  15   2.4250   4.9944   3.4796   1.9396   1.7981  -1.1908   0.00    0.0
2296 259539.998   -205885.3330  -6497582.5265  -4154617.4567   5  15   2.4247   4.9954   3.4795   1.9392   1.7986  -1.1898   0.00    0.0
2296 259540.998   -202788.7729  -6494283.0923  -4159921.6537   5  15   2.4244   4.9965   3.4795   1.9389   1.7991  -1.1889   0.00    0.0
2296 259541.998   -199692.5538  -6490981.7916  -4165223.2514   5  15   2.4241   4.9975   3.4794   1.9385   1.7996  -1.1880   0.00    0.0
2296 259542.998   -196595.6043  -6487673.0189  -4170521.1248   5  15   2.4238   4.9986   3.4794   1.9382   1.8002  -1.1870   0.00    0.0
2296 259543.998   -193497.6217  -6484358.6077  -4175814.8640   5  15   2.4235   4.9996   3.4793   1.9379   1.8007  -1.1861   0.00    0.0
2296 259544.998   -190398.7223  -6481043.4541  -4181104.5808   5  15   2.4232   5.0007   3.4793   1.9375   1.8012  -1.1852   0.00    0.0
2296 259545.998   -187299.8230  -6477719.1864  -4186391.7194   5  15   2.4229   5.0018   3.4792   1.9372   1.8017  -1.1843   0.00    0.0
2296 259546.998   -184199.8937  -6474387.7284  -4191674.7325   5  15   2.4226   5.0028   3.4792   1.9369   1.8022  -1.1833   0.00    0.0
2296 259547.998   -181098.6663  -6471053.6063  -4196952.4588   5  15   2.4223   5.0039   3.4791   1.9366   1.8027  -1.1824   0.00    0.0
2296 259548.998   -177998.2253  -6467714.1100  -4202229.6924   5  15   2.4220   5.0050   3.4791   1.9362   1.8032  -1.1815   0.00    0.0
2296 259549.998   -174896.0229  -6464370.9426  -4207501.3333   5  15   2.4217   5.0061   3.4790   1.9359   1.8037  -1.1805   0.00    0.0
2296 259550.998   -171794.3486  -6461021.1423  -4212768.8225   5  15   2.4214   5.0071   3.4790   1.9356   1.8042  -1.1796   0.00    0.0
2296 259551.998   -168691.1999  -6457667.2022  -4218034.6038   5  15   2.4211   5.0082   3.4790   1.9353   1.8047  -1.1787   0.00    0.0
2296 259552.998   -165586.8683  -6454307.0500  -4223295.6644   5  15   2.4208   5.0093   3.4789   1.9349   1.8052  -1.1778   0.00    0.0
2296 259553.998   -162482.4528  -6450940.2244  -4228552.2679   5  15   2.4205   5.0104   3.4789   1.9346   1.8057  -1.1768   0.00    0.0
2296 259554.998   -159377.4240  -6447571.7915  -4233806.9812   5  15   2.4202   5.0115   3.4789   1.9343   1.8062  -1.1759   0.00    0.0
2296 259555.998   -156272.2114  -6444197.2352  -4239056.7647   5  15   2.4199   5.0126   3.4788   1.9340   1.8067  -1.1750   0.00    0.0
2296 259556.998   -153165.7221  -6440818.0344  -4244303.5644   5  15   2.4196   5.0137   3.4788   1.9337   1.8072  -1.1741   0.00    0.0
2296 259557.998   -150058.6574  -6437432.9316  -4249546.4144   5  15   2.4193   5.0148   3.4788   1.9334   1.8077  -1.1731   0.00    0.0
2296 259558.998   -146951.4622  -6434043.1077  -4254785.7788   5  15   2.4190   5.0159   3.4788   1.9331   1.8082  -1.1722   0.00    0.0
2296 259559.998   -143843.2317  -6430647.4432  -4260021.4414   5  15   2.4187   5.0170   3.4787   1.9328   1.8087  -1.1713   0.00    0.0
2296 259560.998   -140734.6580  -6427246.6903  -4265251.7728   5  15   2.4184   5.0181   3.4787   1.9324   1.8091  -1.1704   0.00    0.0
2296 259561.998   -137625.0284  -6423840.9560  -4270479.5923   5  15   2.4181   5.0192   3.4787   1.9321   1.8096  -1.1695   0.00    0.0
2296 259562.998   -134515.7908  -6420429.9304  -4275703.7305   5  15   2.4179   5.0204   3.4787   1.9318   1.8101  -1.1685   0.00    0.0
2296 259563.998   -131404.6531  -6417014.1366  -4280924.0926   5  15   2.4176   5.0215   3.4787   1.9315   1.8106  -1.1676   0.00    0.0
2296 259564.998   -128294.2484  -6413593.1585  -4286139.8014   5  15   2.4173   5.0226   3.4786   1.9312   1.8110  -1.1667   0.00    0.0
2296 259565.998   -125182.8102  -6410170.5021  -4291355.6663   5  15   2.4170   5.0237   3.4786   1.9309   1.8115  -1.1658   0.00    0.0
2296 259566.998   -122070.0993  -6406736.6267  -4296563.5258   5  15   2.4167   5.0249   3.4786   1.9306   1.8120  -1.1649   0.00    0.0
2296 259567.998   -118957.0058  -6403300.9872  -4301769.3314   5  15   2.4164   5.0260   3.4786   1.9303   1.8125  -1.1639   0.00    0.0
2296 259568.998   -115842.3735  -6399858.0414  -4306971.9322   5  15   2.4162   5.0271   3.4786   1.9300   1.8129  -1.1630   0.00    0.0
2296 259569.998   -112728.6095  -6396413.2931  -4312170.4971   5  15   2.4159   5.0283   3.4786   1.9297   1.8134  -1.1621   0.00    0.0
2296 259570.998   -109613.9844  -6392961.8973  -4317362.4551   5  15   2.4156   5.0294   3.4786   1.9295   1.8138  -1.1612   0.00    0.0
2296 259571.998   -106498.0148  -6389505.2011  -4322554.4474   5  15   2.4153   5.0306   3.4786   1.9292   1.8143  -1.1603   0.00    0.0
2296 259572.998   -103382.4558  -6386044.5696  -4327741.0392   5  15   2.4150   5.0317   3.4786   1.9289   1.8148  -1.1593   0.00    0.0
2296 259573.998   -100265.6487  -6382578.0216  -4332924.2215   5  15   2.4148   5.0329   3.4786   1.9286   1.8152  -1.1584   0.00    0.0
2296 259574.998    -97148.5469  -6379105.9536  -4338102.8104   5  15   2.4145   5.0340   3.4786   1.9283   1.8157  -1.1575   0.00    0.0
2296 259575.998    -94030.9349  -6375632.0668  -4343280.3628   5  15   2.4142   5.0352   3.4786   1.9280   1.8161  -1.1566   0.00    0.0
2296 259576.998    -90911.7328  -6372148.3455  -4348451.2950   5  15   2.4139   5.0363   3.4786   1.9277   1.8166  -1.1557   0.00    0.0
2296 259577.998    -87794.1345  -6368661.3592  -4353618.6789   5  15   2.4137   5.0375   3.4786   1.9274   1.8170  -1.1548   0.00    0.0
2296 259578.998    -84674.2416  -6365171.1898  -4358783.7919   5  15   2.4134   5.0387   3.4786   1.9272   1.8175  -1.1539   0.00    0.0
2296 259579.998    -81553.9944  -6361672.5073  -4363943.5515   5  15   2.4131   5.0398   3.4786   1.9269   1.8179  -1.1529   0.00    0.0
2296 259580.998    -78433.5060  -6358170.7338  -4369100.5974   5  15   2.4129   5.0410   3.4787   1.9266   1.8183  -1.1520   0.00    0.0
2296 259581.998    -75311.8726  -6354663.8044  -4374253.2829   5  15   2.4126   5.0422   3.4787   1.9263   1.8188  -1.1511   0.00    0.0
2296 259582.998    -72190.1451  -6351151.5291  -4379401.7077   5  15   2.4123   5.0434   3.4787   1.9261   1.8192  -1.1502   0.00    0.0
2296 259583.998    -69066.8444  -6347638.1742  -4384549.3388   5  15   2.4121   5.0445   3.4787   1.9258   1.8197  -1.1493   0.00    0.0
2296 259584.998    -65944.9313  -6344115.6847  -4389689.4234   5  15   2.4118   5.0457   3.4788   1.9255   1.8201  -1.1484   0.00    0.0
2296 259585.998    -62821.0890  -6340588.8485  -4394826.6400   5  15   2.4115   5.0469   3.4788   1.9252   1.8205  -1.1475   0.00    0.0
2296 259586.998    -59696.3769  -6337055.1321  -4399961.8125   5  15   2.4113   5.0481   3.4788   1.9250   1.8210  -1.1466   0.00    0.0
2296 259587.998    -56572.0670  -6333518.5514  -4405091.5200   5  15   2.4110   5.0493   3.4788   1.9247   1.8214  -1.1456   0.00    0.0
2296 259588.998    -53447.0397  -6329978.2875  -4410217.5745   5  15   2.4108   5.0505   3.4789   1.9244   1.8218  -1.1447   0.00    0.0
2296 259589.998    -50320.4958  -6326428.3304  -4415339.2398   5  15   2.4105   5.0517   3.4789   1.9242   1.8222  -1.1438   0.00    0.0
2296 259590.998    -47194.4277  -6322879.8318  -4420459.4183   5  15   2.4102   5.0529   3.4789   1.9239   1.8227  -1.1429   0.00    0.0
2296 259591.998    -44067.0760  -6319321.9898  -4425573.5842   5  15   2.4100   5.0541   3.4790   1.9237   1.8231  -1.1420   0.00    0.0
2296 259592.998    -40940.5281  -6315760.0778  -4430684.7188   5  15   2.4097   5.0553   3.4790   1.9234   1.8235  -1.1411   0.00    0.0
2296 259593.998    -37812.3127  -6312192.3512  -4435791.1915   5  15   2.4095   5.0565   3.4791   1.9231   1.8239  -1.1402   0.00    0.0
2296 259594.998    -34683.2017  -6308621.1193  -4440894.4296   5  15   2.4092   5.0578   3.4791   1.9229   1.8243  -1.1393   0.00    0.0
2296 259595.998    -31553.7275  -6305045.2106  -4445993.9057   5  15   2.4090   5.0590   3.4792   1.9226   1.8248  -1.1384   0.00    0.0
2296 259596.998    -28424.0004  -6301460.4179  -4451088.6830   5  15   2.4087   5.0602   3.4792   1.9224   1.8252  -1.1375   0.00    0.0
2296 259597.998    -25293.2392  -6297874.5638  -4456181.4971   5  15   2.4085   5.0614   3.4793   1.9221   1.8256  -1.1366   0.00    0.0
2296 259598.998    -22162.9534  -6294283.9192  -4461269.1881   5  15   2.4082   5.0627   3.4793   1.9219   1.8260  -1.1357   0.00    0.0
2296 259599.998    -19032.2262  -6290687.0502  -4466353.6563   5  15   2.4080   5.0639   3.4794   1.9216   1.8264  -1.1348   0.00    0.0
2296 259600.998    -15900.0189  -6287085.8224  -4471432.2379   5  15   2.4077   5.0651   3.4794   1.9214   1.8268  -1.1338   0.00    0.0
2296 259601.998    -12768.2550  -6283479.2751  -4476508.9776   5  15   2.4075   5.0664   3.4795   1.9211   1.8272  -1.1329   0.00    0.0
2296 259602.998     -9634.8653  -6279868.8598  -4481583.5861   5  15   2.4072   5.0676   3.4795   1.9209   1.8276  -1.1320   0.00    0.0
2296 259603.998     -6501.1500  -6276250.5253  -4486649.9749   5  15   2.4070   5.0689   3.4796   1.9206   1.8280  -1.1311   0.00    0.0
2296 259604.998     -3367.4380  -6272627.7433  -4491713.2477   5  15   2.4067   5.0701   3.4797   1.9204   1.8284  -1.1302   0.00    0.0
2296 259605.998      -232.2607  -6269004.4067  -4496775.0289   5  15   2.4065   5.0714   3.4797   1.9202   1.8288  -1.1293   0.00    0.0
2296 259606.998      2902.4420  -6265369.9907  -4501831.0137   5  15   2.4062   5.0726   3.4798   1.9199   1.8292  -1.1284   0.00    0.0
2296 259607.998      6038.4676  -6261734.5406  -4506883.7718   5  15   2.4060   5.0739   3.4799   1.9197   1.8296  -1.1275   0.00    0.0
2296 259608.998      9175.0796  -6258092.0029  -4511932.3676   5  15   2.4058   5.0751   3.4800   1.9194   1.8300  -1.1266   0.00    0.0
2296 259609.998     12312.7914  -6254445.3596  -4516976.5396   5  15   2.4055   5.0764   3.4800   1.9192   1.8304  -1.1257   0.00    0.0
2296 259610.998     15448.5082  -6250794.7135  -4522018.9309   5  15   2.4053   5.0777   3.4801   1.9190   1.8308  -1.1248   0.00    0.0
2296 259611.998     18586.2651  -6247140.1461  -4527057.0235   5  15   2.4050   5.0789   3.4802   1.9187   1.8312  -1.1239   0.00    0.0
2296 259612.998     21724.3133  -6243479.1321  -4532088.9196   5  15   2.4048   5.0802   3.4803   1.9185   1.8315  -1.1230   0.00    0.0
2296 259613.998     24863.1367  -6239812.2126  -4537118.1092   5  15   2.4046   5.0815   3.4804   1.9183   1.8319  -1.1221   0.00    0.0
2296 259614.998     28002.4364  -6236140.3758  -4542142.6146   5  15   2.4043   5.0828   3.4805   1.9181   1.8323  -1.1212   0.00    0.0
2296 259615.998     31142.1251  -6232465.2187  -4547163.6947   5  15   2.4041   5.0841   3.4805   1.9178   1.8327  -1.1203   0.00    0.0
2296 259616.998     34282.1649  -6228784.5110  -4552182.4763   5  15   2.4039   5.0853   3.4806   1.9176   1.8331  -1.1194   0.00    0.0
2296 259617.998     37423.7720  -6225098.6026  -4557194.9637   5  16   2.1297   4.5136   3.4784   1.0308   1.9130  -1.0533   0.00    0.0
2296 259618.998     40564.6972  -6221409.3731  -4562206.8055   5  16   2.1292   4.5140   3.4785   1.0288   1.9131  -1.0526   0.00    0.0
2296 259619.998     43705.5314  -6217712.0994  -4567210.2094   5  16   2.1288   4.5144   3.4787   1.0269   1.9132  -1.0519   0.00    0.0
2296 259620.998     46849.0576  -6214011.7502  -4572211.8244   5  16   2.1283   4.5149   3.4788   1.0249   1.9132  -1.0512   0.00    0.0
2296 259621.998     49991.0701  -6210306.7028  -4577210.7570   5  16   2.1278   4.5153   3.4789   1.0230   1.9133  -1.0506   0.00    0.0
2296 259622.998     53134.9909  -6206596.2610  -4582203.0663   5  16   2.1274   4.5157   3.4790   1.0210   1.9134  -1.0499   0.00    0.0
2296 259623.998     56279.3808  -6202882.0305  -4587193.1042   5  16   2.1269   4.5161   3.4792   1.0191   1.9135  -1.0492   0.00    0.0
2296 259624.998     59423.3422  -6199160.7455  -4592179.0951   5  16   2.1265   4.5165   3.4793   1.0171   1.9136  -1.0485   0.00    0.0
2296 259625.998     62567.8040  -6195436.0867  -4597159.8893   5  16   2.1260   4.5169   3.4794   1.0152   1.9137  -1.0478   0.00    0.0
2296 259626.998     65713.6844  -6191706.9008  -4602137.7062   5  16   2.1256   4.5173   3.4796   1.0132   1.9137  -1.0471   0.00    0.0
2296 259627.998     68858.9150  -6187971.2423  -4607111.0266   5  16   2.1251   4.5178   3.4797   1.0112   1.9138  -1.0465   0.00    0.0
2296 259628.998     72004.8993  -6184231.4549  -4612080.8351   5  16   2.1247   4.5182   3.4798   1.0093   1.9139  -1.0458   0.00    0.0
2296 259629.998     75151.4645  -6180488.5972  -4617047.8999   5  16   2.1243   4.5186   3.4800   1.0073   1.9139  -1.0451   0.00    0.0
2296 259630.998     78298.8708  -6176739.9892  -4622009.1635   5  16   2.1238   4.5190   3.4801   1.0053   1.9140  -1.0444   0.00    0.0
2296 259631.998     81447.1527  -6172985.1297  -4626967.1994   5  16   2.1234   4.5195   3.4803   1.0034   1.9141  -1.0438   0.00    0.0
2296 259632.998     84595.1128  -6169226.3549  -4631919.9033   5  16   2.1229   4.5199   3.4804   1.0014   1.9141  -1.0431   0.00    0.0
2296 259633.998     87743.6764  -6165460.2514  -4636869.3306   5  16   2.1225   4.5203   3.4806   0.9994   1.9142  -1.0424   0.00    0.0
2296 259634.998     90892.2291  -6161691.6431  -4641814.1316   5  16   2.1221   4.5208   3.4807   0.9974   1.9143  -1.0417   0.00    0.0
2296 259635.998     94041.8971  -6157918.4623  -4646756.6509   5  16   2.1216   4.5212   3.4809   0.9954   1.9143  -1.0411   0.00    0.0
2296 259636.998     97191.5398  -6154140.3224  -4651693.6708   5  16   2.1212   4.5216   3.4811   0.9934   1.9144  -1.0404   0.00    0.0
2296 259637.998    100342.8968  -6150356.2766  -4656627.9076   5  16   2.1207   4.5221   3.4812   0.9914   1.9144  -1.0397   0.00    0.0
2296 259638.998    103493.6074  -6146567.4804  -4661556.3623   5  16   2.1203   4.5225   3.4814   0.9895   1.9145  -1.0390   0.00    0.0
2296 259639.998    106645.5329  -6142776.8479  -4666483.1010   5  16   2.1199   4.5230   3.4816   0.9875   1.9145  -1.0384   0.00    0.0
2296 259640.998    109797.2430  -6138978.1751  -4671404.9334   5  16   2.1194   4.5234   3.4817   0.9855   1.9146  -1.0377   0.00    0.0
2296 259641.998    112949.9048  -6135173.8140  -4676321.5640   5  16   2.1190   4.5239   3.4819   0.9835   1.9146  -1.0370   0.00    0.0
2296 259642.998    116102.8200  -6131368.4689  -4681235.0691   5  16   2.1186   4.5243   3.4821   0.9814   1.9147  -1.0364   0.00    0.0
2296 259643.998    119256.7829  -6127556.6019  -4686143.7254   5  16   2.1182   4.5248   3.4822   0.9794   1.9147  -1.0357   0.00    0.0
2296 259644.998    122409.6896  -6123737.1427  -4691049.3698   5  16   2.1177   4.5253   3.4824   0.9774   1.9148  -1.0350   0.00    0.0
2296 259645.998    125563.5204  -6119915.2265  -4695949.0682   5  16   2.1173   4.5257   3.4826   0.9754   1.9148  -1.0344   0.00    0.0
2296 259646.998    128718.4486  -6116088.6377  -4700846.3467   5  16   2.1169   4.5262   3.4828   0.9734   1.9148  -1.0337   0.00    0.0
2296 259647.998    131873.6384  -6112257.7819  -4705739.6165   5  16   2.1165   4.5267   3.4830   0.9714   1.9149  -1.0331   0.00    0.0
2296 259648.998    135029.7897  -6108419.7040  -4710628.1755   5  16   2.1160   4.5271   3.4832   0.9694   1.9149  -1.0324   0.00    0.0
2296 259649.998    138185.6322  -6104579.1090  -4715512.7806   5  16   2.1156   4.5276   3.4834   0.9673   1.9149  -1.0317   0.00    0.0
2296 259650.998    141342.0631  -6100733.5309  -4720394.7923   5  16   2.1152   4.5281   3.4836   0.9653   1.9150  -1.0311   0.00    0.0
2296 259651.998    144498.3154  -6096882.3064  -4725270.1062   5  16   2.1148   4.5285   3.4838   0.9633   1.9150  -1.0304   0.00    0.0
2296 259652.998    147655.8422  -6093026.3571  -4730143.7639   5  16   2.1144   4.5290   3.4840   0.9612   1.9150  -1.0298   0.00    0.0
2296 259653.998    150813.7129  -6089168.4616  -4735012.5574   5  16   2.1140   4.5295   3.4842   0.9592   1.9151  -1.0291   0.00    0.0
2296 259654.998    153971.9869  -6085301.2541  -4739875.0942   5  16   2.1136   4.5300   3.4844   0.9571   1.9151  -1.0285   0.00    0.0
2296 259655.998    157130.3555  -6081429.9107  -4744735.2330   5  16   2.1131   4.5305   3.4846   0.9551   1.9151  -1.0278   0.00    0.0
2296 259656.998    160290.0330  -6077556.5735  -4749592.4834   5  16   2.1127   4.5310   3.4848   0.9530   1.9151  -1.0271   0.00    0.0
2296 259657.998    163449.4677  -6073676.9183  -4754443.3366   5  16   2.1123   4.5314   3.4850   0.9510   1.9151  -1.0265   0.00    0.0
2296 259658.998    166609.2569  -6069791.8110  -4759290.5903   5  16   2.1119   4.5319   3.4853   0.9489   1.9152  -1.0258   0.00    0.0
2296 259659.998    169768.6224  -6065902.2939  -4764134.0310   5  16   2.1115   4.5324   3.4855   0.9469   1.9152  -1.0252   0.00    0.0
2296 259660.998    172929.9279  -6062009.9311  -4768975.0180   5  16   2.1111   4.5329   3.4857   0.9448   1.9152  -1.0245   0.00    0.0
2296 259661.998    176091.5595  -6058109.3903  -4773809.2646   5  16   2.1107   4.5334   3.4859   0.9427   1.9152  -1.0239   0.00    0.0
2296 259662.998    179252.5903  -6054205.2685  -4778639.6882   5  16   2.1103   4.5339   3.4862   0.9407   1.9152  -1.0232   0.00    0.0
2296 259663.998    182414.0957  -6050298.2160  -4783467.8803   5  16   2.1099   4.5344   3.4864   0.9386   1.9152  -1.0226   0.00    0.0
2296 259664.998    185576.9697  -6046386.8689  -4788292.1645   5  16   2.1095   4.5349   3.4866   0.9365   1.9152  -1.0219   0.00    0.0
2296 259665.998    188739.3352  -6042468.5472  -4793109.6640   5  16   2.1091   4.5354   3.4869   0.9344   1.9152  -1.0213   0.00    0.0
2296 259666.998    191903.0450  -6038544.7544  -4797923.4476   5  16   2.1087   4.5359   3.4871   0.9323   1.9152  -1.0206   0.00    0.0
2296 259667.998    195066.4837  -6034615.7967  -4802733.7759   5  16   2.1083   4.5364   3.4874   0.9302   1.9152  -1.0200   0.00    0.0
2296 259668.998    198230.6345  -6030686.0254  -4807541.8947   5  16   2.1079   4.5370   3.4876   0.9281   1.9152  -1.0194   0.00    0.0
2296 259669.998    201395.5724  -6026750.1208  -4812343.1350   5  16   2.1075   4.5375   3.4879   0.9260   1.9152  -1.0187   0.00    0.0
2296 259670.998    204559.9085  -6022807.0635  -4817139.4501   5  16   2.1071   4.5380   3.4881   0.9239   1.9152  -1.0181   0.00    0.0
2296 259671.998    207724.9150  -6018861.6328  -4821935.2359   5  16   2.1067   4.5385   3.4884   0.9218   1.9152  -1.0174   0.00    0.0
2296 259672.998    210890.8432  -6014910.9550  -4826724.6755   5  16   2.1063   4.5390   3.4886   0.9197   1.9152  -1.0168   0.00    0.0
2296 259673.998    214056.7317  -6010954.2148  -4831509.1025   5  16   2.1059   4.5396   3.4889   0.9176   1.9152  -1.0162   0.00    0.0
2296 259674.998    217223.7637  -6006993.9187  -4836290.0514   5  16   2.1055   4.5401   3.4892   0.9155   1.9152  -1.0155   0.00    0.0
2296 259675.998    220389.7288  -6003028.1944  -4841067.7029   5  16   2.1052   4.5406   3.4894   0.9134   1.9152  -1.0149   0.00    0.0
2296 259676.998    223557.7528  -5999059.2759  -4845840.1700   5  16   2.1048   4.5411   3.4897   0.9112   1.9152  -1.0142   0.00    0.0
2296 259677.998    226725.0504  -5995085.0279  -4850607.5418   5  16   2.1044   4.5417   3.4900   0.9091   1.9152  -1.0136   0.00    0.0
2296 259678.998    229893.0502  -5991106.1281  -4855372.8127   5  16   2.1040   4.5422   3.4903   0.9069   1.9151  -1.0130   0.00    0.0
2296 259679.998    233060.9092  -5987120.5435  -4860133.2465   5  16   2.1036   4.5427   3.4906   0.9048   1.9151  -1.0123   0.00    0.0
2296 259680.998    236229.8403  -5983131.2248  -4864887.5244   5  16   2.1032   4.5433   3.4909   0.9026   1.9151  -1.0117   0.00    0.0
2296 259681.998    239399.1157  -5979141.6699  -4869640.8337   5  16   2.1029   4.5438   3.4911   0.9005   1.9151  -1.0111   0.00    0.0
2296 259682.998    242568.7260  -5975143.0837  -4874387.1637   5  16   2.1025   4.5444   3.4914   0.8983   1.9151  -1.0104   0.00    0.0
2296 259683.998    245738.2969  -5971138.9801  -4879130.5738   5  16   2.1021   4.5449   3.4917   0.8962   1.9150  -1.0098   0.00    0.0
2296 259684.998    248908.7646  -5967131.5603  -4883870.4774   5  16   2.1017   4.5455   3.4920   0.8940   1.9150  -1.0092   0.00    0.0
2296 259685.998    252079.0197  -5963118.8574  -4888605.0439   5  16   2.1013   4.5460   3.4923   0.8918   1.9150  -1.0085   0.00    0.0
2296 259686.998    255249.5460  -5959103.3460  -4893335.0060   5  16   2.1010   4.5466   3.4927   0.8896   1.9150  -1.0079   0.00    0.0
2296 259687.998    258421.3406  -5955083.2766  -4898063.5690   5  16   2.1006   4.5471   3.4930   0.8875   1.9149  -1.0073   0.00    0.0
2296 259688.998    261593.0533  -5951054.3477  -4902783.1237   5  16   2.1002   4.5477   3.4931   0.8853   1.9149  -1.0067   0.00    0.0
2296 259689.998    264765.1705  -5947023.5963  -4907501.1542   5  16   2.0998   4.5482   3.4932   0.8831   1.9148  -1.0062   0.00    0.0
2296 259690.998    267938.8112  -5942987.7642  -4912213.1280   5  16   2.0995   4.5488   3.4933   0.8808   1.9148  -1.0057   0.00    0.0
2296 259691.998    271110.1226  -5938948.1184  -4916924.4319   5  16   2.0991   4.5494   3.4935   0.8786   1.9148  -1.0052   0.00    0.0
2296 259692.998    274283.8220  -5934902.8956  -4921628.0184   5  16   2.0987   4.5499   3.4936   0.8764   1.9147  -1.0047   0.00    0.0
2296 259693.998    277457.8092  -5930854.5367  -4926329.7598   5  16   2.0984   4.5505   3.4937   0.8742   1.9146  -1.0042   0.00    0.0
2296 259694.998    280630.7061  -5926799.6839  -4931025.7972   5  16   2.0980   4.5511   3.4938   0.8720   1.9146  -1.0037   0.00    0.0
2296 259695.998    283805.7311  -5922741.1745  -4935718.1907   5  16   2.0976   4.5517   3.4939   0.8697   1.9145  -1.0032   0.00    0.0
2296 259696.998    286979.8458  -5918677.6633  -4940405.4527   5  16   2.0972   4.5522   3.4940   0.8675   1.9145  -1.0027   0.00    0.0
2296 259697.998    290154.8968  -5914608.5774  -4945088.7564   5  16   2.0969   4.5528   3.4941   0.8652   1.9144  -1.0022   0.00    0.0
2296 259698.998    293330.1584  -5910535.5524  -4949769.3260   5  16   2.0965   4.5534   3.4943   0.8630   1.9144  -1.0017   0.00    0.0
2296 259699.998    296505.3448  -5906458.9434  -4954441.9124   5  16   2.0961   4.5540   3.4944   0.8607   1.9143  -1.0012   0.00    0.0
2296 259700.998    299680.5761  -5902375.7832  -4959113.5428   5  16   2.0958   4.5546   3.4945   0.8585   1.9143  -1.0007   0.00    0.0
2296 259701.998    302857.8722  -5898290.9290  -4963780.3554   5  16   2.0954   4.5551   3.4946   0.8562   1.9142  -1.0002   0.00    0.0
2296 259702.998    306034.3621  -5894198.6864  -4968442.0963   5  16   2.0951   4.5557   3.4948   0.8539   1.9141  -0.9997   0.00    0.0
2296 259703.998    309211.2460  -5890102.0458  -4973098.8973   5  16   2.0947   4.5563   3.4949   0.8516   1.9141  -0.9992   0.00    0.0
2296 259704.998    312388.8200  -5886004.7145  -4977754.5183   5  16   2.0943   4.5569   3.4950   0.8493   1.9140  -0.9988   0.00    0.0
2296 259705.998    315565.4749  -5881898.1060  -4982402.1117   5  16   2.0940   4.5575   3.4952   0.8470   1.9140  -0.9983   0.00    0.0
2296 259706.998    318743.8460  -5877788.3422  -4987048.3087   5  16   2.0936   4.5581   3.4953   0.8447   1.9139  -0.9978   0.00    0.0
2296 259707.998    321921.5140  -5873673.6545  -4991688.2848   5  16   2.0933   4.5587   3.4955   0.8424   1.9138  -0.9973   0.00    0.0
2296 259708.998    325100.5124  -5869555.5230  -4996324.2567   5  16   2.0929   4.5593   3.4956   0.8401   1.9138  -0.9968   0.00    0.0
2296 259709.998    328278.7526  -5865431.1860  -5000955.5776   5  16   2.0926   4.5599   3.4957   0.8378   1.9137  -0.9963   0.00    0.0
2296 259710.998    331458.5311  -5861303.9048  -5005582.3924   5  16   2.0922   4.5605   3.4959   0.8355   1.9137  -0.9959   0.00    0.0
2296 259711.998    334638.1071  -5857170.7001  -5010205.0141   5  16   2.0919   4.5612   3.4960   0.8331   1.9136  -0.9954   0.00    0.0
2296 259712.998    337817.3495  -5853034.5894  -5014825.6264   5  16   2.0915   4.5618   3.4962   0.8308   1.9135  -0.9949   0.00    0.0
2296 259713.998    340997.6635  -5848890.5821  -5019437.7585   5  16   2.0912   4.5624   3.4964   0.8284   1.9135  -0.9945   0.00    0.0
2296 259714.998    344178.4868  -5844744.5175  -5024048.7418   5  16   2.0908   4.5630   3.4965   0.8261   1.9134  -0.9940   0.00    0.0
2296 259715.998    347358.9362  -5840594.6956  -5028654.7992   5  16   2.0905   4.5636   3.4967   0.8237   1.9133  -0.9935   0.00    0.0
2296 259716.998    350540.5052  -5836438.3173  -5033255.2580   5  16   2.0901   4.5642   3.4968   0.8213   1.9133  -0.9931   0.00    0.0
2296 259717.998    353721.6145  -5832276.8246  -5037852.0043   5  16   2.0898   4.5649   3.4970   0.8189   1.9132  -0.9926   0.00    0.0
2296 259718.998    356903.6771  -5828113.1874  -5042445.0414   5  16   2.0895   4.5655   3.4972   0.8165   1.9131  -0.9921   0.00    0.0
2296 259719.998    360085.0973  -5823942.5345  -5047032.3262   5  16   2.0891   4.5661   3.4974   0.8141   1.9131  -0.9917   0.00    0.0
2296 259720.998    363267.5747  -5819770.6939  -5051617.7487   5  16   2.0888   4.5668   3.4975   0.8117   1.9130  -0.9912   0.00    0.0
2296 259721.998    366450.0876  -5815591.6964  -5056196.8993   5  16   2.0884   4.5674   3.4977   0.8093   1.9129  -0.9908   0.00    0.0
2296 259722.998    369632.1295  -5811408.5669  -5060771.6350   5  16   2.0881   4.5680   3.4979   0.8069   1.9129  -0.9903   0.00    0.0
2296 259723.998    372815.8248  -5807219.6192  -5065342.5403   5  17   1.9413   4.0036   3.4903  -1.0217   1.7735  -1.0766   0.00    0.0
2296 259724.998    375998.8512  -5803028.1077  -5069909.2014   5  17   1.9409   4.0036   3.4904  -1.0240   1.7730  -1.0763   0.00    0.0
2296 259725.998    379183.4001  -5798830.3717  -5074470.3585   5  17   1.9406   4.0035   3.4906  -1.0263   1.7726  -1.0761   0.00    0.0
2296 259726.998    382366.5966  -5794629.1833  -5079027.0919   5  17   1.9403   4.0035   3.4908  -1.0287   1.7721  -1.0758   0.00    0.0
2296 259727.998    385550.6124  -5790425.1467  -5083580.1701   5  17   1.9400   4.0034   3.4909  -1.0310   1.7717  -1.0756   0.00    0.0
2296 259728.998    388736.1360  -5786215.1759  -5088128.7785   5  16   1.9982   4.0996   3.5688  -1.2213   1.9471  -1.2295   0.00    0.0
2296 259729.998    391920.7310  -5781999.5379  -5092673.3907   5  16   1.9979   4.0994   3.5688  -1.2230   1.9464  -1.2291   0.00    0.0
2296 259730.998    395105.2650  -5777780.0509  -5097211.3068   5  16   1.9975   4.0993   3.5688  -1.2248   1.9457  -1.2287   0.00    0.0
2296 259731.998    398290.7132  -5773556.2525  -5101747.9117   5  16   1.9972   4.0991   3.5689  -1.2266   1.9451  -1.2283   0.00    0.0
2296 259732.998    401477.1436  -5769327.8769  -5106278.6700   5  16   1.9968   4.0990   3.5689  -1.2284   1.9444  -1.2279   0.00    0.0
2296 259733.998    404663.3506  -5765096.3377  -5110806.2664   5  16   1.9965   4.0988   3.5689  -1.2301   1.9438  -1.2275   0.00    0.0
2296 259734.998    407848.6562  -5760857.7301  -5115327.2072   5  16   1.9962   4.0987   3.5690  -1.2319   1.9431  -1.2271   0.00    0.0
2296 259735.998    411035.4720  -5756616.1273  -5119845.3182   5  16   1.9958   4.0985   3.5690  -1.2337   1.9424  -1.2266   0.00    0.0
2296 259736.998    414222.4859  -5752370.5177  -5124359.5423   5  16   1.9955   4.0984   3.5691  -1.2354   1.9418  -1.2262   0.00    0.0
2296 259737.998    417409.2083  -5748121.6404  -5128867.9405   5  16   1.9951   4.0983   3.5691  -1.2372   1.9411  -1.2258   0.00    0.0
2296 259738.998    420596.6190  -5743863.6479  -5133371.5766   5  16   1.9948   4.0981   3.5692  -1.2389   1.9404  -1.2254   0.00    0.0
2296 259739.998    423784.4849  -5739603.9482  -5137872.2166   5  16   1.9945   4.0980   3.5692  -1.2407   1.9397  -1.2250   0.00    0.0
2296 259740.998    426971.3348  -5735340.0994  -5142367.4979   5  16   1.9941   4.0978   3.5693  -1.2424   1.9391  -1.2246   0.00    0.0
2296 259741.998    430159.9521  -5731071.5914  -5146858.3530   5  16   1.9938   4.0977   3.5694  -1.2442   1.9384  -1.2242   0.00    0.0
2296 259742.998    433348.4412  -5726799.3435  -5151344.6937   5  16   1.9935   4.0976   3.5694  -1.2459   1.9377  -1.2238   0.00    0.0
2296 259743.998    436536.6713  -5722519.6256  -5155826.2952   5  16   1.9931   4.0974   3.5695  -1.2476   1.9370  -1.2234   0.00    0.0
2296 259744.998    439725.0879  -5718237.5565  -5160302.9846   5  16   1.9928   4.0973   3.5695  -1.2494   1.9364  -1.2230   0.00    0.0
2296 259745.998    442914.4964  -5713950.9853  -5164776.8324   5  16   1.9925   4.0972   3.5696  -1.2511   1.9357  -1.2226   0.00    0.0
2296 259746.998    446103.6709  -5709659.0515  -5169244.9831   5  16   1.9921   4.0970   3.5697  -1.2528   1.9350  -1.2222   0.00    0.0
2296 259747.998    449293.4028  -5705366.2187  -5173711.0138   5  16   1.9918   4.0969   3.5698  -1.2546   1.9343  -1.2218   0.00    0.0
2296 259748.998    452483.3876  -5701065.0643  -5178169.3319   5  16   1.9915   4.0968   3.5698  -1.2563   1.9336  -1.2214   0.00    0.0
2296 259749.998    455673.2176  -5696759.5906  -5182624.5229   5  16   1.9912   4.0967   3.5699  -1.2580   1.9330  -1.2210   0.00    0.0
2296 259750.998    458862.8216  -5692450.3000  -5187073.9292   5  16   1.9909   4.0965   3.5700  -1.2597   1.9323  -1.2206   0.00    0.0
2296 259751.998    462053.4877  -5688138.5397  -5191518.8355   5  16   1.9905   4.0964   3.5701  -1.2614   1.9316  -1.2202   0.00    0.0
2296 259752.998    465245.1048  -5683819.9717  -5195962.0790   5  16   1.9902   4.0963   3.5702  -1.2632   1.9309  -1.2198   0.00    0.0
2296 259753.998    468435.3501  -5679496.8247  -5200398.5489   5  16   1.9899   4.0962   3.5703  -1.2649   1.9302  -1.2194   0.00    0.0
2296 259754.998    471626.7375  -5675170.0114  -5204830.5382   5  16   1.9896   4.0960   3.5704  -1.2666   1.9295  -1.2190   0.00    0.0
2296 259755.998    474817.1564  -5670839.3072  -5209259.6800   5  16   1.9893   4.0959   3.5705  -1.2683   1.9288  -1.2186   0.00    0.0
2296 259756.998    478009.1288  -5666503.4189  -5213684.0928   5  16   1.9889   4.0958   3.5706  -1.2700   1.9281  -1.2182   0.00    0.0
2296 259757.998    481200.9927  -5662162.4386  -5218100.9946   5  16   1.9886   4.0957   3.5707  -1.2717   1.9274  -1.2178   0.00    0.0
2296 259758.998    484393.5378  -5657820.7997  -5222517.6406   5  16   1.9883   4.0956   3.5708  -1.2734   1.9267  -1.2174   0.00    0.0
2296 259759.998    487586.3270  -5653471.1274  -5226926.6164   5  16   1.9880   4.0955   3.5709  -1.2751   1.9260  -1.2170   0.00    0.0
2296 259760.998    490778.2009  -5649118.3698  -5231331.2507   5  16   1.9877   4.0954   3.5710  -1.2768   1.9253  -1.2166   0.00    0.0
2296 259761.998    493970.6537  -5644759.6796  -5235731.4987   5  16   1.9874   4.0953   3.5711  -1.2785   1.9246  -1.2162   0.00    0.0
2296 259762.998    497164.0894  -5640397.7323  -5240128.6163   5  16   1.9871   4.0952   3.5712  -1.2802   1.9239  -1.2158   0.00    0.0
2296 259763.998    500357.1819  -5636030.5188  -5244520.5117   5  16   1.9868   4.0950   3.5713  -1.2819   1.9232  -1.2154   0.00    0.0
2296 259764.998    503549.6942  -5631660.5098  -5248906.6331   5  16   1.9865   4.0949   3.5714  -1.2835   1.9225  -1.2151   0.00    0.0
2296 259765.998    506743.5028  -5627285.7152  -5253289.0256   5  16   1.9862   4.0948   3.5716  -1.2852   1.9218  -1.2147   0.00    0.0
2296 259766.998    509936.9096  -5622903.7646  -5257668.1446   5  16   1.9859   4.0947   3.5717  -1.2869   1.9211  -1.2143   0.00    0.0
2296 259767.998    513131.0976  -5618521.8056  -5262040.8474   5  16   1.9856   4.0946   3.5718  -1.2886   1.9204  -1.2139   0.00    0.0
2296 259768.998    516325.6129  -5614132.7314  -5266410.8528   5  16   1.9853   4.0945   3.5719  -1.2903   1.9197  -1.2135   0.00    0.0
2296 259769.998    519518.5105  -5609739.8599  -5270774.0562   5  16   1.9850   4.0944   3.5721  -1.2919   1.9190  -1.2131   0.00    0.0
2296 259770.998    522712.3428  -5605341.1232  -5275133.0946   5  16   1.9847   4.0944   3.5722  -1.2936   1.9183  -1.2127   0.00    0.0
2296 259771.998    525908.3020  -5600941.0407  -5279488.5414   5  16   1.9844   4.0943   3.5723  -1.2953   1.9176  -1.2123   0.00    0.0
2296 259772.998    529103.4538  -5596534.1839  -5283840.2951   5  16   1.9841   4.0942   3.5725  -1.2969   1.9169  -1.2119   0.00    0.0
2296 259773.998    532298.4074  -5592124.2208  -5288185.3495   5  16   1.9838   4.0941   3.5726  -1.2986   1.9161  -1.2116   0.00    0.0
2296 259774.998    535493.1117  -5587709.1617  -5292526.2109   5  16   1.9835   4.0940   3.5728  -1.3003   1.9154  -1.2112   0.00    0.0
2296 259775.998    538689.3456  -5583291.0992  -5296865.5319   5  16   1.9832   4.0939   3.5729  -1.3019   1.9147  -1.2108   0.00    0.0
2296 259776.998    541884.2242  -5578867.7719  -5301197.0700   5  16   1.9829   4.0938   3.5731  -1.3036   1.9140  -1.2104   0.00    0.0
2296 259777.998    545080.2288  -5574439.0473  -5305523.0295   5  16   1.9826   4.0937   3.5732  -1.3052   1.9133  -1.2100   0.00    0.0
2296 259778.998    548275.9636  -5570007.4001  -5309846.6856   5  16   1.9823   4.0936   3.5734  -1.3069   1.9126  -1.2096   0.00    0.0
2296 259779.998    551472.6313  -5565569.9140  -5314163.9436   5  16   1.9820   4.0936   3.5736  -1.3085   1.9118  -1.2093   0.00    0.0
2296 259780.998    554667.8948  -5561129.8654  -5318478.6721   5  16   1.9817   4.0935   3.5737  -1.3102   1.9111  -1.2089   0.00    0.0
2296 259781.998    557865.3480  -5556685.8295  -5322789.2334   5  16   1.9815   4.0934   3.5739  -1.3118   1.9104  -1.2085   0.00    0.0
2296 259782.998    561051.5610  -5552241.7959  -5327064.7702   5  14   2.1111   4.3736   3.8897  -0.7888   1.9450  -1.0881   0.00    0.0
2296 259783.998    564265.1042  -5547791.3138  -5331404.0645   5  10   2.4605   4.6191   4.5401  -0.4841   1.6152   0.7323   0.00    0.0
2296 259784.998    567446.9153  -5543328.2703  -5335697.6138   5  10   2.4602   4.6185   4.5402  -0.4933   1.6131   0.7337   0.00    0.0
