% program   : RTKLIB ver.EX 2.5.0
% inp file  : .\Products\Orbit_Simulation\rnx_out\GPS_GAL\orion_gps_gal.obs
% inp file  : .\Products\Orbit_Simulation\rnx_out\GPS_GAL\orion_gps_gal.nav
% obs start : 2024/01/10 00:00:29.0 GPST (week2296 259229.0s)
% obs end   : 2024/01/10 00:09:45.0 GPST (week2296 259785.0s)
%
% (x/y/z-ecef=WGS84,Q=1:fix,2:float,3:sbas,4:dgps,5:single,6:ppp,ns=# of satellites)
%  GPST                      x-ecef(m)      y-ecef(m)      z-ecef(m)   Q  ns   sdx(m)   sdy(m)   sdz(m)  sdxy(m)  sdyz(m)  sdzx(m) age(s)  ratio
2024/01/10 00:00:28.999  -1127589.6385  -7260179.2316  -2354109.5891   5  13   4.9726   8.6341   4.6889   4.8994   3.2105  -1.0136   0.00    0.0
2024/01/10 00:00:29.999  -1124785.4562  -7258604.5192  -2360300.4441   5  13   4.9723   8.6349   4.6887   4.8995   3.2100  -1.0130   0.00    0.0
2024/01/10 00:00:30.999  -1121979.4483  -7257025.4917  -2366489.2170   5  13   4.9721   8.6356   4.6885   4.8996   3.2094  -1.0124   0.00    0.0
2024/01/10 00:00:31.999  -1119172.4154  -7255436.3533  -2372675.0534   5  14   3.9831   7.8181   4.4410   3.6179   2.1867  -2.3443   0.00    0.0
2024/01/10 00:00:32.999  -1116364.4781  -7253844.8441  -2378858.1895   5  14   3.9830   7.8187   4.4406   3.6181   2.1853  -2.3443   0.00    0.0
2024/01/10 00:00:33.999  -1113556.1617  -7252247.0139  -2385040.7027   5  14   3.9828   7.8193   4.4402   3.6182   2.1838  -2.3443   0.00    0.0
2024/01/10 00:00:34.999  -1110745.1108  -7250640.2291  -2391220.6534   5  14   3.9827   7.8199   4.4399   3.6183   2.1823  -2.3443   0.00    0.0
2024/01/10 00:00:35.999  -1107934.3188  -7249031.2889  -2397399.0361   5  14   3.9826   7.8206   4.4395   3.6184   2.1808  -2.3443   0.00    0.0
2024/01/10 00:00:36.999  -1105122.3972  -7247415.1271  -2403574.5972   5  14   3.9824   7.8212   4.4392   3.6185   2.1794  -2.3443   0.00    0.0
2024/01/10 00:00:37.999  -1102308.4984  -7245791.5945  -2409747.1534   5  14   3.9823   7.8218   4.4388   3.6186   2.1779  -2.3443   0.00    0.0
2024/01/10 00:00:38.999  -1099495.2575  -7244164.2244  -2415918.8473   5  14   3.9822   7.8224   4.4385   3.6188   2.1764  -2.3443   0.00    0.0
2024/01/10 00:00:39.999  -1096677.9423  -7242530.0354  -2422089.7920   5  14   3.9821   7.8231   4.4381   3.6189   2.1749  -2.3443   0.00    0.0
2024/01/10 00:00:40.999  -1093860.5169  -7240891.4195  -2428256.9153   5  14   3.9820   7.8237   4.4378   3.6190   2.1735  -2.3443   0.00    0.0
2024/01/10 00:00:41.999  -1091040.6382  -7239245.1475  -2434422.3428   5  14   3.9818   7.8243   4.4374   3.6191   2.1720  -2.3443   0.00    0.0
2024/01/10 00:00:42.999  -1088223.2763  -7237596.3290  -2440585.5868   5  14   3.9817   7.8250   4.4371   3.6193   2.1705  -2.3443   0.00    0.0
2024/01/10 00:00:43.999  -1085403.1743  -7235939.0793  -2446745.4376   5  14   3.9816   7.8256   4.4367   3.6194   2.1690  -2.3443   0.00    0.0
2024/01/10 00:00:44.999  -1082579.2106  -7234273.6825  -2452905.0828   5  14   3.9815   7.8262   4.4364   3.6195   2.1675  -2.3443   0.00    0.0
2024/01/10 00:00:45.999  -1079756.8710  -7232607.7325  -2459061.1467   5  14   3.9814   7.8269   4.4360   3.6197   2.1661  -2.3443   0.00    0.0
2024/01/10 00:00:46.999  -1076932.9752  -7230932.1653  -2465216.3915   5  14   3.9813   7.8275   4.4357   3.6198   2.1646  -2.3443   0.00    0.0
2024/01/10 00:00:47.999  -1074107.6354  -7229252.2347  -2471369.4161   5  14   3.9811   7.8282   4.4354   3.6199   2.1631  -2.3443   0.00    0.0
2024/01/10 00:00:48.999  -1071279.7049  -7227565.1472  -2477520.1062   5  14   3.9810   7.8288   4.4350   3.6201   2.1616  -2.3443   0.00    0.0
2024/01/10 00:00:49.999  -1068450.7420  -7225872.0359  -2483667.2115   5  14   3.9809   7.8295   4.4347   3.6202   2.1601  -2.3443   0.00    0.0
2024/01/10 00:00:50.999  -1065623.8150  -7224174.6791  -2489812.8352   5  14   3.9808   7.8301   4.4344   3.6204   2.1586  -2.3443   0.00    0.0
2024/01/10 00:00:51.999  -1062792.8078  -7222470.4485  -2495956.5713   5  14   3.9807   7.8308   4.4340   3.6205   2.1572  -2.3443   0.00    0.0
2024/01/10 00:00:52.999  -1059962.1003  -7220759.7943  -2502098.2232   5  14   3.9806   7.8315   4.4337   3.6206   2.1557  -2.3444   0.00    0.0
2024/01/10 00:00:53.999  -1057129.9348  -7219047.3234  -2508238.5508   5  14   3.9805   7.8321   4.4334   3.6208   2.1542  -2.3444   0.00    0.0
2024/01/10 00:00:54.999  -1054295.6719  -7217324.9071  -2514376.4413   5  14   3.9804   7.8328   4.4330   3.6209   2.1527  -2.3444   0.00    0.0
2024/01/10 00:00:55.999  -1051461.1830  -7215600.8293  -2520512.3473   5  14   3.9803   7.8335   4.4327   3.6211   2.1512  -2.3444   0.00    0.0
2024/01/10 00:00:56.999  -1048625.8446  -7213868.1627  -2526645.2500   5  14   3.9802   7.8342   4.4324   3.6212   2.1497  -2.3444   0.00    0.0
2024/01/10 00:00:57.999  -1045787.7819  -7212128.9862  -2532774.7545   5  14   3.9801   7.8349   4.4320   3.6214   2.1482  -2.3444   0.00    0.0
2024/01/10 00:00:58.999  -1042949.6924  -7210384.0336  -2538903.7152   5  14   3.9800   7.8355   4.4317   3.6215   2.1467  -2.3444   0.00    0.0
2024/01/10 00:00:59.999  -1040109.5046  -7208633.2693  -2545030.3714   5  14   3.9799   7.8362   4.4314   3.6217   2.1452  -2.3444   0.00    0.0
2024/01/10 00:01:00.999  -1037270.2310  -7206877.8888  -2551154.3784   5  14   3.9798   7.8369   4.4311   3.6218   2.1437  -2.3444   0.00    0.0
2024/01/10 00:01:01.999  -1034427.7880  -7205118.0437  -2557277.3001   5  14   3.9797   7.8376   4.4308   3.6220   2.1422  -2.3444   0.00    0.0
2024/01/10 00:01:02.999  -1031584.9482  -7203347.0772  -2563394.7145   5  14   3.9796   7.8383   4.4304   3.6222   2.1408  -2.3444   0.00    0.0
2024/01/10 00:01:03.999  -1028740.6490  -7201575.0909  -2569513.7425   5  14   3.9795   7.8390   4.4301   3.6223   2.1393  -2.3444   0.00    0.0
2024/01/10 00:01:04.999  -1025897.1333  -7199795.0927  -2575628.4836   5  14   3.9794   7.8397   4.4298   3.6225   2.1378  -2.3444   0.00    0.0
2024/01/10 00:01:05.999  -1023049.4362  -7198009.0476  -2581740.9610   5  14   3.9793   7.8404   4.4295   3.6227   2.1363  -2.3445   0.00    0.0
2024/01/10 00:01:06.999  -1020201.8136  -7196219.4969  -2587852.7322   5  14   3.9792   7.8411   4.4292   3.6228   2.1348  -2.3445   0.00    0.0
2024/01/10 00:01:07.999  -1017354.0884  -7194424.1430  -2593960.7644   5  14   3.9791   7.8418   4.4289   3.6230   2.1333  -2.3445   0.00    0.0
2024/01/10 00:01:08.999  -1014502.9953  -7192618.9518  -2600066.4110   5  14   3.9790   7.8426   4.4286   3.6232   2.1318  -2.3445   0.00    0.0
2024/01/10 00:01:09.999  -1011653.2889  -7190811.8003  -2606171.6871   5  14   3.9789   7.8433   4.4283   3.6233   2.1303  -2.3445   0.00    0.0
2024/01/10 00:01:10.999  -1008801.8020  -7188999.5531  -2612273.8695   5  14   3.9788   7.8440   4.4280   3.6235   2.1288  -2.3445   0.00    0.0
2024/01/10 00:01:11.999  -1005947.9681  -7187179.9370  -2618373.9331   5  14   3.9788   7.8447   4.4276   3.6237   2.1272  -2.3445   0.00    0.0
2024/01/10 00:01:12.999  -1003093.9863  -7185355.3852  -2624470.2385   5  14   3.9787   7.8454   4.4273   3.6238   2.1257  -2.3445   0.00    0.0
2024/01/10 00:01:13.999  -1000237.0485  -7183520.7218  -2630565.9463   5  14   3.9786   7.8462   4.4270   3.6240   2.1242  -2.3445   0.00    0.0
2024/01/10 00:01:14.999   -997381.2389  -7181684.4539  -2636657.6519   5  14   3.9785   7.8469   4.4267   3.6242   2.1227  -2.3446   0.00    0.0
2024/01/10 00:01:15.999   -994524.1751  -7179840.0097  -2642747.3301   5  14   3.9784   7.8476   4.4264   3.6244   2.1212  -2.3446   0.00    0.0
2024/01/10 00:01:16.999   -991665.9973  -7177994.4704  -2648836.2193   5  14   3.9783   7.8484   4.4261   3.6246   2.1197  -2.3446   0.00    0.0
2024/01/10 00:01:17.999   -988804.4299  -7176137.1266  -2654921.2488   5  14   3.9783   7.8491   4.4258   3.6247   2.1182  -2.3446   0.00    0.0
2024/01/10 00:01:18.999   -985943.9443  -7174277.6344  -2661005.3598   5  14   3.9782   7.8499   4.4255   3.6249   2.1167  -2.3446   0.00    0.0
2024/01/10 00:01:19.999   -983080.4263  -7172413.8547  -2667087.8643   5  14   3.9781   7.8506   4.4253   3.6251   2.1152  -2.3446   0.00    0.0
2024/01/10 00:01:20.999   -980218.5387  -7170541.9018  -2673166.4418   5  14   3.9780   7.8514   4.4250   3.6253   2.1137  -2.3447   0.00    0.0
2024/01/10 00:01:21.999   -977353.9349  -7168662.9761  -2679241.5642   5  14   3.9779   7.8521   4.4247   3.6255   2.1121  -2.3447   0.00    0.0
2024/01/10 00:01:22.999   -974488.7901  -7166780.2565  -2685316.2191   5  14   3.9779   7.8529   4.4244   3.6257   2.1106  -2.3447   0.00    0.0
2024/01/10 00:01:23.999   -971622.1450  -7164893.3057  -2691388.9804   5  14   3.9778   7.8536   4.4241   3.6259   2.1091  -2.3447   0.00    0.0
2024/01/10 00:01:24.999   -968754.1237  -7162998.0465  -2697459.2939   5  14   3.9777   7.8544   4.4238   3.6261   2.1076  -2.3447   0.00    0.0
2024/01/10 00:01:25.999   -965885.3915  -7161096.7922  -2703525.4872   5  14   3.9776   7.8552   4.4235   3.6263   2.1061  -2.3447   0.00    0.0
2024/01/10 00:01:26.999   -963015.8058  -7159190.6454  -2709590.0495   5  14   3.9776   7.8559   4.4232   3.6265   2.1046  -2.3448   0.00    0.0
2024/01/10 00:01:27.999   -960144.6921  -7157278.8880  -2715652.8243   5  14   3.9775   7.8567   4.4229   3.6267   2.1030  -2.3448   0.00    0.0
2024/01/10 00:01:28.999   -957272.5122  -7155361.5875  -2721712.9435   5  14   3.9774   7.8575   4.4227   3.6269   2.1015  -2.3448   0.00    0.0
2024/01/10 00:01:29.999   -954398.3293  -7153436.4807  -2727770.1348   5  14   3.9774   7.8583   4.4224   3.6271   2.1000  -2.3448   0.00    0.0
2024/01/10 00:01:30.999   -951524.2896  -7151506.1664  -2733825.0943   5  14   3.9773   7.8591   4.4221   3.6273   2.0985  -2.3448   0.00    0.0
2024/01/10 00:01:31.999   -948648.3306  -7149571.8105  -2739879.1792   5  14   3.9772   7.8598   4.4218   3.6275   2.0969  -2.3448   0.00    0.0
2024/01/10 00:01:32.999   -945771.6932  -7147632.3688  -2745930.8420   5  14   3.9772   7.8606   4.4216   3.6277   2.0954  -2.3449   0.00    0.0
2024/01/10 00:01:33.999   -942895.3401  -7145687.7942  -2751979.0040   5  14   3.9771   7.8614   4.4213   3.6279   2.0939  -2.3449   0.00    0.0
2024/01/10 00:01:34.999   -940015.7899  -7143733.1272  -2758024.7495   5  14   3.9770   7.8622   4.4210   3.6281   2.0924  -2.3449   0.00    0.0
2024/01/10 00:01:35.999   -937135.7138  -7141774.3169  -2764067.1527   5  14   3.9770   7.8630   4.4207   3.6283   2.0908  -2.3449   0.00    0.0
2024/01/10 00:01:36.999   -934253.1191  -7139810.4087  -2770109.2186   5  14   3.9769   7.8638   4.4205   3.6285   2.0893  -2.3450   0.00    0.0
2024/01/10 00:01:37.999   -931373.3095  -7137843.6301  -2776147.4451   5  14   3.9769   7.8646   4.4202   3.6287   2.0878  -2.3450   0.00    0.0
2024/01/10 00:01:38.999   -928489.4186  -7135868.5133  -2782183.6621   5  14   3.9768   7.8654   4.4199   3.6290   2.0862  -2.3450   0.00    0.0
2024/01/10 00:01:39.999   -925604.9036  -7133887.4735  -2788218.4976   5  14   3.9767   7.8662   4.4197   3.6292   2.0847  -2.3450   0.00    0.0
2024/01/10 00:01:40.999   -922719.1149  -7131898.4622  -2794249.4465   5  14   3.9767   7.8670   4.4194   3.6294   2.0832  -2.3450   0.00    0.0
2024/01/10 00:01:41.999   -919833.5064  -7129908.1776  -2800278.2739   5  14   3.9766   7.8679   4.4191   3.6296   2.0816  -2.3451   0.00    0.0
2024/01/10 00:01:42.999   -916944.6150  -7127907.1597  -2806305.0741   5  14   3.9766   7.8687   4.4189   3.6298   2.0801  -2.3451   0.00    0.0
2024/01/10 00:01:43.999   -914057.3318  -7125905.0238  -2812329.0426   5  14   3.9765   7.8695   4.4186   3.6301   2.0786  -2.3451   0.00    0.0
2024/01/10 00:01:44.999   -911166.7495  -7123895.5137  -2818351.6635   5  14   3.9765   7.8703   4.4184   3.6303   2.0770  -2.3451   0.00    0.0
2024/01/10 00:01:45.999   -908275.8713  -7121878.7982  -2824369.9382   5  14   3.9764   7.8712   4.4181   3.6305   2.0755  -2.3452   0.00    0.0
2024/01/10 00:01:46.999   -905383.7218  -7119858.4910  -2830387.3761   5  14   3.9764   7.8720   4.4178   3.6307   2.0740  -2.3452   0.00    0.0
2024/01/10 00:01:47.999   -902490.9456  -7117832.5026  -2836401.9261   5  14   3.9763   7.8728   4.4176   3.6310   2.0724  -2.3452   0.00    0.0
2024/01/10 00:01:48.999   -899597.8680  -7115798.7294  -2842412.4930   5  14   3.9763   7.8737   4.4173   3.6312   2.0709  -2.3452   0.00    0.0
2024/01/10 00:01:49.999   -896702.3376  -7113759.8894  -2848422.6591   5  14   3.9762   7.8745   4.4171   3.6314   2.0693  -2.3453   0.00    0.0
2024/01/10 00:01:50.999   -893807.5025  -7111718.2320  -2854429.7269   5  14   3.9762   7.8753   4.4168   3.6317   2.0678  -2.3453   0.00    0.0
2024/01/10 00:01:51.999   -890908.6911  -7109668.8800  -2860434.6506   5  14   3.9761   7.8762   4.4166   3.6319   2.0662  -2.3453   0.00    0.0
2024/01/10 00:01:52.999   -888011.4024  -7107613.2401  -2866436.0259   5  14   3.9761   7.8770   4.4163   3.6322   2.0647  -2.3453   0.00    0.0
2024/01/10 00:01:53.999   -885112.8902  -7105552.9586  -2872437.3873   5  14   3.9761   7.8779   4.4161   3.6324   2.0631  -2.3454   0.00    0.0
2024/01/10 00:01:54.999   -882210.8054  -7103487.0160  -2878434.8001   5  14   3.9760   7.8788   4.4158   3.6326   2.0616  -2.3454   0.00    0.0
2024/01/10 00:01:55.999   -879309.9638  -7101414.6790  -2884429.6292   5  14   3.9760   7.8796   4.4156   3.6329   2.0600  -2.3454   0.00    0.0
2024/01/10 00:01:56.999   -876406.3955  -7099335.0073  -2890420.8926   5  14   3.9759   7.8805   4.4154   3.6331   2.0585  -2.3455   0.00    0.0
2024/01/10 00:01:57.999   -873503.5515  -7097250.6994  -2896409.5444   5  14   3.9759   7.8813   4.4151   3.6334   2.0569  -2.3455   0.00    0.0
2024/01/10 00:01:58.999   -870599.6001  -7095160.1944  -2902395.8970   5  14   3.9759   7.8822   4.4149   3.6336   2.0554  -2.3455   0.00    0.0
2024/01/10 00:01:59.999   -867693.0550  -7093065.9770  -2908381.2794   5  15   3.9121   7.4591   4.2985   3.8747   1.2856  -2.1882   0.00    0.0
2024/01/10 00:02:00.999   -864785.6180  -7090964.7521  -2914363.7980   5  15   3.9121   7.4598   4.2985   3.8749   1.2837  -2.1885   0.00    0.0
2024/01/10 00:02:01.999   -861876.5051  -7088856.9040  -2920342.8517   5  15   3.9122   7.4606   4.2984   3.8750   1.2817  -2.1888   0.00    0.0
2024/01/10 00:02:02.999   -858969.3411  -7086745.7007  -2926319.8979   5  15   3.9122   7.4614   4.2983   3.8751   1.2798  -2.1890   0.00    0.0
2024/01/10 00:02:03.999   -856059.5145  -7084628.5385  -2932294.5070   5  15   3.9123   7.4622   4.2983   3.8752   1.2779  -2.1893   0.00    0.0
2024/01/10 00:02:04.999   -853147.1186  -7082503.2615  -2938264.7875   5  15   3.9123   7.4630   4.2982   3.8754   1.2759  -2.1895   0.00    0.0
2024/01/10 00:02:05.999   -850235.5590  -7080374.4433  -2944234.7142   5  15   3.9124   7.4638   4.2981   3.8755   1.2740  -2.1898   0.00    0.0
2024/01/10 00:02:06.999   -847324.3888  -7078239.3781  -2950201.9095   5  15   3.9125   7.4646   4.2981   3.8756   1.2721  -2.1900   0.00    0.0
2024/01/10 00:02:07.999   -844408.5835  -7076097.1512  -2956165.9925   5  15   3.9125   7.4654   4.2980   3.8758   1.2701  -2.1903   0.00    0.0
2024/01/10 00:02:08.999   -841493.1227  -7073952.8453  -2962127.8949   5  15   3.9126   7.4662   4.2980   3.8759   1.2682  -2.1906   0.00    0.0
2024/01/10 00:02:09.999   -838577.1457  -7071799.1526  -2968086.6955   5  15   3.9126   7.4670   4.2979   3.8761   1.2662  -2.1908   0.00    0.0
2024/01/10 00:02:10.999   -835660.0588  -7069642.4591  -2974044.0759   5  15   3.9127   7.4678   4.2978   3.8762   1.2643  -2.1911   0.00    0.0
2024/01/10 00:02:11.999   -832742.4051  -7067477.7743  -2979996.2361   5  15   3.9127   7.4686   4.2978   3.8764   1.2623  -2.1913   0.00    0.0
2024/01/10 00:02:12.999   -829822.8682  -7065310.6047  -2985949.2524   5  15   3.9128   7.4695   4.2977   3.8765   1.2604  -2.1916   0.00    0.0
2024/01/10 00:02:13.999   -826902.0299  -7063133.6725  -2991897.1581   5  14   3.9755   7.8956   4.4115   3.6376   2.0319  -2.3460   0.00    0.0
2024/01/10 00:02:14.999   -823981.5976  -7060952.9060  -2997842.2728   5  14   3.9754   7.8966   4.4113   3.6378   2.0303  -2.3461   0.00    0.0
2024/01/10 00:02:15.999   -821058.7098  -7058767.3402  -3003786.0575   5  14   3.9754   7.8975   4.4111   3.6381   2.0288  -2.3461   0.00    0.0
2024/01/10 00:02:16.999   -818135.1231  -7056576.8239  -3009727.7540   5  14   3.9754   7.8984   4.4108   3.6384   2.0272  -2.3461   0.00    0.0
2024/01/10 00:02:17.999   -815210.6410  -7054377.6636  -3015665.7823   5  14   3.9754   7.8993   4.4106   3.6387   2.0256  -2.3462   0.00    0.0
2024/01/10 00:02:18.999   -812285.5321  -7052174.7112  -3021601.2232   5  14   3.9754   7.9003   4.4104   3.6389   2.0240  -2.3462   0.00    0.0
2024/01/10 00:02:19.999   -809358.9053  -7049965.1514  -3027533.8389   5  14   3.9754   7.9012   4.4102   3.6392   2.0225  -2.3462   0.00    0.0
2024/01/10 00:02:20.999   -806431.8701  -7047750.1188  -3033463.2849   5  14   3.9754   7.9021   4.4100   3.6395   2.0209  -2.3463   0.00    0.0
2024/01/10 00:02:21.999   -803502.3578  -7045530.9985  -3039392.3980   5  14   3.9754   7.9031   4.4098   3.6398   2.0193  -2.3463   0.00    0.0
2024/01/10 00:02:22.999   -800573.0583  -7043305.6130  -3045318.1089   5  14   3.9753   7.9040   4.4096   3.6401   2.0177  -2.3464   0.00    0.0
2024/01/10 00:02:23.999   -797641.9735  -7041071.2502  -3051238.9912   5  14   3.9753   7.9050   4.4094   3.6404   2.0161  -2.3464   0.00    0.0
2024/01/10 00:02:24.999   -794711.6114  -7038836.4377  -3057159.5778   5  14   3.9753   7.9059   4.4092   3.6407   2.0145  -2.3464   0.00    0.0
2024/01/10 00:02:25.999   -791779.4180  -7036592.5939  -3063075.5875   5  14   3.9753   7.9069   4.4090   3.6410   2.0129  -2.3465   0.00    0.0
2024/01/10 00:02:26.999   -788844.4630  -7034346.5888  -3068992.0028   5  14   3.9753   7.9078   4.4088   3.6413   2.0114  -2.3465   0.00    0.0
2024/01/10 00:02:27.999   -785910.0470  -7032093.6015  -3074904.7292   5  14   3.9753   7.9088   4.4086   3.6415   2.0098  -2.3466   0.00    0.0
2024/01/10 00:02:28.999   -782975.5213  -7029832.8903  -3080812.8060   5  14   3.9753   7.9098   4.4084   3.6418   2.0082  -2.3466   0.00    0.0
2024/01/10 00:02:29.999   -780039.1923  -7027568.2985  -3086719.1022   5  14   3.9753   7.9107   4.4082   3.6421   2.0066  -2.3466   0.00    0.0
2024/01/10 00:02:30.999   -777100.8343  -7025297.0022  -3092622.7817   5  14   3.9753   7.9117   4.4080   3.6424   2.0050  -2.3467   0.00    0.0
2024/01/10 00:02:31.999   -774161.3135  -7023020.6430  -3098524.9679   5  14   3.9753   7.9127   4.4078   3.6428   2.0034  -2.3467   0.00    0.0
2024/01/10 00:02:32.999   -771222.7800  -7020738.4027  -3104423.1790   5  14   3.9753   7.9136   4.4076   3.6431   2.0018  -2.3468   0.00    0.0
2024/01/10 00:02:33.999   -768282.0581  -7018449.3093  -3110318.4875   5  14   3.9753   7.9146   4.4074   3.6434   2.0002  -2.3468   0.00    0.0
2024/01/10 00:02:34.999   -765340.6615  -7016158.1748  -3116210.9330   5  14   3.9753   7.9156   4.4073   3.6437   1.9986  -2.3469   0.00    0.0
2024/01/10 00:02:35.999   -762398.4883  -7013859.9521  -3122102.2484   5  14   3.9753   7.9166   4.4071   3.6440   1.9970  -2.3469   0.00    0.0
2024/01/10 00:02:36.999   -759453.2064  -7011554.3910  -3127990.1496   5  14   3.9753   7.9176   4.4069   3.6443   1.9954  -2.3469   0.00    0.0
2024/01/10 00:02:37.999   -756509.3613  -7009245.0098  -3133875.5636   5  14   3.9753   7.9186   4.4067   3.6446   1.9938  -2.3470   0.00    0.0
2024/01/10 00:02:38.999   -753563.5556  -7006927.8373  -3139757.4685   5  14   3.9754   7.9196   4.4065   3.6449   1.9922  -2.3470   0.00    0.0
2024/01/10 00:02:39.999   -750616.9285  -7004605.5354  -3145636.6178   5  14   3.9754   7.9206   4.4064   3.6452   1.9906  -2.3471   0.00    0.0
2024/01/10 00:02:40.999   -747668.1751  -7002277.8409  -3151513.3334   5  14   3.9754   7.9216   4.4062   3.6456   1.9890  -2.3471   0.00    0.0
2024/01/10 00:02:41.999   -744720.8875  -6999947.0296  -3157388.5142   5  14   3.9754   7.9226   4.4060   3.6459   1.9874  -2.3472   0.00    0.0
2024/01/10 00:02:42.999   -741770.6986  -6997605.6039  -3163258.0022   5  14   3.9754   7.9236   4.4058   3.6462   1.9858  -2.3472   0.00    0.0
2024/01/10 00:02:43.999   -738821.2583  -6995265.0302  -3169126.9709   5  14   3.9754   7.9246   4.4057   3.6465   1.9841  -2.3473   0.00    0.0
2024/01/10 00:02:44.999   -735868.6927  -6992915.0689  -3174993.9280   5  14   3.9754   7.9256   4.4055   3.6468   1.9825  -2.3473   0.00    0.0
2024/01/10 00:02:45.999   -732917.7308  -6990559.8185  -3180855.6426   5  14   3.9755   7.9266   4.4053   3.6472   1.9809  -2.3474   0.00    0.0
2024/01/10 00:02:46.999   -729963.0822  -6988199.9357  -3186717.1370   5  14   3.9755   7.9277   4.4051   3.6475   1.9793  -2.3474   0.00    0.0
2024/01/10 00:02:47.999   -727006.9397  -6985831.2831  -3192574.4185   5  14   3.9755   7.9287   4.4050   3.6478   1.9777  -2.3475   0.00    0.0
2024/01/10 00:02:48.999   -724053.7855  -6983460.4288  -3198429.2701   5  14   3.9755   7.9297   4.4048   3.6482   1.9761  -2.3475   0.00    0.0
2024/01/10 00:02:49.999   -721098.0356  -6981082.6208  -3204280.5954   5  14   3.9755   7.9307   4.4047   3.6485   1.9744  -2.3476   0.00    0.0
2024/01/10 00:02:50.999   -718138.8629  -6978700.4345  -3210131.3333   5  14   3.9756   7.9318   4.4045   3.6488   1.9728  -2.3476   0.00    0.0
2024/01/10 00:02:51.999   -715180.9524  -6976309.1836  -3215976.1155   5  14   3.9756   7.9328   4.4043   3.6492   1.9712  -2.3477   0.00    0.0
2024/01/10 00:02:52.999   -712222.3259  -6973916.5151  -3221819.6721   5  14   3.9756   7.9339   4.4042   3.6495   1.9696  -2.3477   0.00    0.0
2024/01/10 00:02:53.999   -709261.4115  -6971515.5710  -3227660.5625   5  14   3.9756   7.9349   4.4040   3.6498   1.9679  -2.3478   0.00    0.0
2024/01/10 00:02:54.999   -706300.0190  -6969112.4420  -3233499.5269   5  14   3.9757   7.9359   4.4039   3.6502   1.9663  -2.3478   0.00    0.0
2024/01/10 00:02:55.999   -703337.9492  -6966702.7782  -3239334.5952   5  14   3.9757   7.9370   4.4037   3.6505   1.9647  -2.3479   0.00    0.0
2024/01/10 00:02:56.999   -700375.6442  -6964284.0251  -3245167.0909   5  14   3.9757   7.9380   4.4035   3.6509   1.9631  -2.3479   0.00    0.0
2024/01/10 00:02:57.999   -697411.1122  -6961860.3214  -3250996.0670   5  14   3.9758   7.9391   4.4034   3.6512   1.9614  -2.3480   0.00    0.0
2024/01/10 00:02:58.999   -694446.2159  -6959433.7744  -3256823.4113   5  14   3.9758   7.9402   4.4032   3.6516   1.9598  -2.3480   0.00    0.0
2024/01/10 00:02:59.999   -691480.8153  -6956999.0753  -3262645.8371   5  14   3.9758   7.9412   4.4031   3.6519   1.9582  -2.3481   0.00    0.0
2024/01/10 00:03:00.999   -688514.1917  -6954563.8366  -3268468.7537   5  14   3.9759   7.9423   4.4029   3.6523   1.9565  -2.3481   0.00    0.0
2024/01/10 00:03:01.999   -685545.7613  -6952116.1243  -3274286.0330   5  14   3.9759   7.9434   4.4028   3.6526   1.9549  -2.3482   0.00    0.0
2024/01/10 00:03:02.999   -682576.9672  -6949665.1669  -3280099.9808   5  14   3.9759   7.9444   4.4027   3.6530   1.9532  -2.3482   0.00    0.0
2024/01/10 00:03:03.999   -679606.3998  -6947211.8138  -3285914.4706   5  14   3.9760   7.9455   4.4025   3.6533   1.9516  -2.3483   0.00    0.0
2024/01/10 00:03:04.999   -676635.6221  -6944750.2457  -3291724.8347   5  14   3.9760   7.9466   4.4024   3.6537   1.9500  -2.3483   0.00    0.0
2024/01/10 00:03:05.999   -673664.1149  -6942284.0935  -3297531.0416   5  14   3.9760   7.9477   4.4022   3.6541   1.9483  -2.3484   0.00    0.0
2024/01/10 00:03:06.999   -670691.5853  -6939812.0324  -3303335.8990   5  14   3.9761   7.9488   4.4021   3.6544   1.9467  -2.3485   0.00    0.0
2024/01/10 00:03:07.999   -667716.8967  -6937333.3288  -3309136.5050   5  14   3.9761   7.9499   4.4020   3.6548   1.9450  -2.3485   0.00    0.0
2024/01/10 00:03:08.999   -664743.9047  -6934849.7374  -3314934.3799   5  14   3.9762   7.9509   4.4018   3.6551   1.9434  -2.3486   0.00    0.0
2024/01/10 00:03:09.999   -661768.5600  -6932362.0049  -3320728.9729   5  14   3.9762   7.9520   4.4017   3.6555   1.9417  -2.3486   0.00    0.0
2024/01/10 00:03:10.999   -658791.8200  -6929865.1986  -3326522.1591   5  14   3.9763   7.9531   4.4016   3.6559   1.9401  -2.3487   0.00    0.0
2024/01/10 00:03:11.999   -655815.6381  -6927367.1831  -3332311.7924   5  14   3.9763   7.9542   4.4014   3.6562   1.9384  -2.3487   0.00    0.0
2024/01/10 00:03:12.999   -652837.0810  -6924863.3893  -3338099.4063   5  14   3.9764   7.9553   4.4013   3.6566   1.9368  -2.3488   0.00    0.0
2024/01/10 00:03:13.999   -649855.5765  -6922349.6384  -3343882.3415   5  14   3.9764   7.9565   4.4012   3.6570   1.9351  -2.3489   0.00    0.0
2024/01/10 00:03:14.999   -646876.3029  -6919832.3969  -3349662.8634   5  14   3.9765   7.9576   4.4010   3.6574   1.9335  -2.3489   0.00    0.0
2024/01/10 00:03:15.999   -643895.4362  -6917309.9012  -3355440.5780   5  14   3.9765   7.9587   4.4009   3.6577   1.9318  -2.3490   0.00    0.0
2024/01/10 00:03:16.999   -640914.8464  -6914782.4407  -3361215.7086   5  14   3.9766   7.9598   4.4008   3.6581   1.9301  -2.3490   0.00    0.0
2024/01/10 00:03:17.999   -637931.9512  -6912249.4604  -3366988.4992   5  14   3.9766   7.9609   4.4007   3.6585   1.9285  -2.3491   0.00    0.0
2024/01/10 00:03:18.999   -634947.7470  -6909712.8979  -3372758.6477   5  14   3.9767   7.9621   4.4006   3.6589   1.9268  -2.3492   0.00    0.0
2024/01/10 00:03:19.999   -631963.3244  -6907167.0692  -3378524.6496   5  14   3.9767   7.9632   4.4004   3.6593   1.9252  -2.3492   0.00    0.0
2024/01/10 00:03:20.999   -628977.8662  -6904617.9581  -3384288.1634   5  14   3.9768   7.9643   4.4003   3.6597   1.9235  -2.3493   0.00    0.0
2024/01/10 00:03:21.999   -625989.9749  -6902061.9028  -3390048.0390   5  14   3.9769   7.9654   4.4002   3.6600   1.9218  -2.3493   0.00    0.0
2024/01/10 00:03:22.999   -623003.4091  -6899500.9899  -3395806.6838   5  14   3.9769   7.9666   4.4001   3.6604   1.9201  -2.3494   0.00    0.0
2024/01/10 00:03:23.999   -620015.5141  -6896933.7757  -3401559.7901   5  14   3.9770   7.9677   4.4000   3.6608   1.9185  -2.3495   0.00    0.0
2024/01/10 00:03:24.999   -617024.2716  -6894360.7000  -3407312.0167   5  14   3.9771   7.9689   4.3999   3.6612   1.9168  -2.3495   0.00    0.0
2024/01/10 00:03:25.999   -614035.6352  -6891785.5854  -3413059.7107   5  14   3.9771   7.9700   4.3998   3.6616   1.9151  -2.3496   0.00    0.0
2024/01/10 00:03:26.999   -611045.3469  -6889202.6466  -3418805.4912   5  14   3.9772   7.9712   4.3997   3.6620   1.9135  -2.3497   0.00    0.0
2024/01/10 00:03:27.999   -608053.8803  -6886615.5550  -3424548.1758   5  14   3.9773   7.9723   4.3996   3.6624   1.9118  -2.3497   0.00    0.0
2024/01/10 00:03:28.999   -605058.6624  -6884019.0881  -3430288.6927   5  14   3.9773   7.9735   4.3994   3.6628   1.9101  -2.3498   0.00    0.0
2024/01/10 00:03:29.999   -602066.0150  -6881419.9846  -3436025.7217   5  14   3.9774   7.9746   4.3993   3.6632   1.9084  -2.3498   0.00    0.0
2024/01/10 00:03:30.999   -599072.0358  -6878817.0557  -3441759.4768   5  14   3.9775   7.9758   4.3992   3.6636   1.9067  -2.3499   0.00    0.0
2024/01/10 00:03:31.999   -596075.3721  -6876205.5447  -3447490.0871   5  14   3.9775   7.9770   4.3991   3.6640   1.9051  -2.3500   0.00    0.0
2024/01/10 00:03:32.999   -593078.8002  -6873589.5230  -3453218.1511   5  14   3.9776   7.9782   4.3990   3.6644   1.9034  -2.3500   0.00    0.0
2024/01/10 00:03:33.999   -590081.4253  -6870965.4173  -3458941.6381   5  14   3.9777   7.9793   4.3989   3.6648   1.9017  -2.3501   0.00    0.0
2024/01/10 00:03:34.999   -587083.9992  -6868341.4275  -3464664.7171   5  14   3.9778   7.9805   4.3989   3.6653   1.9000  -2.3502   0.00    0.0
2024/01/10 00:03:35.999   -584083.7255  -6865707.5967  -3470382.5115   5  14   3.9778   7.9817   4.3988   3.6657   1.8983  -2.3502   0.00    0.0
2024/01/10 00:03:36.999   -581084.8968  -6863071.1295  -3476098.9659   5  14   3.9779   7.9829   4.3987   3.6661   1.8966  -2.3503   0.00    0.0
2024/01/10 00:03:37.999   -578082.4117  -6860425.7170  -3481812.1653   5  14   3.9780   7.9841   4.3986   3.6665   1.8949  -2.3504   0.00    0.0
2024/01/10 00:03:38.999   -575082.9572  -6857778.0604  -3487520.9581   5  14   3.9781   7.9853   4.3985   3.6669   1.8932  -2.3504   0.00    0.0
2024/01/10 00:03:39.999   -572079.6847  -6855123.6288  -3493228.2275   5  14   3.9782   7.9864   4.3984   3.6673   1.8915  -2.3505   0.00    0.0
2024/01/10 00:03:40.999   -569074.0296  -6852464.6797  -3498932.4564   5  14   3.9782   7.9876   4.3983   3.6678   1.8898  -2.3506   0.00    0.0
2024/01/10 00:03:41.999   -566070.2571  -6849801.4123  -3504634.6820   5  14   3.9783   7.9888   4.3982   3.6682   1.8881  -2.3507   0.00    0.0
2024/01/10 00:03:42.999   -563065.7398  -6847129.9161  -3510331.4034   5  14   3.9784   7.9901   4.3982   3.6686   1.8864  -2.3507   0.00    0.0
2024/01/10 00:03:43.999   -560058.9736  -6844453.3792  -3516025.7933   5  14   3.9785   7.9913   4.3981   3.6690   1.8847  -2.3508   0.00    0.0
2024/01/10 00:03:44.999   -557052.1372  -6841771.8798  -3521716.7454   5  14   3.9786   7.9925   4.3980   3.6695   1.8830  -2.3509   0.00    0.0
2024/01/10 00:03:45.999   -554043.9129  -6839084.7948  -3527405.4092   5  14   3.9787   7.9937   4.3979   3.6699   1.8813  -2.3509   0.00    0.0
2024/01/10 00:03:46.999   -551035.5017  -6836391.5702  -3533090.7827   5  14   3.9788   7.9949   4.3978   3.6703   1.8796  -2.3510   0.00    0.0
2024/01/10 00:03:47.999   -548024.8188  -6833692.2864  -3538772.7045   5  14   3.9789   7.9961   4.3978   3.6708   1.8779  -2.3511   0.00    0.0
2024/01/10 00:03:48.999   -545015.3525  -6830989.3786  -3544452.2974   5  14   3.9790   7.9974   4.3977   3.6712   1.8762  -2.3511   0.00    0.0
2024/01/10 00:03:49.999   -542003.7060  -6828279.2250  -3550128.8643   5  14   3.9791   7.9986   4.3976   3.6716   1.8745  -2.3512   0.00    0.0
2024/01/10 00:03:50.999   -538991.1489  -6825566.2396  -3555801.7155   5  14   3.9792   7.9998   4.3975   3.6721   1.8727  -2.3513   0.00    0.0
2024/01/10 00:03:51.999   -535979.8867  -6822847.1795  -3561471.2150   5  14   3.9792   8.0010   4.3975   3.6725   1.8710  -2.3514   0.00    0.0
2024/01/10 00:03:52.999   -532964.8409  -6820122.2904  -3567138.8286   5  14   3.9793   8.0023   4.3974   3.6729   1.8693  -2.3514   0.00    0.0
2024/01/10 00:03:53.999   -529949.7884  -6817391.0992  -3572802.3233   5  14   3.9794   8.0035   4.3973   3.6734   1.8676  -2.3515   0.00    0.0
2024/01/10 00:03:54.999   -526934.6301  -6814655.0106  -3578463.0597   5  14   3.9795   8.0048   4.3973   3.6738   1.8659  -2.3516   0.00    0.0
2024/01/10 00:03:55.999   -523917.3877  -6811913.3039  -3584121.1030   5  14   3.9797   8.0060   4.3972   3.6743   1.8641  -2.3517   0.00    0.0
2024/01/10 00:03:56.999   -520897.6470  -6809163.4005  -3589775.3410   5  14   3.9798   8.0073   4.3972   3.6747   1.8624  -2.3517   0.00    0.0
2024/01/10 00:03:57.999   -517881.8469  -6806412.4481  -3595425.9842   5  15   3.2957   7.3796   4.3674   2.5625   2.2469  -2.0960   0.00    0.0
2024/01/10 00:03:58.999   -514862.4313  -6803654.9526  -3601074.1947   5  15   3.2957   7.3808   4.3673   2.5629   2.2458  -2.0959   0.00    0.0
2024/01/10 00:03:59.999   -511842.1984  -6800893.8529  -3606720.3839   5  15   3.2957   7.3821   4.3672   2.5632   2.2447  -2.0957   0.00    0.0
2024/01/10 00:04:00.999   -508822.6250  -6798124.1664  -3612362.5767   5  15   3.2956   7.3833   4.3671   2.5636   2.2436  -2.0955   0.00    0.0
2024/01/10 00:04:01.999   -505799.7967  -6795349.6490  -3618000.6151   5  15   3.2956   7.3845   4.3670   2.5640   2.2425  -2.0954   0.00    0.0
2024/01/10 00:04:02.999   -502777.3497  -6792570.5269  -3623637.8730   5  15   3.2956   7.3858   4.3669   2.5643   2.2414  -2.0952   0.00    0.0
2024/01/10 00:04:03.999   -499753.1775  -6789785.4002  -3629270.0964   5  15   3.2955   7.3870   4.3668   2.5647   2.2402  -2.0950   0.00    0.0
2024/01/10 00:04:04.999   -496729.6729  -6786992.1780  -3634898.3873   5  15   3.2955   7.3883   4.3667   2.5651   2.2391  -2.0949   0.00    0.0
2024/01/10 00:04:05.999   -493705.1779  -6784195.3999  -3640523.6390   5  15   3.2955   7.3895   4.3666   2.5654   2.2380  -2.0947   0.00    0.0
2024/01/10 00:04:06.999   -490678.5031  -6781397.2077  -3646148.9676   5  15   3.2955   7.3907   4.3665   2.5658   2.2369  -2.0946   0.00    0.0
2024/01/10 00:04:07.999   -487652.4494  -6778592.5711  -3651769.7310   5  15   3.2954   7.3920   4.3665   2.5662   2.2358  -2.0944   0.00    0.0
2024/01/10 00:04:08.999   -484624.8136  -6775779.0308  -3657385.2405   5  15   3.2954   7.3932   4.3664   2.5665   2.2347  -2.0943   0.00    0.0
2024/01/10 00:04:09.999   -481596.9037  -6772959.7024  -3662997.6631   5  14   3.3584   7.5583   4.7950   2.7573   1.3737  -2.3809   0.00    0.0
2024/01/10 00:04:10.999   -478567.5478  -6770135.5589  -3668609.1845   5  14   3.3583   7.5594   4.7951   2.7575   1.3722  -2.3807   0.00    0.0
2024/01/10 00:04:11.999   -475537.9390  -6767308.2982  -3674216.9378   5  14   3.3583   7.5605   4.7951   2.7577   1.3708  -2.3805   0.00    0.0
2024/01/10 00:04:12.999   -472507.6013  -6764474.6465  -3679820.5754   5  14   3.3582   7.5616   4.7951   2.7579   1.3693  -2.3803   0.00    0.0
2024/01/10 00:04:13.999   -469474.5722  -6761638.1965  -3685423.1330   5  14   3.3581   7.5627   4.7951   2.7581   1.3678  -2.3801   0.00    0.0
2024/01/10 00:04:14.999   -466443.7330  -6758792.1702  -3691019.7801   5  14   3.3581   7.5638   4.7952   2.7583   1.3664  -2.3799   0.00    0.0
2024/01/10 00:04:15.999   -463409.1027  -6755940.6721  -3696614.1622   5  14   3.3580   7.5649   4.7952   2.7585   1.3649  -2.3796   0.00    0.0
2024/01/10 00:04:16.999   -460375.2364  -6753086.4673  -3702206.0990   5  14   3.3580   7.5660   4.7952   2.7587   1.3634  -2.3794   0.00    0.0
2024/01/10 00:04:17.999   -457340.9957  -6750226.3662  -3707793.1518   5  14   3.3579   7.5671   4.7953   2.7589   1.3620  -2.3792   0.00    0.0
2024/01/10 00:04:18.999   -454304.7384  -6747359.6768  -3713377.2510   5  14   3.3578   7.5682   4.7953   2.7591   1.3605  -2.3790   0.00    0.0
2024/01/10 00:04:19.999   -451269.0047  -6744487.8339  -3718959.0890   5  14   3.3578   7.5693   4.7953   2.7593   1.3590  -2.3788   0.00    0.0
2024/01/10 00:04:20.999   -448230.7038  -6741611.2099  -3724537.8734   5  14   3.3577   7.5705   4.7954   2.7595   1.3575  -2.3786   0.00    0.0
2024/01/10 00:04:21.999   -445192.8815  -6738729.1200  -3730113.6137   5  14   3.3577   7.5716   4.7954   2.7598   1.3560  -2.3784   0.00    0.0
2024/01/10 00:04:22.999   -442153.3648  -6735842.4128  -3735685.8386   5  14   3.3576   7.5727   4.7955   2.7600   1.3545  -2.3782   0.00    0.0
2024/01/10 00:04:23.999   -439113.0787  -6732948.0100  -3741254.1067   5  14   3.3575   7.5739   4.7955   2.7602   1.3531  -2.3780   0.00    0.0
2024/01/10 00:04:24.999   -436072.9640  -6730051.3509  -3746818.5720   5  14   3.3575   7.5750   4.7955   2.7604   1.3516  -2.3778   0.00    0.0
2024/01/10 00:04:25.999   -433031.7641  -6727144.8964  -3752379.9965   5  14   3.3574   7.5761   4.7956   2.7606   1.3501  -2.3776   0.00    0.0
2024/01/10 00:04:26.999   -429989.3352  -6724237.8315  -3757940.4863   5  14   3.3574   7.5773   4.7956   2.7609   1.3486  -2.3774   0.00    0.0
2024/01/10 00:04:27.999   -426947.3522  -6721326.5756  -3763497.2018   5  14   3.3573   7.5784   4.7957   2.7611   1.3471  -2.3772   0.00    0.0
2024/01/10 00:04:28.999   -423904.2029  -6718403.1983  -3769047.9857   5  14   3.3573   7.5796   4.7957   2.7613   1.3456  -2.3770   0.00    0.0
2024/01/10 00:04:29.999   -420858.8843  -6715480.4718  -3774597.8463   5  14   3.3572   7.5807   4.7958   2.7615   1.3441  -2.3768   0.00    0.0
2024/01/10 00:04:30.999   -417813.0741  -6712549.0205  -3780142.8814   5  14   3.3572   7.5819   4.7958   2.7618   1.3425  -2.3766   0.00    0.0
2024/01/10 00:04:31.999   -414767.5921  -6709613.4347  -3785686.7577   5  14   3.3571   7.5830   4.7959   2.7620   1.3410  -2.3764   0.00    0.0
2024/01/10 00:04:32.999   -411719.8098  -6706672.1040  -3791224.5080   5  14   3.3571   7.5842   4.7960   2.7622   1.3395  -2.3762   0.00    0.0
2024/01/10 00:04:33.999   -408672.6066  -6703726.6178  -3796761.4404   5  14   3.3570   7.5854   4.7960   2.7625   1.3380  -2.3760   0.00    0.0
2024/01/10 00:04:34.999   -405623.0585  -6700774.1495  -3802294.2540   5  14   3.3570   7.5865   4.7961   2.7627   1.3365  -2.3758   0.00    0.0
2024/01/10 00:04:35.999   -402575.3831  -6697817.0767  -3807822.2041   5  14   3.3570   7.5877   4.7962   2.7629   1.3350  -2.3756   0.00    0.0
2024/01/10 00:04:36.999   -399525.5172  -6694854.4647  -3813349.1828   5  14   3.3569   7.5889   4.7962   2.7632   1.3334  -2.3754   0.00    0.0
2024/01/10 00:04:37.999   -396474.0855  -6691888.1204  -3818872.5503   5  14   3.3569   7.5900   4.7963   2.7634   1.3319  -2.3752   0.00    0.0
2024/01/10 00:04:38.998   -393421.9797  -6688913.4861  -3824390.4366   5  14   3.3568   7.5912   4.7964   2.7637   1.3304  -2.3750   0.00    0.0
2024/01/10 00:04:39.998   -390369.9345  -6685937.0604  -3829908.6044   5  14   3.3568   7.5924   4.7964   2.7639   1.3288  -2.3748   0.00    0.0
2024/01/10 00:04:40.998   -387317.8173  -6682951.2411  -3835420.2110   5  14   3.3567   7.5936   4.7965   2.7641   1.3273  -2.3746   0.00    0.0
2024/01/10 00:04:41.998   -384263.4597  -6679961.6849  -3840928.8680   5  14   3.3567   7.5948   4.7966   2.7644   1.3258  -2.3745   0.00    0.0
2024/01/10 00:04:42.998   -381208.6941  -6676967.3500  -3846435.8373   5  14   3.3567   7.5960   4.7967   2.7646   1.3242  -2.3743   0.00    0.0
2024/01/10 00:04:43.998   -378153.3030  -6673966.6304  -3851937.6680   5  14   3.3566   7.5972   4.7967   2.7649   1.3227  -2.3741   0.00    0.0
2024/01/10 00:04:44.998   -375097.3011  -6670962.1100  -3857438.6712   5  14   3.3566   7.5984   4.7968   2.7651   1.3211  -2.3739   0.00    0.0
2024/01/10 00:04:45.998   -372040.3232  -6667953.5485  -3862935.8289   5  14   3.3566   7.5996   4.7969   2.7654   1.3196  -2.3737   0.00    0.0
2024/01/10 00:04:46.998   -368981.1743  -6664938.1413  -3868428.0913   5  14   3.3565   7.6008   4.7970   2.7656   1.3180  -2.3735   0.00    0.0
2024/01/10 00:04:47.998   -365924.6787  -6661916.9611  -3873917.4980   5  14   3.3565   7.6020   4.7971   2.7659   1.3165  -2.3733   0.00    0.0
2024/01/10 00:04:48.998   -362864.2399  -6658890.3419  -3879402.6787   5  14   3.3565   7.6032   4.7972   2.7662   1.3149  -2.3731   0.00    0.0
2024/01/10 00:04:49.998   -359804.5046  -6655859.8940  -3884886.3171   5  14   3.3564   7.6044   4.7973   2.7664   1.3133  -2.3729   0.00    0.0
2024/01/10 00:04:50.998   -356743.1009  -6652820.4078  -3890364.0261   5  14   3.3564   7.6057   4.7974   2.7667   1.3118  -2.3727   0.00    0.0
2024/01/10 00:04:51.998   -353682.9097  -6649778.8144  -3895840.1499   5  14   3.3564   7.6069   4.7975   2.7669   1.3102  -2.3725   0.00    0.0
2024/01/10 00:04:52.998   -350620.3104  -6646731.2700  -3901312.5014   5  14   3.3564   7.6081   4.7975   2.7672   1.3086  -2.3723   0.00    0.0
2024/01/10 00:04:53.998   -347557.4570  -6643678.2456  -3906782.4774   5  14   3.3563   7.6093   4.7976   2.7675   1.3070  -2.3722   0.00    0.0
2024/01/10 00:04:54.998   -344493.1202  -6640621.3345  -3912247.9827   5  14   3.3563   7.6106   4.7977   2.7677   1.3055  -2.3720   0.00    0.0
2024/01/10 00:04:55.998   -341428.8944  -6637554.8703  -3917709.9722   5  14   3.3563   7.6118   4.7979   2.7680   1.3039  -2.3718   0.00    0.0
2024/01/10 00:04:56.998   -338364.2111  -6634489.4775  -3923169.0681   5  14   3.3563   7.6131   4.7980   2.7683   1.3023  -2.3716   0.00    0.0
2024/01/10 00:04:57.998   -335297.4790  -6631416.6770  -3928625.4523   5  14   3.3562   7.6143   4.7981   2.7685   1.3007  -2.3714   0.00    0.0
2024/01/10 00:04:58.998   -332231.1157  -6628338.1805  -3934078.2953   5  14   3.3562   7.6156   4.7982   2.7688   1.2991  -2.3712   0.00    0.0
2024/01/10 00:04:59.998   -329164.0507  -6625252.2391  -3939525.8208   5  14   3.3562   7.6168   4.7983   2.7691   1.2975  -2.3710   0.00    0.0
2024/01/10 00:05:00.998   -326095.6299  -6622163.0428  -3944972.2855   5  14   3.3562   7.6181   4.7984   2.7693   1.2959  -2.3708   0.00    0.0
2024/01/10 00:05:01.998   -323027.6058  -6619070.0592  -3950414.9439   5  14   3.3562   7.6193   4.7985   2.7696   1.2943  -2.3707   0.00    0.0
2024/01/10 00:05:02.998   -319957.1897  -6615965.7472  -3955851.4900   5  14   3.3561   7.6206   4.7986   2.7699   1.2927  -2.3705   0.00    0.0
2024/01/10 00:05:03.998   -316887.1280  -6612863.1746  -3961289.2260   5  13   3.3597   7.6244   5.6577   2.7758   1.5044  -2.2698   0.00    0.0
2024/01/10 00:05:04.998   -313815.7800  -6609753.4995  -3966718.8589   5  13   3.3597   7.6257   5.6573   2.7760   1.5024  -2.2695   0.00    0.0
2024/01/10 00:05:05.998   -310744.3523  -6606634.7098  -3972143.7249   5  13   3.3597   7.6269   5.6569   2.7763   1.5004  -2.2692   0.00    0.0
2024/01/10 00:05:06.998   -307671.9097  -6603515.2466  -3977571.3326   5  13   3.3597   7.6282   5.6565   2.7766   1.4984  -2.2690   0.00    0.0
2024/01/10 00:05:07.998   -304598.0719  -6600390.3353  -3982992.9427   5  13   3.3597   7.6295   5.6561   2.7769   1.4963  -2.2687   0.00    0.0
2024/01/10 00:05:08.998   -301523.9420  -6597254.5843  -3988409.6567   5  13   3.3597   7.6307   5.6557   2.7771   1.4943  -2.2684   0.00    0.0
2024/01/10 00:05:09.998   -298450.4099  -6594118.7020  -3993823.9544   5  13   3.3597   7.6320   5.6554   2.7774   1.4923  -2.2681   0.00    0.0
2024/01/10 00:05:10.998   -295374.5918  -6590976.6823  -3999234.8984   5  13   3.3597   7.6333   5.6550   2.7777   1.4903  -2.2678   0.00    0.0
2024/01/10 00:05:11.998   -292298.3686  -6587828.7070  -4004641.1117   5  13   3.3597   7.6346   5.6546   2.7780   1.4882  -2.2675   0.00    0.0
2024/01/10 00:05:12.998   -289221.4208  -6584677.7217  -4010045.6832   5  13   3.3597   7.6358   5.6542   2.7783   1.4862  -2.2673   0.00    0.0
2024/01/10 00:05:13.998   -286143.8478  -6581521.3366  -4015447.3173   5  13   3.3597   7.6371   5.6539   2.7785   1.4842  -2.2670   0.00    0.0
2024/01/10 00:05:14.998   -283065.9377  -6578357.4369  -4020844.7524   5  13   3.3597   7.6384   5.6535   2.7788   1.4821  -2.2667   0.00    0.0
2024/01/10 00:05:15.998   -279986.9240  -6575187.3395  -4026238.0906   5  13   3.3597   7.6397   5.6531   2.7791   1.4801  -2.2664   0.00    0.0
2024/01/10 00:05:16.998   -276907.0034  -6572015.8929  -4031627.5087   5  13   3.3597   7.6410   5.6528   2.7794   1.4780  -2.2661   0.00    0.0
2024/01/10 00:05:17.998   -273827.2645  -6568836.4037  -4037013.9891   5  13   3.3597   7.6423   5.6524   2.7797   1.4760  -2.2659   0.00    0.0
2024/01/10 00:05:18.998   -270745.3439  -6565653.2013  -4042397.7047   5  13   3.3597   7.6436   5.6521   2.7800   1.4739  -2.2656   0.00    0.0
2024/01/10 00:05:19.998   -267664.1099  -6562463.3586  -4047777.4716   5  13   3.3597   7.6449   5.6517   2.7803   1.4719  -2.2653   0.00    0.0
2024/01/10 00:05:20.998   -264582.0441  -6559269.4240  -4053152.8424   5  13   3.3597   7.6462   5.6514   2.7806   1.4698  -2.2650   0.00    0.0
2024/01/10 00:05:21.998   -261498.4078  -6556069.9012  -4058524.3490   5  13   3.3598   7.6475   5.6510   2.7809   1.4677  -2.2647   0.00    0.0
2024/01/10 00:05:22.998   -258414.9589  -6552864.6615  -4063893.9766   5  13   3.3598   7.6488   5.6507   2.7812   1.4657  -2.2645   0.00    0.0
2024/01/10 00:05:23.998   -255330.1250  -6549653.6416  -4069258.2181   5  13   3.3598   7.6501   5.6503   2.7815   1.4636  -2.2642   0.00    0.0
2024/01/10 00:05:24.998   -252244.6702  -6546438.7452  -4074622.0608   5  13   3.3598   7.6515   5.6500   2.7818   1.4615  -2.2639   0.00    0.0
2024/01/10 00:05:25.998   -249157.7352  -6543218.9925  -4079979.5775   5  13   3.3598   7.6528   5.6496   2.7821   1.4594  -2.2636   0.00    0.0
2024/01/10 00:05:26.998   -246072.7453  -6539992.8830  -4085333.9577   5  13   3.3598   7.6541   5.6493   2.7824   1.4573  -2.2634   0.00    0.0
2024/01/10 00:05:27.998   -242985.1712  -6536761.5676  -4090685.2625   5  13   3.3598   7.6554   5.6490   2.7827   1.4552  -2.2631   0.00    0.0
2024/01/10 00:05:28.998   -239897.0723  -6533525.6533  -4096031.7296   5  13   3.3598   7.6568   5.6486   2.7830   1.4531  -2.2628   0.00    0.0
2024/01/10 00:05:29.998   -236807.8710  -6530285.5092  -4101377.9351   5  13   3.3599   7.6581   5.6483   2.7833   1.4510  -2.2625   0.00    0.0
2024/01/10 00:05:30.998   -233719.5408  -6527035.9755  -4106717.7703   5  13   3.3599   7.6595   5.6480   2.7836   1.4489  -2.2623   0.00    0.0
2024/01/10 00:05:31.998   -230629.0018  -6523786.7311  -4112055.0681   5  13   3.3599   7.6608   5.6476   2.7839   1.4468  -2.2620   0.00    0.0
2024/01/10 00:05:32.998   -227537.1541  -6520531.2961  -4117388.8647   5  13   3.3599   7.6621   5.6473   2.7842   1.4447  -2.2617   0.00    0.0
2024/01/10 00:05:33.998   -224446.6936  -6517269.2131  -4122719.3054   5  13   3.3599   7.6635   5.6470   2.7845   1.4426  -2.2615   0.00    0.0
2024/01/10 00:05:34.998   -221355.0487  -6514002.8503  -4128045.2780   5  13   3.3600   7.6649   5.6467   2.7848   1.4405  -2.2612   0.00    0.0
2024/01/10 00:05:35.998   -218261.4224  -6510730.4385  -4133366.0898   5  13   3.3600   7.6662   5.6463   2.7852   1.4383  -2.2609   0.00    0.0
2024/01/10 00:05:36.998   -215169.7030  -6507454.3388  -4138686.8409   5  13   3.3600   7.6676   5.6460   2.7855   1.4362  -2.2607   0.00    0.0
2024/01/10 00:05:37.998   -212075.5394  -6504169.4581  -4144001.2705   5  13   3.3600   7.6689   5.6457   2.7858   1.4341  -2.2604   0.00    0.0
2024/01/10 00:05:38.998   -208981.4655  -6500880.8608  -4149313.2448   5  13   3.3601   7.6703   5.6454   2.7861   1.4319  -2.2601   0.00    0.0
2024/01/10 00:05:39.998   -205885.4938  -6497589.6153  -4154622.4999   5  13   3.3601   7.6717   5.6451   2.7864   1.4298  -2.2599   0.00    0.0
2024/01/10 00:05:40.998   -202788.7966  -6494289.9562  -4159926.2470   5  13   3.3601   7.6731   5.6448   2.7868   1.4276  -2.2596   0.00    0.0
2024/01/10 00:05:41.998   -199692.8222  -6490987.4942  -4165227.4460   5  13   3.3602   7.6744   5.6445   2.7871   1.4255  -2.2593   0.00    0.0
2024/01/10 00:05:42.998   -196595.6947  -6487679.6132  -4170525.8383   5  13   3.3602   7.6758   5.6442   2.7874   1.4233  -2.2591   0.00    0.0
2024/01/10 00:05:43.998   -193497.8568  -6484364.3861  -4175819.0028   5  13   3.3602   7.6772   5.6439   2.7877   1.4212  -2.2588   0.00    0.0
2024/01/10 00:05:44.998   -190398.4536  -6481050.6764  -4181109.3757   5  13   3.3603   7.6786   5.6436   2.7881   1.4190  -2.2585   0.00    0.0
2024/01/10 00:05:45.998   -187299.9722  -6477726.0591  -4186396.5420   5  13   3.3603   7.6800   5.6433   2.7884   1.4168  -2.2583   0.00    0.0
2024/01/10 00:05:46.998   -184200.1901  -6474393.8104  -4191679.3585   5  13   3.3603   7.6814   5.6430   2.7887   1.4147  -2.2580   0.00    0.0
2024/01/10 00:05:47.998   -181098.5335  -6471060.6575  -4196956.9247   5  13   3.3604   7.6828   5.6427   2.7891   1.4125  -2.2577   0.00    0.0
2024/01/10 00:05:48.998   -177998.4151  -6467720.8930  -4202234.5458   5  13   3.3604   7.6842   5.6424   2.7894   1.4103  -2.2575   0.00    0.0
2024/01/10 00:05:49.998   -174896.0147  -6464377.6011  -4207506.0554   5  13   3.3604   7.6856   5.6421   2.7897   1.4081  -2.2572   0.00    0.0
2024/01/10 00:05:50.998   -171794.5595  -6461027.3437  -4212773.4692   5  13   3.3605   7.6870   5.6419   2.7901   1.4059  -2.2570   0.00    0.0
2024/01/10 00:05:51.998   -168691.3235  -6457674.1533  -4218039.6385   5  13   3.3605   7.6884   5.6416   2.7904   1.4037  -2.2567   0.00    0.0
2024/01/10 00:05:52.998   -165587.0285  -6454314.1368  -4223300.5276   5  13   3.3606   7.6898   5.6413   2.7908   1.4015  -2.2564   0.00    0.0
2024/01/10 00:05:53.998   -162482.6768  -6450946.2924  -4228556.4005   5  13   3.3606   7.6913   5.6410   2.7911   1.3993  -2.2562   0.00    0.0
2024/01/10 00:05:54.998   -159377.4690  -6447578.5210  -4233811.8883   5  13   3.3606   7.6927   5.6407   2.7914   1.3971  -2.2559   0.00    0.0
2024/01/10 00:05:55.998   -156272.4465  -6444203.3174  -4239061.5716   5  13   3.3607   7.6941   5.6405   2.7918   1.3949  -2.2557   0.00    0.0
2024/01/10 00:05:56.998   -153165.8480  -6440824.1630  -4244308.0729   5  13   3.3607   7.6955   5.6402   2.7921   1.3927  -2.2554   0.00    0.0
2024/01/10 00:05:57.998   -150058.5107  -6437440.1012  -4249551.1780   5  13   3.3608   7.6970   5.6399   2.7925   1.3905  -2.2551   0.00    0.0
2024/01/10 00:05:58.998   -146951.9022  -6434049.3543  -4254791.1868   5  13   3.3608   7.6984   5.6397   2.7928   1.3882  -2.2549   0.00    0.0
2024/01/10 00:05:59.998   -143843.1892  -6430654.7869  -4260026.5759   5  13   3.3609   7.6999   5.6394   2.7932   1.3860  -2.2546   0.00    0.0
2024/01/10 00:06:00.998   -140734.5352  -6427252.9731  -4265255.7807   5  13   3.3609   7.7013   5.6392   2.7935   1.3838  -2.2544   0.00    0.0
2024/01/10 00:06:01.998   -137624.9710  -6423847.8477  -4270484.5323   5  13   3.3610   7.7028   5.6389   2.7939   1.3815  -2.2541   0.00    0.0
2024/01/10 00:06:02.998   -134515.9407  -6420436.7055  -4275709.3895   5  13   3.3610   7.7042   5.6386   2.7942   1.3793  -2.2539   0.00    0.0
2024/01/10 00:06:03.998   -131404.5764  -6417021.2373  -4280929.0534   5  13   3.3611   7.7057   5.6384   2.7946   1.3770  -2.2536   0.00    0.0
2024/01/10 00:06:04.998   -128294.3865  -6413599.8910  -4286144.4977   5  13   3.3611   7.7071   5.6381   2.7950   1.3748  -2.2534   0.00    0.0
2024/01/10 00:06:05.998   -125182.8730  -6410178.1829  -4291361.9605   5  13   3.3612   7.7086   5.6379   2.7953   1.3725  -2.2531   0.00    0.0
2024/01/10 00:06:06.998   -122070.6044  -6406742.2509  -4296568.5180   5  13   3.3612   7.7101   5.6376   2.7957   1.3702  -2.2529   0.00    0.0
2024/01/10 00:06:07.998   -118957.1086  -6403307.0598  -4301773.9361   5  13   3.3613   7.7115   5.6374   2.7960   1.3680  -2.2526   0.00    0.0
2024/01/10 00:06:08.998   -115842.3021  -6399864.6870  -4306976.5996   5  13   3.3614   7.7130   5.6372   2.7964   1.3657  -2.2524   0.00    0.0
2024/01/10 00:06:09.998   -112728.4815  -6396420.4291  -4312175.5380   5  13   3.3614   7.7145   5.6369   2.7968   1.3634  -2.2521   0.00    0.0
2024/01/10 00:06:10.998   -109613.8056  -6392968.8260  -4317366.8342   5  13   3.3615   7.7160   5.6367   2.7971   1.3611  -2.2519   0.00    0.0
2024/01/10 00:06:11.998   -106497.9236  -6389512.2550  -4322558.8747   5  13   3.3615   7.7174   5.6364   2.7975   1.3588  -2.2516   0.00    0.0
2024/01/10 00:06:12.998   -103382.3551  -6386051.5881  -4327746.0263   5  13   3.3616   7.7189   5.6362   2.7979   1.3566  -2.2514   0.00    0.0
2024/01/10 00:06:13.998   -100265.7190  -6382584.3599  -4332928.8695   5  13   3.3617   7.7204   5.6360   2.7983   1.3543  -2.2511   0.00    0.0
2024/01/10 00:06:14.998    -97148.3722  -6379112.7063  -4338107.5681   5  13   3.3617   7.7219   5.6358   2.7986   1.3520  -2.2509   0.00    0.0
2024/01/10 00:06:15.998    -94030.8162  -6375639.2487  -4343286.0204   5  13   3.3618   7.7234   5.6355   2.7990   1.3496  -2.2506   0.00    0.0
2024/01/10 00:06:16.998    -90911.5444  -6372155.1468  -4348455.7696   5  13   3.3619   7.7249   5.6353   2.7994   1.3473  -2.2504   0.00    0.0
2024/01/10 00:06:17.998    -87794.2447  -6368667.2048  -4353622.9006   5  13   3.3619   7.7264   5.6351   2.7998   1.3450  -2.2501   0.00    0.0
2024/01/10 00:06:18.998    -84674.0383  -6365178.3692  -4358788.8386   5  13   3.3620   7.7279   5.6349   2.8001   1.3427  -2.2499   0.00    0.0
2024/01/10 00:06:19.998    -81553.8740  -6361678.9392  -4363947.9302   5  13   3.3621   7.7295   5.6347   2.8005   1.3404  -2.2496   0.00    0.0
2024/01/10 00:06:20.998    -78433.6058  -6358177.3181  -4369105.1741   5  13   3.3621   7.7310   5.6344   2.8009   1.3380  -2.2494   0.00    0.0
2024/01/10 00:06:21.998    -75311.9968  -6354670.4681  -4374257.8783   5  13   3.3622   7.7325   5.6342   2.8013   1.3357  -2.2492   0.00    0.0
2024/01/10 00:06:22.998    -72190.4171  -6351156.9811  -4379405.7955   5  13   3.3623   7.7340   5.6340   2.8017   1.3333  -2.2489   0.00    0.0
2024/01/10 00:06:23.998    -69066.3002  -6347645.9346  -4384554.5474   5  13   3.3624   7.7355   5.6338   2.8020   1.3310  -2.2487   0.00    0.0
2024/01/10 00:06:24.998    -65944.8218  -6344122.4914  -4389694.3963   5  13   3.3624   7.7371   5.6336   2.8024   1.3286  -2.2484   0.00    0.0
2024/01/10 00:06:25.998    -62821.0389  -6340595.1909  -4394831.2254   5  13   3.3625   7.7386   5.6334   2.8028   1.3263  -2.2482   0.00    0.0
2024/01/10 00:06:26.998    -59696.1100  -6337062.6698  -4399967.3015   5  13   3.3626   7.7401   5.6332   2.8032   1.3239  -2.2480   0.00    0.0
2024/01/10 00:06:27.998    -56572.0843  -6333526.3519  -4405097.0310   5  13   3.3627   7.7417   5.6330   2.8036   1.3215  -2.2477   0.00    0.0
2024/01/10 00:06:28.998    -53446.7794  -6329985.8733  -4410222.6700   5  13   3.3627   7.7432   5.6328   2.8040   1.3192  -2.2475   0.00    0.0
2024/01/10 00:06:29.998    -50320.5055  -6326434.6477  -4415343.2040   5  13   3.3628   7.7448   5.6326   2.8044   1.3168  -2.2472   0.00    0.0
2024/01/10 00:06:30.998    -47194.4281  -6322886.9692  -4420464.9164   5  13   3.3629   7.7463   5.6325   2.8048   1.3144  -2.2470   0.00    0.0
2024/01/10 00:06:31.998    -44067.2997  -6319328.3774  -4425579.1264   5  13   3.3630   7.7479   5.6323   2.8052   1.3120  -2.2468   0.00    0.0
2024/01/10 00:06:32.998    -40940.8574  -6315766.0541  -4430689.5388   5  13   3.3631   7.7494   5.6321   2.8056   1.3096  -2.2465   0.00    0.0
2024/01/10 00:06:33.998    -37812.2176  -6312198.9749  -4435796.2763   5  13   3.3631   7.7510   5.6319   2.8060   1.3072  -2.2463   0.00    0.0
2024/01/10 00:06:34.998    -34683.2121  -6308627.6910  -4440899.5843   5  13   3.3632   7.7526   5.6317   2.8064   1.3048  -2.2461   0.00    0.0
2024/01/10 00:06:35.998    -31553.5825  -6305052.5906  -4445999.2831   5  13   3.3633   7.7541   5.6315   2.8068   1.3024  -2.2458   0.00    0.0
2024/01/10 00:06:36.998    -28424.0933  -6301466.0066  -4451093.0010   5  13   3.3634   7.7557   5.6314   2.8072   1.3000  -2.2456   0.00    0.0
2024/01/10 00:06:37.998    -25293.0613  -6297881.4606  -4456186.5836   5  13   3.3635   7.7573   5.6312   2.8076   1.2976  -2.2453   0.00    0.0
2024/01/10 00:06:38.998    -22162.8150  -6294290.5513  -4461274.0388   5  13   3.3636   7.7589   5.6310   2.8080   1.2951  -2.2451   0.00    0.0
2024/01/10 00:06:39.998    -19032.0357  -6290693.9387  -4466358.6645   5  13   3.3637   7.7605   5.6309   2.8084   1.2927  -2.2449   0.00    0.0
2024/01/10 00:06:40.998    -15899.7908  -6287092.4103  -4471436.8805   5  13   3.3638   7.7621   5.6307   2.8088   1.2903  -2.2447   0.00    0.0
2024/01/10 00:06:41.998    -12768.1133  -6283486.0820  -4476513.9727   5  13   3.3639   7.7636   5.6305   2.8093   1.2878  -2.2444   0.00    0.0
2024/01/10 00:06:42.998     -9634.8923  -6279876.4333  -4481589.9871   5  13   3.3639   7.7652   5.6304   2.8097   1.2854  -2.2442   0.00    0.0
2024/01/10 00:06:43.998     -6500.9334  -6276258.1798  -4486655.8621   5  13   3.3640   7.7668   5.6302   2.8101   1.2829  -2.2440   0.00    0.0
2024/01/10 00:06:44.998     -3367.5161  -6272634.6184  -4491718.5125   5  13   3.3641   7.7684   5.6301   2.8105   1.2804  -2.2437   0.00    0.0
2024/01/10 00:06:45.998      -231.9935  -6269011.9603  -4496780.6442   5  13   3.3642   7.7701   5.6299   2.8109   1.2780  -2.2435   0.00    0.0
2024/01/10 00:06:46.998      2902.5656  -6265376.4057  -4501835.9667   5  13   3.3643   7.7717   5.6298   2.8113   1.2755  -2.2433   0.00    0.0
2024/01/10 00:06:47.998      6038.5444  -6261741.0677  -4506889.0708   5  13   3.3644   7.7733   5.6296   2.8118   1.2730  -2.2430   0.00    0.0
2024/01/10 00:06:48.998      9175.0838  -6258098.8247  -4511937.7187   5  13   3.3645   7.7749   5.6295   2.8122   1.2705  -2.2428   0.00    0.0
2024/01/10 00:06:49.998     12313.1649  -6254451.4153  -4516980.5907   5  13   3.3646   7.7765   5.6293   2.8126   1.2680  -2.2426   0.00    0.0
2024/01/10 00:06:50.998     15448.8528  -6250801.6393  -4522023.8937   5  13   3.3647   7.7781   5.6292   2.8130   1.2655  -2.2424   0.00    0.0
2024/01/10 00:06:51.998     18586.3789  -6247147.4314  -4527062.7661   5  13   3.3648   7.7798   5.6290   2.8135   1.2630  -2.2421   0.00    0.0
2024/01/10 00:06:52.998     21724.6277  -6243486.2204  -4532094.1089   5  13   3.3649   7.7814   5.6289   2.8139   1.2605  -2.2419   0.00    0.0
2024/01/10 00:06:53.998     24863.1607  -6239818.8746  -4537123.7170   5  13   3.3650   7.7830   5.6288   2.8143   1.2580  -2.2417   0.00    0.0
2024/01/10 00:06:54.998     28002.5200  -6236147.0543  -4542147.9649   5  13   3.3651   7.7847   5.6286   2.8147   1.2555  -2.2415   0.00    0.0
2024/01/10 00:06:55.998     31142.1851  -6232471.9223  -4547168.2649   5  13   3.3653   7.7863   5.6285   2.8152   1.2530  -2.2412   0.00    0.0
2024/01/10 00:06:56.998     34282.2132  -6228790.7500  -4552187.5122   5  13   3.3654   7.7880   5.6284   2.8156   1.2504  -2.2410   0.00    0.0
2024/01/10 00:06:57.998     37423.9578  -6225105.0085  -4557200.0251   5  13   3.3655   7.7896   5.6283   2.8161   1.2479  -2.2408   0.00    0.0
2024/01/10 00:06:58.998     40564.7579  -6221415.9076  -4562212.5588   5  13   3.3656   7.7913   5.6281   2.8165   1.2454  -2.2406   0.00    0.0
2024/01/10 00:06:59.998     43705.3128  -6217717.5077  -4567214.2980   5  13   3.3657   7.7929   5.6280   2.8169   1.2428  -2.2403   0.00    0.0
2024/01/10 00:07:00.998     46849.2413  -6214018.1850  -4572216.5483   5  13   3.3658   7.7946   5.6279   2.8174   1.2402  -2.2401   0.00    0.0
2024/01/10 00:07:01.998     49990.9176  -6210312.7381  -4577215.8468   5  14   2.9035   6.4459   5.5953   0.6877   2.0447  -1.9972   0.00    0.0
2024/01/10 00:07:02.998     53135.0633  -6206603.5504  -4582207.9742   5  14   2.9034   6.4466   5.5951   0.6859   2.0438  -1.9967   0.00    0.0
2024/01/10 00:07:03.998     56279.6506  -6202889.7560  -4587198.3528   5  14   2.9033   6.4474   5.5950   0.6841   2.0429  -1.9963   0.00    0.0
2024/01/10 00:07:04.998     59423.4444  -6199167.4948  -4592184.3917   5  14   2.9032   6.4481   5.5948   0.6823   2.0419  -1.9958   0.00    0.0
2024/01/10 00:07:05.998     62568.0877  -6195442.9751  -4597164.7310   5  14   2.9031   6.4488   5.5947   0.6806   2.0410  -1.9954   0.00    0.0
2024/01/10 00:07:06.998     65714.1370  -6191713.8630  -4602142.7748   5  14   2.9030   6.4495   5.5946   0.6788   2.0401  -1.9949   0.00    0.0
2024/01/10 00:07:07.998     68859.0319  -6187978.0755  -4607116.2308   5  14   2.9030   6.4503   5.5944   0.6770   2.0392  -1.9945   0.00    0.0
2024/01/10 00:07:08.998     72005.1758  -6184238.6447  -4612086.3452   5  14   2.9029   6.4510   5.5943   0.6753   2.0383  -1.9940   0.00    0.0
2024/01/10 00:07:09.998     75151.4760  -6180495.3321  -4617053.3323   5  14   2.9028   6.4517   5.5942   0.6735   2.0374  -1.9936   0.00    0.0
2024/01/10 00:07:10.998     78299.2843  -6176747.1340  -4622014.7789   5  14   2.9027   6.4525   5.5940   0.6717   2.0365  -1.9932   0.00    0.0
2024/01/10 00:07:11.998     81447.2284  -6172991.3281  -4626972.8520   5  14   2.9026   6.4532   5.5939   0.6699   2.0356  -1.9927   0.00    0.0
2024/01/10 00:07:12.998     84595.6808  -6169234.0632  -4631925.8195   5  14   2.9026   6.4540   5.5938   0.6682   2.0347  -1.9923   0.00    0.0
2024/01/10 00:07:13.998     87743.7435  -6165466.5506  -4636874.6496   5  14   2.9025   6.4547   5.5937   0.6664   2.0338  -1.9918   0.00    0.0
2024/01/10 00:07:14.998     90892.6073  -6161698.8030  -4641818.4931   5  14   2.9024   6.4555   5.5935   0.6646   2.0329  -1.9914   0.00    0.0
2024/01/10 00:07:15.998     94041.7921  -6157925.0159  -4646761.4170   5  14   2.9023   6.4562   5.5934   0.6628   2.0319  -1.9909   0.00    0.0
2024/01/10 00:07:16.998     97191.6980  -6154146.7883  -4651698.6521   5  14   2.9023   6.4570   5.5933   0.6611   2.0310  -1.9905   0.00    0.0
2024/01/10 00:07:17.998    100343.4785  -6150363.4764  -4656633.5137   5  14   2.9022   6.4578   5.5932   0.6593   2.0301  -1.9901   0.00    0.0
2024/01/10 00:07:18.998    103493.8820  -6146574.3533  -4661561.8205   5  14   2.9021   6.4585   5.5931   0.6575   2.0292  -1.9896   0.00    0.0
2024/01/10 00:07:19.998    106646.3053  -6142784.6163  -4666488.9199   5  13   3.1677   7.4174   5.9259  -2.0494   3.3548  -2.5384   0.00    0.0
2024/01/10 00:07:20.998    109797.0941  -6138983.3240  -4671409.2952   5  13   3.1675   7.4184   5.9253  -2.0499   3.3535  -2.5376   0.00    0.0
2024/01/10 00:07:21.998    112950.1828  -6135180.5466  -4676326.6113   5  13   3.1674   7.4194   5.9247  -2.0504   3.3523  -2.5367   0.00    0.0
2024/01/10 00:07:22.998    116102.6750  -6131373.9582  -4681239.6541   5  13   3.1672   7.4203   5.9241  -2.0509   3.3511  -2.5359   0.00    0.0
2024/01/10 00:07:23.998    119256.9172  -6127562.8509  -4686148.3881   5  13   3.1670   7.4213   5.9235  -2.0514   3.3498  -2.5350   0.00    0.0
2024/01/10 00:07:24.998    122409.8738  -6123743.9495  -4691054.0540   5  13   3.1668   7.4223   5.9229  -2.0518   3.3486  -2.5342   0.00    0.0
2024/01/10 00:07:25.998    125563.9171  -6119921.5325  -4695953.2612   5  13   3.1667   7.4233   5.9223  -2.0523   3.3474  -2.5333   0.00    0.0
2024/01/10 00:07:26.998    128718.9587  -6116096.0679  -4700851.5575   5  13   3.1665   7.4242   5.9217  -2.0528   3.3461  -2.5325   0.00    0.0
2024/01/10 00:07:27.998    131873.9539  -6112263.8792  -4705744.8255   5  13   3.1663   7.4252   5.9211  -2.0533   3.3449  -2.5316   0.00    0.0
2024/01/10 00:07:28.998    135029.6253  -6108425.3525  -4710632.8610   5  13   3.1661   7.4262   5.9205  -2.0537   3.3436  -2.5308   0.00    0.0
2024/01/10 00:07:29.998    138185.7889  -6104585.3456  -4715517.6042   5  13   3.1660   7.4272   5.9199  -2.0542   3.3424  -2.5299   0.00    0.0
2024/01/10 00:07:30.998    141342.3909  -6100740.4222  -4720400.2308   5  13   3.1658   7.4282   5.9193  -2.0547   3.3412  -2.5291   0.00    0.0
2024/01/10 00:07:31.998    144498.3004  -6096887.7241  -4725274.5047   5  13   3.1656   7.4292   5.9187  -2.0551   3.3399  -2.5282   0.00    0.0
2024/01/10 00:07:32.998    147656.1475  -6093033.1646  -4730149.1384   5  13   3.1655   7.4302   5.9181  -2.0556   3.3387  -2.5274   0.00    0.0
2024/01/10 00:07:33.998    150813.7124  -6089174.1150  -4735017.8462   5  13   3.1653   7.4312   5.9175  -2.0561   3.3374  -2.5266   0.00    0.0
2024/01/10 00:07:34.998    153972.3179  -6085307.8023  -4739880.6668   5  13   3.1652   7.4323   5.9170  -2.0566   3.3362  -2.5257   0.00    0.0
2024/01/10 00:07:35.998    157130.8652  -6081437.2121  -4744740.6081   5  13   3.1650   7.4333   5.9164  -2.0570   3.3350  -2.5249   0.00    0.0
2024/01/10 00:07:36.998    160290.3278  -6077563.2146  -4749597.1540   5  13   3.1648   7.4343   5.9158  -2.0575   3.3337  -2.5240   0.00    0.0
2024/01/10 00:07:37.998    163449.1620  -6073681.9001  -4754447.1632   5  13   3.1647   7.4353   5.9153  -2.0580   3.3325  -2.5232   0.00    0.0
2024/01/10 00:07:38.998    166609.1926  -6069797.3574  -4759294.7797   5  13   3.1645   7.4364   5.9147  -2.0584   3.3313  -2.5223   0.00    0.0
2024/01/10 00:07:39.998    169768.7946  -6065908.9484  -4764139.5181   5  13   3.1644   7.4374   5.9141  -2.0589   3.3300  -2.5215   0.00    0.0
2024/01/10 00:07:40.998    172930.4001  -6062016.7981  -4768980.9613   5  13   3.1642   7.4384   5.9136  -2.0594   3.3288  -2.5207   0.00    0.0
2024/01/10 00:07:41.998    176091.9900  -6058115.6998  -4773813.6433   5  13   3.1640   7.4395   5.9130  -2.0598   3.3275  -2.5198   0.00    0.0
2024/01/10 00:07:42.998    179252.9917  -6054211.9863  -4778644.0222   5  13   3.1639   7.4405   5.9125  -2.0603   3.3263  -2.5190   0.00    0.0
2024/01/10 00:07:43.998    182414.5340  -6050305.3459  -4783473.8650   5  13   3.1637   7.4416   5.9119  -2.0607   3.3251  -2.5182   0.00    0.0
2024/01/10 00:07:44.998    185577.3216  -6046393.6530  -4788298.1315   5  13   3.1636   7.4426   5.9114  -2.0612   3.3238  -2.5173   0.00    0.0
2024/01/10 00:07:45.998    188739.5398  -6042475.0160  -4793115.2173   5  13   3.1634   7.4437   5.9108  -2.0617   3.3226  -2.5165   0.00    0.0
2024/01/10 00:07:46.998    191903.4979  -6038551.8299  -4797929.4108   5  13   3.1633   7.4447   5.9103  -2.0621   3.3213  -2.5156   0.00    0.0
2024/01/10 00:07:47.998    195066.2420  -6034621.2160  -4802738.6296   5  13   3.1631   7.4458   5.9098  -2.0626   3.3201  -2.5148   0.00    0.0
2024/01/10 00:07:48.998    198230.7148  -6030691.9586  -4807547.1092   5  13   3.1630   7.4469   5.9092  -2.0630   3.3189  -2.5140   0.00    0.0
2024/01/10 00:07:49.998    201395.8200  -6026756.5697  -4812348.6368   5  13   3.1629   7.4479   5.9087  -2.0635   3.3176  -2.5131   0.00    0.0
2024/01/10 00:07:50.998    204560.7320  -6022814.8160  -4817145.4400   5  13   3.1627   7.4490   5.9082  -2.0640   3.3164  -2.5123   0.00    0.0
2024/01/10 00:07:51.998    207725.1599  -6018868.5740  -4821941.3757   5  13   3.1626   7.4501   5.9076  -2.0644   3.3151  -2.5115   0.00    0.0
2024/01/10 00:07:52.998    210890.8694  -6014917.3667  -4826729.7432   5  13   3.1624   7.4512   5.9071  -2.0649   3.3139  -2.5106   0.00    0.0
2024/01/10 00:07:53.998    214057.1133  -6010960.8111  -4831514.5075   5  13   3.1623   7.4522   5.9066  -2.0653   3.3127  -2.5098   0.00    0.0
2024/01/10 00:07:54.998    217224.1405  -6007000.1720  -4836295.3632   5  13   3.1622   7.4533   5.9061  -2.0658   3.3114  -2.5090   0.00    0.0
2024/01/10 00:07:55.998    220390.0282  -6003034.5223  -4841073.0815   5  13   3.1620   7.4544   5.9056  -2.0663   3.3102  -2.5082   0.00    0.0
2024/01/10 00:07:56.998    223557.6555  -5999064.7292  -4845844.7699   5  13   3.1619   7.4555   5.9051  -2.0667   3.3090  -2.5073   0.00    0.0
2024/01/10 00:07:57.998    226725.4737  -5995091.3410  -4850613.2469   5  13   3.1617   7.4566   5.9045  -2.0672   3.3077  -2.5065   0.00    0.0
2024/01/10 00:07:58.998    229893.3792  -5991112.8270  -4855378.3446   5  13   3.1616   7.4577   5.9040  -2.0676   3.3065  -2.5057   0.00    0.0
2024/01/10 00:07:59.998    233060.8557  -5987125.9384  -4860138.4856   5  13   3.1615   7.4588   5.9035  -2.0681   3.3052  -2.5048   0.00    0.0
2024/01/10 00:08:00.998    236230.0211  -5983136.9834  -4864891.5822   5  13   3.1613   7.4599   5.9030  -2.0685   3.3040  -2.5040   0.00    0.0
2024/01/10 00:08:01.998    239399.2954  -5979147.3531  -4869645.4698   5  13   3.1612   7.4610   5.9026  -2.0690   3.3028  -2.5032   0.00    0.0
2024/01/10 00:08:02.998    242568.9784  -5975149.3140  -4874391.7011   5  13   3.1611   7.4621   5.9021  -2.0694   3.3015  -2.5024   0.00    0.0
2024/01/10 00:08:03.998    245738.4735  -5971144.8863  -4879135.5697   5  13   3.1610   7.4633   5.9016  -2.0699   3.3003  -2.5015   0.00    0.0
2024/01/10 00:08:04.998    248908.9695  -5967138.1488  -4883875.7029   5  13   3.1608   7.4644   5.9011  -2.0703   3.2990  -2.5007   0.00    0.0
2024/01/10 00:08:05.998    252079.5469  -5963125.4479  -4888610.0616   5  13   3.1607   7.4655   5.9006  -2.0708   3.2978  -2.4999   0.00    0.0
2024/01/10 00:08:06.998    255249.8969  -5959109.3306  -4893339.4587   5  13   3.1606   7.4666   5.9001  -2.0712   3.2966  -2.4991   0.00    0.0
2024/01/10 00:08:07.998    258421.7505  -5955089.9098  -4898069.8983   5  13   3.1605   7.4678   5.8996  -2.0717   3.2953  -2.4983   0.00    0.0
2024/01/10 00:08:08.998    261592.9855  -5951059.7287  -4902787.6479   5  13   3.1603   7.4689   5.8992  -2.0721   3.2941  -2.4974   0.00    0.0
2024/01/10 00:08:09.998    264765.8227  -5947030.7577  -4907506.7404   5  13   3.1602   7.4700   5.8987  -2.0726   3.2929  -2.4966   0.00    0.0
2024/01/10 00:08:10.998    267938.9644  -5942993.1488  -4912216.2848   5  13   3.1601   7.4712   5.8982  -2.0731   3.2916  -2.4958   0.00    0.0
2024/01/10 00:08:11.998    271110.5626  -5938954.2493  -4916929.4989   5  13   3.1600   7.4723   5.8978  -2.0735   3.2904  -2.4950   0.00    0.0
2024/01/10 00:08:12.998    274284.2915  -5934909.0641  -4921632.4421   5  13   3.1599   7.4735   5.8973  -2.0740   3.2891  -2.4942   0.00    0.0
2024/01/10 00:08:13.998    277458.2515  -5930860.6510  -4926334.6538   5  13   3.1597   7.4746   5.8969  -2.0744   3.2879  -2.4933   0.00    0.0
2024/01/10 00:08:14.998    280631.0174  -5926805.9998  -4931030.7219   5  13   3.1596   7.4758   5.8964  -2.0749   3.2867  -2.4925   0.00    0.0
2024/01/10 00:08:15.998    283806.0505  -5922747.9807  -4935723.2659   5  13   3.1595   7.4770   5.8959  -2.0753   3.2854  -2.4917   0.00    0.0
2024/01/10 00:08:16.998    286980.4461  -5918684.2211  -4940410.9987   5  13   3.1594   7.4781   5.8955  -2.0758   3.2842  -2.4909   0.00    0.0
2024/01/10 00:08:17.998    290155.4874  -5914614.8991  -4945093.6498   5  13   3.1593   7.4793   5.8951  -2.0762   3.2830  -2.4901   0.00    0.0
2024/01/10 00:08:18.998    293330.6879  -5910542.3347  -4949775.0041   5  13   3.1592   7.4805   5.8946  -2.0766   3.2817  -2.4892   0.00    0.0
2024/01/10 00:08:19.998    296505.3044  -5906464.2214  -4954445.3473   5  13   3.1591   7.4816   5.8942  -2.0771   3.2805  -2.4884   0.00    0.0
2024/01/10 00:08:20.998    299680.9575  -5902382.4288  -4959119.3145   5  13   3.1590   7.4828   5.8937  -2.0775   3.2792  -2.4876   0.00    0.0
2024/01/10 00:08:21.998    302858.2820  -5898297.1025  -4963785.9784   5  13   3.1589   7.4840   5.8933  -2.0780   3.2780  -2.4868   0.00    0.0
2024/01/10 00:08:22.998    306034.7804  -5894205.1587  -4968447.1819   5  13   3.1588   7.4852   5.8929  -2.0784   3.2768  -2.4860   0.00    0.0
2024/01/10 00:08:23.998    309211.9650  -5890108.7818  -4973103.6288   5  13   3.1587   7.4864   5.8924  -2.0789   3.2755  -2.4852   0.00    0.0
2024/01/10 00:08:24.998    312389.2401  -5886010.8206  -4977760.1143   5  13   3.1585   7.4876   5.8920  -2.0793   3.2743  -2.4844   0.00    0.0
2024/01/10 00:08:25.998    315565.7347  -5881904.2949  -4982407.3320   5  13   3.1584   7.4887   5.8916  -2.0798   3.2731  -2.4836   0.00    0.0
2024/01/10 00:08:26.998    318744.2723  -5877794.6948  -4987053.1807   5  13   3.1583   7.4899   5.8912  -2.0802   3.2718  -2.4827   0.00    0.0
2024/01/10 00:08:27.998    321921.7264  -5873679.6416  -4991693.2083   5  13   3.1582   7.4911   5.8908  -2.0807   3.2706  -2.4819   0.00    0.0
2024/01/10 00:08:28.998    325101.1831  -5869561.8754  -4996329.1233   5  13   3.1581   7.4923   5.8904  -2.0811   3.2694  -2.4811   0.00    0.0
2024/01/10 00:08:29.998    328279.1873  -5865437.4428  -5000960.2592   5  13   3.1580   7.4936   5.8899  -2.0816   3.2681  -2.4803   0.00    0.0
2024/01/10 00:08:30.998    331458.7745  -5861309.7083  -5005587.1267   5  13   3.1580   7.4948   5.8895  -2.0820   3.2669  -2.4795   0.00    0.0
2024/01/10 00:08:31.998    334638.8718  -5857177.5107  -5010209.9185   5  13   3.1579   7.4960   5.8891  -2.0825   3.2656  -2.4787   0.00    0.0
2024/01/10 00:08:32.998    337817.7357  -5853040.1645  -5014830.8738   5  13   3.1578   7.4972   5.8887  -2.0829   3.2644  -2.4779   0.00    0.0
2024/01/10 00:08:33.998    340998.0731  -5848896.9817  -5019442.4473   5  13   3.1577   7.4984   5.8883  -2.0834   3.2632  -2.4771   0.00    0.0
2024/01/10 00:08:34.998    344179.1815  -5844751.1986  -5024053.5766   5  13   3.1576   7.4996   5.8879  -2.0838   3.2619  -2.4763   0.00    0.0
2024/01/10 00:08:35.998    347359.2693  -5840600.4240  -5028660.0419   5  13   3.1575   7.5009   5.8876  -2.0843   3.2607  -2.4755   0.00    0.0
2024/01/10 00:08:36.998    350541.1196  -5836445.0441  -5033260.7740   5  13   3.1574   7.5021   5.8872  -2.0847   3.2595  -2.4747   0.00    0.0
2024/01/10 00:08:37.998    353722.0092  -5832283.0480  -5037857.3186   5  13   3.1573   7.5033   5.8868  -2.0851   3.2582  -2.4739   0.00    0.0
2024/01/10 00:08:38.998    356904.0060  -5828118.8405  -5042450.3299   5  13   3.1572   7.5046   5.8864  -2.0856   3.2570  -2.4731   0.00    0.0
2024/01/10 00:08:39.998    360085.3246  -5823947.9176  -5047037.4562   5  13   3.1571   7.5058   5.8860  -2.0860   3.2558  -2.4723   0.00    0.0
2024/01/10 00:08:40.998    363267.9561  -5819776.2446  -5051623.2831   5  13   3.1571   7.5071   5.8857  -2.0865   3.2545  -2.4714   0.00    0.0
2024/01/10 00:08:41.998    366450.3807  -5815596.9627  -5056202.1520   5  13   3.1570   7.5083   5.8853  -2.0869   3.2533  -2.4706   0.00    0.0
2024/01/10 00:08:42.998    369632.9071  -5811414.9235  -5060777.5562   5  13   3.1569   7.5096   5.8849  -2.0874   3.2521  -2.4698   0.00    0.0
2024/01/10 00:08:43.998    372816.0058  -5807224.7466  -5065347.6649   5  14   3.0086   6.6117   5.8801  -2.7866   3.3736  -2.4245   0.00    0.0
2024/01/10 00:08:44.998    375999.4192  -5803033.8739  -5069915.2109   5  14   3.0085   6.6125   5.8798  -2.7871   3.3725  -2.4236   0.00    0.0
2024/01/10 00:08:45.998    379184.1505  -5798836.6377  -5074476.4623   5  14   3.0085   6.6133   5.8794  -2.7876   3.3714  -2.4228   0.00    0.0
2024/01/10 00:08:46.998    382366.6364  -5794634.1272  -5079032.2186   5  14   3.0084   6.6140   5.8790  -2.7881   3.3704  -2.4219   0.00    0.0
2024/01/10 00:08:47.998    385551.4905  -5790431.9063  -5083586.2063   5  14   3.0083   6.6148   5.8787  -2.7886   3.3693  -2.4211   0.00    0.0
2024/01/10 00:08:48.998    388736.7943  -5786221.0952  -5088133.3782   5  14   3.0083   6.6156   5.8783  -2.7892   3.3682  -2.4203   0.00    0.0
2024/01/10 00:08:49.998    391921.1973  -5782005.4285  -5092679.0091   5  14   3.0082   6.6163   5.8780  -2.7897   3.3671  -2.4194   0.00    0.0
2024/01/10 00:08:50.998    395105.7807  -5777785.8008  -5097215.1681   5  14   3.0082   6.6171   5.8776  -2.7902   3.3661  -2.4186   0.00    0.0
2024/01/10 00:08:51.998    398291.6723  -5773562.8779  -5101753.3511   5  14   3.0081   6.6179   5.8773  -2.7907   3.3650  -2.4178   0.00    0.0
2024/01/10 00:08:52.998    401478.1526  -5769334.3985  -5106284.6829   5  14   3.0080   6.6187   5.8770  -2.7912   3.3639  -2.4169   0.00    0.0
2024/01/10 00:08:53.998    404663.9627  -5765102.0197  -5110812.2726   5  14   3.0080   6.6194   5.8766  -2.7917   3.3628  -2.4161   0.00    0.0
2024/01/10 00:08:54.998    407849.3956  -5760864.0653  -5115332.9661   5  14   3.0079   6.6202   5.8763  -2.7922   3.3617  -2.4153   0.00    0.0
2024/01/10 00:08:55.998    411036.1875  -5756622.2159  -5119851.1432   5  14   3.0079   6.6210   5.8760  -2.7928   3.3607  -2.4144   0.00    0.0
2024/01/10 00:08:56.998    414222.9666  -5752376.0043  -5124364.5818   5  14   3.0078   6.6218   5.8756  -2.7933   3.3596  -2.4136   0.00    0.0
2024/01/10 00:08:57.998    417409.5286  -5748126.5864  -5128872.5937   5  14   3.0078   6.6226   5.8753  -2.7938   3.3585  -2.4128   0.00    0.0
2024/01/10 00:08:58.998    420597.2838  -5743869.6727  -5133377.7379   5  13   3.0784   6.6407   7.3145  -2.7374   3.6555  -1.7201   0.00    0.0
2024/01/10 00:08:59.998    423785.1954  -5739609.4639  -5137877.6570   5  13   3.0784   6.6415   7.3145  -2.7381   3.6541  -1.7189   0.00    0.0
2024/01/10 00:09:00.998    426971.8919  -5735344.8511  -5142370.9070   5  13   3.0783   6.6422   7.3146  -2.7387   3.6527  -1.7176   0.00    0.0
2024/01/10 00:09:01.998    430160.4932  -5731076.7272  -5146862.8697   5  13   3.0783   6.6430   7.3147  -2.7393   3.6514  -1.7163   0.00    0.0
2024/01/10 00:09:02.998    433348.8887  -5726805.0798  -5151350.3834   5  13   3.0782   6.6438   7.3148  -2.7399   3.6500  -1.7150   0.00    0.0
2024/01/10 00:09:03.998    436537.4551  -5722525.6174  -5155831.7019   5  13   3.0782   6.6445   7.3148  -2.7405   3.6487  -1.7137   0.00    0.0
2024/01/10 00:09:04.998    439725.8035  -5718243.4284  -5160307.9733   5  13   3.0782   6.6453   7.3149  -2.7411   3.6473  -1.7124   0.00    0.0
2024/01/10 00:09:05.998    442915.3175  -5713956.9889  -5164781.7335   5  13   3.0781   6.6460   7.3150  -2.7417   3.6459  -1.7112   0.00    0.0
2024/01/10 00:09:06.998    446104.3350  -5709664.4576  -5169249.4586   5  13   3.0781   6.6468   7.3151  -2.7423   3.6446  -1.7099   0.00    0.0
2024/01/10 00:09:07.998    449293.9974  -5705372.1024  -5173716.4843   5  13   3.0780   6.6476   7.3152  -2.7430   3.6432  -1.7086   0.00    0.0
2024/01/10 00:09:08.998    452484.0567  -5701071.0167  -5178175.2286   5  13   3.0780   6.6484   7.3153  -2.7436   3.6419  -1.7073   0.00    0.0
2024/01/10 00:09:09.998    455673.4620  -5696763.5572  -5182627.8857   5  13   3.0780   6.6491   7.3154  -2.7442   3.6405  -1.7060   0.00    0.0
2024/01/10 00:09:10.998    458862.8850  -5692454.9458  -5187078.5291   5  13   3.0779   6.6499   7.3155  -2.7448   3.6392  -1.7047   0.00    0.0
2024/01/10 00:09:11.998    462053.4373  -5688143.3108  -5191523.8821   5  13   3.0779   6.6507   7.3156  -2.7454   3.6378  -1.7034   0.00    0.0
2024/01/10 00:09:12.998    465245.5630  -5683825.0669  -5195967.4057   5  13   3.0779   6.6515   7.3157  -2.7461   3.6364  -1.7021   0.00    0.0
2024/01/10 00:09:13.998    468436.1371  -5679502.3745  -5200403.7605   5  13   3.0778   6.6523   7.3158  -2.7467   3.6351  -1.7009   0.00    0.0
2024/01/10 00:09:14.998    471627.2258  -5675176.0179  -5204836.5982   5  13   3.0778   6.6531   7.3159  -2.7473   3.6337  -1.6996   0.00    0.0
2024/01/10 00:09:15.998    474818.7119  -5670845.8125  -5209265.4863   5  13   3.0778   6.6539   7.3160  -2.7479   3.6324  -1.6983   0.00    0.0
2024/01/10 00:09:16.998    478010.0695  -5666509.3439  -5213688.9979   5  13   3.0777   6.6547   7.3161  -2.7485   3.6310  -1.6970   0.00    0.0
2024/01/10 00:09:17.998    481201.6266  -5662168.4497  -5218107.3156   5  13   3.0777   6.6555   7.3163  -2.7492   3.6296  -1.6957   0.00    0.0
2024/01/10 00:09:18.998    484394.2236  -5657825.9445  -5222522.1192   5  13   3.0777   6.6563   7.3164  -2.7498   3.6283  -1.6944   0.00    0.0
2024/01/10 00:09:19.998    487586.7634  -5653476.7018  -5226932.5031   5  13   3.0777   6.6571   7.3165  -2.7504   3.6269  -1.6931   0.00    0.0
2024/01/10 00:09:20.998    490778.5552  -5649123.4920  -5231337.0323   5  13   3.0776   6.6579   7.3166  -2.7510   3.6256  -1.6918   0.00    0.0
2024/01/10 00:09:21.998    493971.3418  -5644766.2234  -5235737.9384   5  13   3.0776   6.6587   7.3168  -2.7516   3.6242  -1.6905   0.00    0.0
2024/01/10 00:09:22.998    497164.9012  -5640403.8352  -5240135.1691   5  13   3.0776   6.6595   7.3169  -2.7523   3.6228  -1.6892   0.00    0.0
2024/01/10 00:09:23.998    500358.0407  -5636035.8254  -5244525.7937   5  13   3.0776   6.6603   7.3171  -2.7529   3.6215  -1.6880   0.00    0.0
2024/01/10 00:09:24.998    503550.1591  -5631666.3826  -5248912.8088   5  13   3.0775   6.6611   7.3172  -2.7535   3.6201  -1.6867   0.00    0.0
2024/01/10 00:09:25.998    506743.7931  -5627291.3401  -5253295.2522   5  13   3.0775   6.6620   7.3174  -2.7541   3.6188  -1.6854   0.00    0.0
2024/01/10 00:09:26.998    509938.5273  -5622911.2170  -5257675.0974   5  13   3.0775   6.6628   7.3175  -2.7548   3.6174  -1.6841   0.00    0.0
2024/01/10 00:09:27.998    513132.0741  -5618528.3937  -5262047.6449   5  13   3.0775   6.6636   7.3177  -2.7554   3.6161  -1.6828   0.00    0.0
2024/01/10 00:09:28.998    516326.7120  -5614138.6436  -5266416.3874   5  13   3.0775   6.6645   7.3178  -2.7560   3.6147  -1.6815   0.00    0.0
2024/01/10 00:09:29.998    519519.3823  -5609745.8241  -5270779.6294   5  13   3.0775   6.6653   7.3180  -2.7567   3.6133  -1.6802   0.00    0.0
2024/01/10 00:09:30.998    522712.4676  -5605345.0600  -5275136.4771   5  13   3.0774   6.6661   7.3182  -2.7573   3.6120  -1.6789   0.00    0.0
2024/01/10 00:09:31.998    525909.2596  -5600946.8490  -5279494.4275   5  13   3.0774   6.6670   7.3183  -2.7579   3.6106  -1.6776   0.00    0.0
2024/01/10 00:09:32.998    529104.2779  -5596539.5250  -5283845.9418   5  13   3.0774   6.6678   7.3185  -2.7586   3.6093  -1.6763   0.00    0.0
2024/01/10 00:09:33.998    532299.0734  -5592129.6877  -5288191.4174   5  13   3.0774   6.6687   7.3187  -2.7592   3.6079  -1.6750   0.00    0.0
2024/01/10 00:09:34.998    535493.9807  -5587714.9694  -5292531.7489   5  13   3.0774   6.6695   7.3188  -2.7598   3.6066  -1.6737   0.00    0.0
2024/01/10 00:09:35.998    538690.5685  -5583297.6541  -5296871.5565   5  13   3.0774   6.6704   7.3190  -2.7605   3.6052  -1.6724   0.00    0.0
2024/01/10 00:09:36.998    541884.1930  -5578871.8880  -5301200.9944   5  13   3.0774   6.6712   7.3192  -2.7611   3.6038  -1.6711   0.00    0.0
2024/01/10 00:09:37.998    545080.6969  -5574444.5763  -5305529.4749   5  13   3.0774   6.6721   7.3194  -2.7617   3.6025  -1.6698   0.00    0.0
2024/01/10 00:09:38.998    548276.4041  -5570012.3922  -5309851.4925   5  13   3.0774   6.6730   7.3196  -2.7624   3.6011  -1.6685   0.00    0.0
2024/01/10 00:09:39.998    551473.4088  -5565575.9642  -5314170.9982   5  13   3.0774   6.6738   7.3198  -2.7630   3.5998  -1.6672   0.00    0.0
2024/01/10 00:09:40.998    554668.5440  -5561135.7564  -5318484.7469   5  13   3.0774   6.6747   7.3200  -2.7636   3.5984  -1.6660   0.00    0.0
2024/01/10 00:09:41.998    557865.8782  -5556690.7171  -5322794.5719   5  13   3.0774   6.6756   7.3202  -2.7643   3.5971  -1.6647   0.00    0.0
2024/01/10 00:09:42.998    561049.2706  -5552223.8881  -5327049.2346   5  12   3.2311   7.2217   7.3268  -2.2211   3.7105  -1.5705   0.00    0.0
2024/01/10 00:09:43.998    564256.0063  -5547769.1945  -5331395.4085   5   8   4.2339   7.7065  10.5618  -2.4812   2.1332   3.7996   0.00    0.0
2024/01/10 00:09:44.998    567434.2906  -5543296.2325  -5335677.6735   5   8   4.2343   7.7076  10.5638  -2.4838   2.1250   3.8014   0.00    0.0
