% program   : rnx2rtkp ver.EX 2.5.0
% inp file  : .\s6an0100_cut_10min.obs
% inp file  : .\se6a0100_cut_10min.nav
% obs start : 2024/01/10 00:00:00.0 GPST (week2296 259200.0s)
% obs end   : 2024/01/10 00:09:59.0 GPST (week2296 259799.0s)
%
% (x/y/z-ecef=WGS84,Q=1:fix,2:float,3:sbas,4:dgps,5:single,6:ppp,ns=# of satellites)
%  GPST              x-ecef(m)      y-ecef(m)      z-ecef(m)   Q  ns   sdx(m)   sdy(m)   sdz(m)  sdxy(m)  sdyz(m)  sdzx(m) age(s)  ratio
2296 259200.000  -1215995.2382  -7135597.1611  -2072112.3643   5   7   3.7918   7.4342   3.6220   2.6940  -1.7052   0.0532   0.00    0.0
2296 259210.000  -1179827.7379  -7100239.6030  -2137561.8288   5   8   3.3608   6.0132   3.5118  -0.7549   1.2090   1.3358   0.00    0.0
2296 259220.001  -1150727.0432  -7082224.9289  -2198875.1655   5   8   3.3602   6.0145   3.5308  -0.8388   1.2629   1.3653   0.00    0.0
2296 259230.001  -1124570.7920  -7015466.9613  -2206069.5062   5   7   3.3608   6.4830   4.4355  -1.0315   2.8421   1.2562   0.00    0.0
2296 259240.001  -1095018.9687  -6996631.0004  -2267517.6571   5   7   3.3604   6.4850   4.4453  -1.0823   2.8612   1.2995   0.00    0.0
2296 259250.001  -1065372.9823  -6977254.5371  -2328760.1154   5   7   3.3603   6.4874   4.4554  -1.1304   2.8797   1.3412   0.00    0.0
2296 259260.001  -1035633.4467  -6957339.4776  -2389791.9801   5   7   3.3606   6.4901   4.4658  -1.1760   2.8976   1.3817   0.00    0.0
2296 259270.001  -1005802.7895  -6936887.7271  -2450610.1427   5   7   3.3613   6.4932   4.4765  -1.2195   2.9148   1.4209   0.00    0.0
2296 259280.001   -975881.6354  -6915901.6964  -2511209.6036   5   7   3.3623   6.4965   4.4875  -1.2613   2.9315   1.4591   0.00    0.0
2296 259290.001   -945872.6876  -6894384.8349  -2571586.8601   5   7   3.3636   6.5002   4.4988  -1.3014   2.9476   1.4963   0.00    0.0
2296 259300.001   -915777.1608  -6872338.3377  -2631737.9683   5   7   3.3654   6.5041   4.5105  -1.3401   2.9632   1.5326   0.00    0.0
2296 259310.001   -885597.0511  -6849765.4209  -2691658.1059   5   7   3.3674   6.5082   4.5224  -1.3776   2.9781   1.5681   0.00    0.0
2296 259320.001   -855334.1780  -6826668.6614  -2751344.0119   5   7   3.3698   6.5125   4.5347  -1.4139   2.9925   1.6029   0.00    0.0
2296 259330.001   -824990.2220  -6803050.6626  -2810790.8323   5   7   3.3725   6.5170   4.5472  -1.4492   3.0064   1.6370   0.00    0.0
2296 259340.001   -794567.2130  -6778913.7832  -2869995.0050   5   7   3.3755   6.5217   4.5601  -1.4835   3.0197   1.6705   0.00    0.0
2296 259350.001   -764066.7809  -6754261.2575  -2928952.2198   5   7   3.3789   6.5266   4.5733  -1.5171   3.0325   1.7035   0.00    0.0
2296 259360.001   -733491.0065  -6729095.5627  -2987658.2872   5   7   3.3826   6.5317   4.5868  -1.5498   3.0447   1.7359   0.00    0.0
2296 259370.001   -702841.7434  -6703419.8339  -3046109.1889   5   7   3.3866   6.5368   4.6006  -1.5819   3.0564   1.7679   0.00    0.0
2296 259380.001   -672120.8921  -6677236.4544  -3104300.5412   5   7   3.3910   6.5422   4.6148  -1.6133   3.0676   1.7994   0.00    0.0
2296 259390.001   -641330.3151  -6650548.0132  -3162228.3929   5   7   3.3957   6.5476   4.6293  -1.6441   3.0783   1.8306   0.00    0.0
2296 259400.001   -610471.6264  -6623357.4387  -3219887.7571   5   7   3.4006   6.5532   4.6441  -1.6743   3.0885   1.8615   0.00    0.0
2296 259410.001   -579547.4298  -6595667.5456  -3277275.7064   5   7   3.4059   6.5589   4.6593  -1.7041   3.0982   1.8920   0.00    0.0
2296 259420.001   -548559.1529  -6567480.6137  -3334386.6002   5   7   3.4116   6.5646   4.6748  -1.7334   3.1074   1.9222   0.00    0.0
2296 259430.001   -495667.2608  -6605715.8114  -3385105.0299   5   8   3.1708   5.3339   4.6454   1.2957   3.3373   1.7928   0.00    0.0
2296 259440.001   -464051.0735  -6577042.7738  -3441438.3611   5   8   3.1674   5.3305   4.6599   1.3006   3.3523   1.8175   0.00    0.0
2296 259450.001   -432375.7486  -6547862.2643  -3497471.3693   5   8   3.1640   5.3271   4.6747   1.3058   3.3672   1.8417   0.00    0.0
2296 259460.001   -400643.7311  -6518178.1679  -3553199.7992   5   8   3.1608   5.3240   4.6897   1.3115   3.3820   1.8655   0.00    0.0
2296 259470.001   -368857.1034  -6487992.3615  -3608619.4627   5   8   3.1575   5.3209   4.7051   1.3176   3.3968   1.8888   0.00    0.0
2296 259480.001   -337017.4047  -6457308.7419  -3663726.2762   5   8   3.1544   5.3181   4.7208   1.3241   3.4115   1.9117   0.00    0.0
2296 259490.001   -305126.9245  -6426128.3044  -3718513.5332   5   8   3.1513   5.3154   4.7367   1.3310   3.4262   1.9343   0.00    0.0
2296 259500.001   -273187.6779  -6394454.4098  -3772978.4400   5   8   3.1482   5.3128   4.7530   1.3382   3.4409   1.9565   0.00    0.0
2296 259510.001   -241201.8694  -6362288.9333  -3827115.6597   5   8   3.1452   5.3104   4.7697   1.3459   3.4556   1.9783   0.00    0.0
2296 259520.001   -121375.7697  -6204054.3002  -3643543.3034   5   7   4.0343   6.4245   8.2239   3.2493   5.9869   4.5561   0.00    0.0
2296 259530.001    -91145.5973  -6173584.3799  -3701222.8165   5   7   4.0199   6.4067   8.2105   3.2322   5.9715   4.5437   0.00    0.0
2296 259540.001    -60867.7578  -6142609.0860  -3758551.6135   5   7   4.0056   6.3892   8.1978   3.2155   5.9566   4.5315   0.00    0.0
2296 259550.001    -30543.9840  -6111131.1152  -3815525.6009   5   7   3.9914   6.3723   8.1859   3.1993   5.9422   4.5195   0.00    0.0
2296 259560.001      -176.4997  -6079151.5752  -3872138.9701   5   7   3.9772   6.3557   8.1746   3.1834   5.9283   4.5076   0.00    0.0
2296 259570.001     30234.2578  -6046673.9302  -3928388.1233   5   7   3.9632   6.3396   8.1640   3.1680   5.9149   4.4960   0.00    0.0
2296 259580.001     60685.8668  -6013700.6124  -3984268.0754   5   7   3.9492   6.3240   8.1541   3.1529   5.9019   4.4844   0.00    0.0
2296 259590.001     91177.0739  -5980233.6826  -4039774.3083   5   7   3.9352   6.3088   8.1448   3.1382   5.8895   4.4731   0.00    0.0
2296 259600.001    121706.0280  -5946276.4409  -4094902.8762   5   7   3.9214   6.2940   8.1360   3.1240   5.8775   4.4618   0.00    0.0
2296 259610.001    152271.2604  -5911830.8720  -4149648.3919   5   7   3.9075   6.2797   8.1278   3.1100   5.8659   4.4506   0.00    0.0
2296 259620.001    182872.1600  -5876899.6636  -4204005.2779   5   7   3.8937   6.2658   8.1202   3.0965   5.8548   4.4395   0.00    0.0
2296 259630.001    213506.3208  -5841486.6895  -4257971.3059   5   7   3.8799   6.2524   8.1130   3.0833   5.8441   4.4284   0.00    0.0
2296 259640.001    244172.7276  -5805593.1290  -4311539.5638   5   7   3.8662   6.2394   8.1064   3.0704   5.8338   4.4174   0.00    0.0
2296 259650.001    274869.9538  -5769222.5597  -4364705.8600   5   7   3.8524   6.2268   8.1001   3.0579   5.8239   4.4064   0.00    0.0
2296 259660.001    305596.4229  -5732378.0466  -4417465.8409   5   7   3.8387   6.2146   8.0944   3.0457   5.8143   4.3953   0.00    0.0
2296 259670.001    336351.2393  -5695061.9212  -4469814.1661   5   7   3.8249   6.2028   8.0890   3.0338   5.8052   4.3843   0.00    0.0
2296 259680.001    367133.0519  -5657277.4771  -4521745.9640   5   7   3.8112   6.1915   8.0840   3.0221   5.7964   4.3733   0.00    0.0
2296 259690.001    397940.1545  -5619027.3768  -4573256.9575   5   7   3.7974   6.1806   8.0794   3.0108   5.7880   4.3622   0.00    0.0
2296 259700.001    428772.1217  -5580315.2709  -4624341.3252   5   7   3.7836   6.1701   8.0751   2.9997   5.7799   4.3510   0.00    0.0
2296 259710.001    459626.9239  -5541143.5828  -4674994.8798   5   7   3.7698   6.1600   8.0711   2.9889   5.7721   4.3398   0.00    0.0
2296 259720.001    490503.8939  -5501515.0728  -4725211.7645   5   7   3.7560   6.1503   8.0674   2.9784   5.7646   4.3285   0.00    0.0
2296 259730.001    521401.6097  -5461434.2321  -4774988.7354   5   7   3.7422   6.1410   8.0640   2.9681   5.7575   4.3171   0.00    0.0
2296 259740.001    552319.3560  -5420902.6793  -4824318.5493   5   7   3.7283   6.1321   8.0609   2.9580   5.7506   4.3056   0.00    0.0
2296 259750.001    583255.3979  -5379924.3695  -4873197.9429   5   7   3.7144   6.1236   8.0580   2.9482   5.7440   4.2940   0.00    0.0
2296 259760.001    614208.8953  -5338502.9939  -4921621.9948   5   7   3.7005   6.1155   8.0554   2.9385   5.7377   4.2823   0.00    0.0
2296 259770.001    672299.2850  -5358876.6603  -5028449.8368   5   6   3.8159   6.4622   8.2914   2.5260   6.0776   4.0352   0.00    0.0
2296 259780.001    703063.1915  -5316219.8251  -5076209.0960   5   6   3.7994   6.4482   8.2898   2.5249   6.0688   4.0254   0.00    0.0
2296 259790.001    733837.9127  -5273135.2590  -5123512.9106   5   6   3.7829   6.4347   8.2885   2.5237   6.0605   4.0155   0.00    0.0
